 2017  8 4 0551 53.8 L  76.431   7.336  9.1  AWI 25 0.3                        1
 GAP= 74        0.50       0.7     6.3  2.2 -0.6656E+00 -0.1617E+01  0.1453E+00E
                                                         ID:20170804055154     I
 2017-08-04_05-51-54.mseed                                                     6
 STAT SP IPHASW D HRMM SECON CODA AMPLIT PERI AZIMU VELO AIN AR TRES W  DIS CAZ7
 KNR08    P   0    551 55.30                             153   -0.4010 4.28  91 
 KNR08    S   2    551 56.33                             153   -0.84 5 4.28  91 
 KNR23    P   0    551 56.05                             125   -0.0710 10.4 323 
 KNR23    S   2    551 57.75                             125   -0.16 5 10.4 323 
 KNR19    P   0    551 56.61                             119    0.2410 12.6 204 
 KNR19    S   2    551 58.75                             119    0.39 5 12.6 204 
 KNR07    P   0    551 57.04                             112    0.0610 16.4 271 
 KNR07    S   2    551 59.40                             112   -0.04 5 16.4 271 
 KNR21    P   0    551 57.19                             112    0.1810 16.7 354 
 KNR21    S   2    551 59.67                             112    0.17 5 16.7 354 
 KNR20    P   0    551 57.57                             109    0.2810 18.5  43 
 KNR20    S   2    552  0.35                             109    0.36 5 18.5  43 
 KNR30    P   0    551 57.68                             108    0.2410 19.8  19 
 KNR30    S   2    552  0.53                             108    0.28 5 19.8  19 
 KNR28    P   0    551 57.58                             108    0.0310 20.1 330 
 KNR28    S   2    552  0.35                             108   -0.10 5 20.1 330 
 KNR10BZ  P   3    551 57.22                             106   -0.47 2 21.6 164 
 KNR10B2  S   3    551 59.24                             106   -1.46 2 21.6 164 
 KNR09    P   0    551 58.33                             103    0.1510 25.3 214 
 KNR09    S   2    552  1.69                             103    0.12 5 25.3 214 
 KNR22    P   0    551 58.43                             102    0.2910 25.8   7 
 KNR22    S   2    552  1.87                             102    0.37 5 25.8   7 
 KNR18    P   0    551 58.66                             101    0.0310 28.6 317 
 KNR18    S   2    552  2.28                             101   -0.08 5 28.6 317 
 KNR06    P   0    551 59.66                              98    0.1410 34.9  18 
 KNR06    S   2    552  4.04                              98    0.10 5 34.9  18 
 KNR05    P   0    551 59.56                              98    0.0310 34.9 348 
 KNR05    S   2    552  3.86                              98   -0.10 5 34.9 348 
 KNR12    P   0    552  0.64                              95    0.1910 41.9 171 
 KNR12    S   2    552  5.78                              95    0.19 5 41.9 171 
 KNR11    P   0    552  0.58                              95    0.1010 42.0 198 
 KNR11    S   2    552  5.67                              95    0.04 5 42.0 198 
 KNR29    P   0    552  0.95                              85    0.0710 44.8  17 
 KNR29    S   2    552  6.32                              85   -0.02 5 44.8  17 
 KNR03    P   0    552  2.40                              85   -0.2210 56.5 347 
 KNR03    S   2    552  8.87                              85   -0.56 5 56.5 347 
 KNR04    P   0    552  2.51                              85   -0.0210 56.7  13 
 KNR04    S   2    552  9.07                              85   -0.20 5 56.7  13 
 KNR14    P   0    552  3.05                              85    0.0510 60.2 172 
 KNR14    S   2    552 10.02                              85   -0.07 5 60.2 172 
 KNR13    P   0    552  3.06                              85   -0.0110 60.8 192 
 KNR13    S   2    552 10.04                              85   -0.18 5 60.8 192 
 KNR02    P   0    552  4.85                              85   -0.1510 75.0  10 
 KNR02    S   2    552 13.18                              85   -0.45 5 75.0  10 
 KNR01    P   0    552  4.82                              85   -0.2510 75.2 353 
 KNR01    S   2    552 13.13                              85   -0.63 5 75.2 353 
 KNR16    P   0    552  5.26                              85   -0.1110 77.5 171 
 KNR16    S   2    552 13.90                              85   -0.39 5 77.5 171 
 KNR15    P   0    552  5.23                              85   -0.1610 77.6 188 
 KNR15    S   2    552 13.84                              85   -0.48 5 77.6 188 
                                                                                
