 2017  8 4  551 55.3 L                       TES                               1
                                                                               6
 STAT SP IPHASW D HRMM SECON CODA AMPLIT PERI AZIMU VELO AIN AR TRES W  DIS CAZ7
 KNR08    P   0    551 55.30                                                    
 KNR29    P   0    552  0.95                                                    
 KNR29    S   2    552  6.32                                                    
 KNR03    P   0    552  2.40                                                    
 KNR03    S   2    552  8.87                                                    
 KNR11    P   0    552  0.58                                                    
 KNR11    S   2    552  5.67                                                    
 KNR12    P   0    552  0.64                                                    
 KNR12    S   2    552  5.78                                                    
 KNR06    P   0    551 59.66                                                    
 KNR06    S   2    552  4.04                                                    
 KNR04    P   0    552  2.51                                                    
 KNR04    S   2    552  9.07                                                    
 KNR14    P   0    552  3.05                                                    
 KNR15    P   0    552  5.23                                                    
 KNR16    P   0    552  5.26                                                    
 KNR16    S   2    552 13.90                                                    
 KNR01    P   4    552  4.82                                                    
 KNR01    S   4    552 13.13                                                    
 KNR02    P   0    552  4.85                                                    
 KNR02    S   2    552 13.18                                                    
 KNR13    P   0    552  3.06                                                    
 KNR13    S   2    552 10.04                                                    
 KNR14    S   2    552 10.02                                                    
 KNR05    P   0    551 59.56                                                    
 KNR05    S   2    552  3.86                                                    
 KNR20    P   0    551 57.57                                                    
 KNR21    P   0    551 57.19                                                    
 KNR21    S   2    551 59.67                                                    
 KNR07    P   0    551 57.04                                                    
 KNR07    S   2    551 59.40                                                    
 KNR19    P   0    551 56.61                                                    
 KNR19    S   2    551 58.75                                                    
 KNR23    P   0    551 56.05                                                    
 KNR23    S   2    551 57.75                                                    
 KNR08    S   2    551 56.33                                                    
 KNR20    S   2    552  0.35                                                    
 KNR30    P   0    551 57.68                                                    
 KNR30    S   2    552  0.53                                                    
 KNR18    P   0    551 58.66                                                    
 KNR18    S   2    552  2.28                                                    
 KNR22    P   0    551 58.43                                                    
 KNR22    S   2    552  1.87                                                    
 KNR09    P   0    551 58.33                                                    
 KNR09    S   2    552  1.69                                                    
 KNR10BZ  P   3    551 57.22                                                    
 KNR10B2  S   3    551 59.24                                                    
 KNR28    P   0    551 57.58                                                    
 KNR28    S   2    552  0.35                                                    
 KNR15    S   2    552 13.84                                                    
                                                                                
