 2017  8 4  551 55.3 L                           25        L                   1
                                                                               E
                                                                               6
 STAT SP IPHASW D HRMM SECON CODA AMPLIT PERI AZIMU VELO AIN AR TRES W  DIS CAZ7
 KNR08    P   0    551 55.30                                    -0.4            
 KNR08    S   2    551 56.33                                   -0.77            
 KNR23    P   0    551 56.05                                   -0.05            
 KNR23    S   2    551 57.75                                   -0.15            
 KNR19    P   0    551 56.61                                    0.31            
 KNR19    S   2    551 58.75                                    0.45            
 KNR07    P   0    551 57.04                                   0.039            
 KNR07    S   2    551 59.40                                       0            
 KNR21    P   0    551 57.19                                    0.19            
 KNR21    S   2    551 59.67                                    0.17            
 KNR20    P   0    551 57.57                                    0.27            
 KNR20    S   2    552  0.35                                    0.35            
 KNR30    P   4    551 57.68                                    0.28            
 KNR30    S   4    552  0.53                                    0.33            
 KNR28    P   0    551 57.58                                   0.079            
 KNR28    S   2    552  0.35                                   -0.05            
 KNR10BZ  P   3    551 57.22                                   -0.48            
 KNR10B2  S   3    551 59.24                                   -1.46            
 KNR09    P   0    551 58.33                                    0.23            
 KNR09    S   2    552  1.69                                    0.19            
 KNR22    P   0    551 58.43                                    0.33            
 KNR22    S   2    552  1.87                                    0.37            
 KNR18    P   0    551 58.66                                   0.060            
 KNR18    S   2    552  2.28                                   -0.02            
 KNR05    P   0    551 59.56                                    0.06            
 KNR05    S   2    552  3.86                                   -0.04            
 KNR06    P   0    551 59.66                                    0.16            
 KNR06    S   2    552  4.04                                    0.14            
 KNR12    P   0    552  0.64                                    0.24            
 KNR12    S   2    552  5.78                                    0.28            
 KNR11    P   0    552  0.58                                    0.18            
 KNR11    S   2    552  5.67                                   0.070            
 KNR29    P   0    552  0.95                                    0.05            
 KNR29    S   2    552  6.32                                    0.02            
 KNR03    P   0    552  2.40                                    -0.2            
 KNR03    S   2    552  8.87                                   -0.53            
 KNR04    P   0    552  2.51                                   0.009            
 KNR04    S   2    552  9.07                                   -0.23            
 KNR14    P   0    552  3.05                                    0.05            
 KNR14    S   2    552 10.02                                   -0.08            
 KNR13    P   0    552  3.06                                    0.06            
 KNR13    S   2    552 10.04                                   -0.16            
 KNR02    P   0    552  4.85                                   -0.15            
 KNR02    S   2    552 13.18                                   -0.42            
 KNR01    P   0    552  4.82                                   -0.18            
 KNR01    S   2    552 13.13                                   -0.57            
 KNR16    P   0    552  5.26                                   -0.04            
 KNR16    S   2    552 13.90                                    -0.4            
 KNR15    P   0    552  5.23                                   -0.17            
 KNR15    S   2    552 13.84                                   -0.46            
                                                                                
