 2017 0303 2219 30.6 L  76.543   7.147  0.0  AWI 26                            1
 STAT SP IPHASW D HRMM SECON CODA AMPLIT PERI AZIMU VELO AIN AR TRES W  DIS CAZ7
 KNR01    P   0A  2219 39.80                                                    
 KNR02    P   0A  2219 40.01                                                    
 KNR03    P   0A  2219 37.31                                                    
 KNR04    P   0A  2219 37.72                                                    
 KNR05    P   0A  2219 34.48                                                    
 KNR06    P   0A  2219 35.03                                                    
 KNR07    P   0A  2219 33.81                                                    
 KNR08    P   0A  2219 33.65                                                    
 KNR09    P   0A  2219 36.18                                                    
 KNR10    P   0A  2219 36.22                                                    
 KNR11    P   0A  2219 38.59                                                    
 KNR12    P   0A  2219 38.85                                                    
 KNR13    P   0A  2219 41.08                                                    
 KNR14    P   0A  2219 41.21                                                    
 KNR15    P   0A  2219 43.28                                                    
 KNR16    P   0A  2219 43.42                                                    
 KNR17    P   0A  2219 36.07                                                    
 KNR18    P   0A  2219 33.83                                                    
 KNR19    P   0A  2219 34.77                                                    
 KNR20    P   0A  2219 33.92                                                    
 KNR21    P   0A  2219 31.76                                                    
 KNR22    P   0A  2219 33.65                                                    
 KNR23    P   0A  2219 31.58                                                    
 KNR28    P   0A  2219 32.24                                                    
 KNR29    P   0A  2219 36.28                                                    
 KNR30    P   0A  2219 33.27                                                    
 KNR01    S   0A  2219 46.93                                                    
 KNR02    S   0A  2219 47.28                                                    
 KNR03    S   0A  2219 42.53                                                    
 KNR04    S   0A  2219 43.25                                                    
 KNR05    S   0A  2219 37.53                                                    
 KNR06    S   0A  2219 38.50                                                    
 KNR07    S   0A  2219 36.34                                                    
 KNR08    S   0A  2219 36.06                                                    
 KNR09    S   0A  2219 40.53                                                    
 KNR10    S   0A  2219 40.59                                                    
 KNR11    S   0A  2219 44.79                                                    
 KNR12    S   0A  2219 45.24                                                    
 KNR13    S   0A  2219 49.16                                                    
 KNR14    S   0A  2219 49.39                                                    
 KNR15    S   0A  2219 53.02                                                    
 KNR16    S   0A  2219 53.27                                                    
 KNR17    S   0A  2219 40.33                                                    
 KNR18    S   0A  2219 36.37                                                    
 KNR19    S   0A  2219 38.03                                                    
 KNR20    S   0A  2219 36.53                                                    
 KNR21    S   0A  2219 32.72                                                    
 KNR22    S   0A  2219 36.06                                                    
 KNR23    S   0A  2219 32.39                                                    
 KNR28    S   0A  2219 33.56                                                    
 KNR29    S   0A  2219 40.70                                                    
 KNR30    S   0A  2219 35.45                                                    

 2017 0303 2304 21.2 L  76.522   7.101  0.0  AWI 26                            1
 STAT SP IPHASW D HRMM SECON CODA AMPLIT PERI AZIMU VELO AIN AR TRES W  DIS CAZ7
 KNR01    P   0A  2304 30.75                                                    
 KNR02    P   0A  2304 30.99                                                    
 KNR03    P   0A  2304 28.24                                                    
 KNR04    P   0A  2304 28.71                                                    
 KNR05    P   0A  2304 25.42                                                    
 KNR06    P   0A  2304 26.02                                                    
 KNR07    P   0A  2304 24.10                                                    
 KNR08    P   0A  2304 24.16                                                    
 KNR09    P   0A  2304 26.47                                                    
 KNR10    P   0A  2304 26.61                                                    
 KNR11    P   0A  2304 28.89                                                    
 KNR12    P   0A  2304 29.21                                                    
 KNR13    P   0A  2304 31.39                                                    
 KNR14    P   0A  2304 31.58                                                    
 KNR15    P   0A  2304 33.60                                                    
 KNR16    P   0A  2304 33.79                                                    
 KNR17    P   0A  2304 27.05                                                    
 KNR18    P   0A  2304 24.52                                                    
 KNR19    P   0A  2304 25.09                                                    
 KNR20    P   0A  2304 24.76                                                    
 KNR21    P   0A  2304 22.99                                                    
 KNR22    P   0A  2304 24.64                                                    
 KNR23    P   0A  2304 21.61                                                    
 KNR28    P   0A  2304 23.09                                                    
 KNR29    P   0A  2304 27.27                                                    
 KNR30    P   0A  2304 24.27                                                    
 KNR01    S   0A  2304 38.09                                                    
 KNR02    S   0A  2304 38.52                                                    
 KNR03    S   0A  2304 33.67                                                    
 KNR04    S   0A  2304 34.51                                                    
 KNR05    S   0A  2304 28.70                                                    
 KNR06    S   0A  2304 29.76                                                    
 KNR07    S   0A  2304 26.37                                                    
 KNR08    S   0A  2304 26.47                                                    
 KNR09    S   0A  2304 30.56                                                    
 KNR10    S   0A  2304 30.80                                                    
 KNR11    S   0A  2304 34.83                                                    
 KNR12    S   0A  2304 35.40                                                    
 KNR13    S   0A  2304 39.23                                                    
 KNR14    S   0A  2304 39.55                                                    
 KNR15    S   0A  2304 43.10                                                    
 KNR16    S   0A  2304 43.43                                                    
 KNR17    S   0A  2304 31.58                                                    
 KNR18    S   0A  2304 27.11                                                    
 KNR19    S   0A  2304 28.11                                                    
 KNR20    S   0A  2304 27.52                                                    
 KNR21    S   0A  2304 24.43                                                    
 KNR22    S   0A  2304 27.32                                                    
 KNR23    S   0A  2304 21.94                                                    
 KNR28    S   0A  2304 24.63                                                    
 KNR29    S   0A  2304 31.96                                                    
 KNR30    S   0A  2304 26.66                                                    

 2017 0304 0023 13.4 L  76.543   7.147  0.0  AWI 26                            1
 STAT SP IPHASW D HRMM SECON CODA AMPLIT PERI AZIMU VELO AIN AR TRES W  DIS CAZ7
 KNR01    P   0A  0023 22.68                                                    
 KNR02    P   0A  0023 22.89                                                    
 KNR03    P   0A  0023 20.19                                                    
 KNR04    P   0A  0023 20.60                                                    
 KNR05    P   0A  0023 17.36                                                    
 KNR06    P   0A  0023 17.91                                                    
 KNR07    P   0A  0023 16.69                                                    
 KNR08    P   0A  0023 16.53                                                    
 KNR09    P   0A  0023 19.06                                                    
 KNR10    P   0A  0023 19.09                                                    
 KNR11    P   0A  0023 21.47                                                    
 KNR12    P   0A  0023 21.73                                                    
 KNR13    P   0A  0023 23.96                                                    
 KNR14    P   0A  0023 24.09                                                    
 KNR15    P   0A  0023 26.16                                                    
 KNR16    P   0A  0023 26.30                                                    
 KNR17    P   0A  0023 18.95                                                    
 KNR18    P   0A  0023 16.71                                                    
 KNR19    P   0A  0023 17.64                                                    
 KNR20    P   0A  0023 16.80                                                    
 KNR21    P   0A  0023 14.64                                                    
 KNR22    P   0A  0023 16.53                                                    
 KNR23    P   0A  0023 14.46                                                    
 KNR28    P   0A  0023 15.12                                                    
 KNR29    P   0A  0023 19.16                                                    
 KNR30    P   0A  0023 16.15                                                    
 KNR01    S   0A  0023 29.81                                                    
 KNR02    S   0A  0023 30.16                                                    
 KNR03    S   0A  0023 25.41                                                    
 KNR04    S   0A  0023 26.13                                                    
 KNR05    S   0A  0023 20.41                                                    
 KNR06    S   0A  0023 21.38                                                    
 KNR07    S   0A  0023 19.22                                                    
 KNR08    S   0A  0023 18.94                                                    
 KNR09    S   0A  0023 23.41                                                    
 KNR10    S   0A  0023 23.47                                                    
 KNR11    S   0A  0023 27.67                                                    
 KNR12    S   0A  0023 28.12                                                    
 KNR13    S   0A  0023 32.03                                                    
 KNR14    S   0A  0023 32.27                                                    
 KNR15    S   0A  0023 35.90                                                    
 KNR16    S   0A  0023 36.15                                                    
 KNR17    S   0A  0023 23.21                                                    
 KNR18    S   0A  0023 19.25                                                    
 KNR19    S   0A  0023 20.91                                                    
 KNR20    S   0A  0023 19.41                                                    
 KNR21    S   0A  0023 15.60                                                    
 KNR22    S   0A  0023 18.94                                                    
 KNR23    S   0A  0023 15.27                                                    
 KNR28    S   0A  0023 16.44                                                    
 KNR29    S   0A  0023 23.58                                                    
 KNR30    S   0A  0023 18.33                                                    

 2017 0304 0057 39.5 L  76.338   6.920  0.0  AWI 26                            1
 STAT SP IPHASW D HRMM SECON CODA AMPLIT PERI AZIMU VELO AIN AR TRES W  DIS CAZ7
 KNR01    P   0A  0057 51.69                                                    
 KNR02    P   0A  0057 52.00                                                    
 KNR03    P   0A  0057 49.15                                                    
 KNR04    P   0A  0057 49.73                                                    
 KNR05    P   0A  0057 46.44                                                    
 KNR06    P   0A  0057 46.98                                                    
 KNR07    P   0A  0057 42.05                                                    
 KNR08    P   0A  0057 43.00                                                    
 KNR09    P   0A  0057 41.88                                                    
 KNR10    P   0A  0057 43.18                                                    
 KNR11    P   0A  0057 44.48                                                    
 KNR12    P   0A  0057 45.25                                                    
 KNR13    P   0A  0057 47.02                                                    
 KNR14    P   0A  0057 47.55                                                    
 KNR15    P   0A  0057 49.28                                                    
 KNR16    P   0A  0057 49.73                                                    
 KNR17    P   0A  0057 48.13                                                    
 KNR18    P   0A  0057 44.86                                                    
 KNR19    P   0A  0057 40.89                                                    
 KNR20    P   0A  0057 44.99                                                    
 KNR21    P   0A  0057 44.32                                                    
 KNR22    P   0A  0057 45.67                                                    
 KNR23    P   0A  0057 43.11                                                    
 KNR28    P   0A  0057 44.23                                                    
 KNR29    P   0A  0057 48.26                                                    
 KNR30    P   0A  0057 45.04                                                    
 KNR01    S   0A  0058  1.00                                                    
 KNR02    S   0A  0058  1.56                                                    
 KNR03    S   0A  0057 56.56                                                    
 KNR04    S   0A  0057 57.57                                                    
 KNR05    S   0A  0057 51.79                                                    
 KNR06    S   0A  0057 52.75                                                    
 KNR07    S   0A  0057 44.14                                                    
 KNR08    S   0A  0057 45.70                                                    
 KNR09    S   0A  0057 43.89                                                    
 KNR10    S   0A  0057 46.02                                                    
 KNR11    S   0A  0057 48.31                                                    
 KNR12    S   0A  0057 49.68                                                    
 KNR13    S   0A  0057 52.82                                                    
 KNR14    S   0A  0057 53.75                                                    
 KNR15    S   0A  0057 56.79                                                    
 KNR16    S   0A  0057 57.59                                                    
 KNR17    S   0A  0057 54.78                                                    
 KNR18    S   0A  0057 48.99                                                    
 KNR19    S   0A  0057 41.98                                                    
 KNR20    S   0A  0057 49.23                                                    
 KNR21    S   0A  0057 48.05                                                    
 KNR22    S   0A  0057 50.42                                                    
 KNR23    S   0A  0057 45.89                                                    
 KNR28    S   0A  0057 47.89                                                    
 KNR29    S   0A  0057 55.01                                                    
 KNR30    S   0A  0057 49.32                                                    

