 2017 0302 0444 22.0 L  76.554   7.194  0.0  AWI 26                            1
 STAT SP IPHASW D HRMM SECON CODA AMPLIT PERI AZIMU VELO AIN AR TRES W  DIS CAZ7
 KNR01    P   0A  0444 31.10                                                    
 KNR02    P   0A  0444 31.26                                                    
 KNR03    P   0A  0444 28.63                                                    
 KNR04    P   0A  0444 28.95                                                    
 KNR05    P   0A  0444 25.79                                                    
 KNR06    P   0A  0444 26.25                                                    
 KNR07    P   0A  0444 25.47                                                    
 KNR08    P   0A  0444 25.14                                                    
 KNR09    P   0A  0444 27.81                                                    
 KNR10    P   0A  0444 27.76                                                    
 KNR11    P   0A  0444 30.21                                                    
 KNR12    P   0A  0444 30.41                                                    
 KNR13    P   0A  0444 32.69                                                    
 KNR14    P   0A  0444 32.77                                                    
 KNR15    P   0A  0444 34.89                                                    
 KNR16    P   0A  0444 34.99                                                    
 KNR17    P   0A  0444 27.32                                                    
 KNR18    P   0A  0444 25.34                                                    
 KNR19    P   0A  0444 26.37                                                    
 KNR20    P   0A  0444 25.20                                                    
 KNR21    P   0A  0444 22.82                                                    
 KNR22    P   0A  0444 24.84                                                    
 KNR23    P   0A  0444 23.39                                                    
 KNR28    P   0A  0444 23.73                                                    
 KNR29    P   0A  0444 27.50                                                    
 KNR30    P   0A  0444 24.42                                                    
 KNR01    S   0A  0444 38.12                                                    
 KNR02    S   0A  0444 38.39                                                    
 KNR03    S   0A  0444 33.75                                                    
 KNR04    S   0A  0444 34.32                                                    
 KNR05    S   0A  0444 28.74                                                    
 KNR06    S   0A  0444 29.55                                                    
 KNR07    S   0A  0444 28.17                                                    
 KNR08    S   0A  0444 27.58                                                    
 KNR09    S   0A  0444 32.31                                                    
 KNR10    S   0A  0444 32.22                                                    
 KNR11    S   0A  0444 36.55                                                    
 KNR12    S   0A  0444 36.90                                                    
 KNR13    S   0A  0444 40.90                                                    
 KNR14    S   0A  0444 41.05                                                    
 KNR15    S   0A  0444 44.74                                                    
 KNR16    S   0A  0444 44.93                                                    
 KNR17    S   0A  0444 31.43                                                    
 KNR18    S   0A  0444 27.93                                                    
 KNR19    S   0A  0444 29.75                                                    
 KNR20    S   0A  0444 27.69                                                    
 KNR21    S   0A  0444 23.46                                                    
 KNR22    S   0A  0444 27.09                                                    
 KNR23    S   0A  0444 24.48                                                    
 KNR28    S   0A  0444 25.09                                                    
 KNR29    S   0A  0444 31.75                                                    
 KNR30    S   0A  0444 26.46                                                    

 2017 0302 0455 29.0 L  76.576   7.194  0.0  AWI 26                            1
 STAT SP IPHASW D HRMM SECON CODA AMPLIT PERI AZIMU VELO AIN AR TRES W  DIS CAZ7
 KNR01    P   0A  0455 37.84                                                    
 KNR02    P   0A  0455 38.00                                                    
 KNR03    P   0A  0455 35.36                                                    
 KNR04    P   0A  0455 35.70                                                    
 KNR05    P   0A  0455 32.52                                                    
 KNR06    P   0A  0455 33.04                                                    
 KNR07    P   0A  0455 32.75                                                    
 KNR08    P   0A  0455 32.46                                                    
 KNR09    P   0A  0455 35.16                                                    
 KNR10    P   0A  0455 35.11                                                    
 KNR11    P   0A  0455 37.56                                                    
 KNR12    P   0A  0455 37.76                                                    
 KNR13    P   0A  0455 40.03                                                    
 KNR14    P   0A  0455 40.12                                                    
 KNR15    P   0A  0455 42.23                                                    
 KNR16    P   0A  0455 42.33                                                    
 KNR17    P   0A  0455 34.05                                                    
 KNR18    P   0A  0455 32.26                                                    
 KNR19    P   0A  0455 33.72                                                    
 KNR20    P   0A  0455 32.26                                                    
 KNR21    P   0A  0455 29.50                                                    
 KNR22    P   0A  0455 31.52                                                    
 KNR23    P   0A  0455 30.90                                                    
 KNR28    P   0A  0455 30.57                                                    
 KNR29    P   0A  0455 34.27                                                    
 KNR30    P   0A  0455 31.31                                                    
 KNR01    S   0A  0455 44.62                                                    
 KNR02    S   0A  0455 44.91                                                    
 KNR03    S   0A  0455 40.25                                                    
 KNR04    S   0A  0455 40.85                                                    
 KNR05    S   0A  0455 35.23                                                    
 KNR06    S   0A  0455 36.15                                                    
 KNR07    S   0A  0455 35.63                                                    
 KNR08    S   0A  0455 35.12                                                    
 KNR09    S   0A  0455 39.89                                                    
 KNR10    S   0A  0455 39.80                                                    
 KNR11    S   0A  0455 44.14                                                    
 KNR12    S   0A  0455 44.49                                                    
 KNR13    S   0A  0455 48.47                                                    
 KNR14    S   0A  0455 48.62                                                    
 KNR15    S   0A  0455 52.33                                                    
 KNR16    S   0A  0455 52.50                                                    
 KNR17    S   0A  0455 37.93                                                    
 KNR18    S   0A  0455 34.76                                                    
 KNR19    S   0A  0455 37.35                                                    
 KNR20    S   0A  0455 34.77                                                    
 KNR21    S   0A  0455 29.86                                                    
 KNR22    S   0A  0455 33.59                                                    
 KNR23    S   0A  0455 32.40                                                    
 KNR28    S   0A  0455 31.78                                                    
 KNR29    S   0A  0455 38.32                                                    
 KNR30    S   0A  0455 33.24                                                    

 2017 0302 1804  8.5 L  76.554   7.147  0.0  AWI 26                            1
 STAT SP IPHASW D HRMM SECON CODA AMPLIT PERI AZIMU VELO AIN AR TRES W  DIS CAZ7
 KNR01    P   0A  1804 17.57                                                    
 KNR02    P   0A  1804 17.78                                                    
 KNR03    P   0A  1804 15.08                                                    
 KNR04    P   0A  1804 15.49                                                    
 KNR05    P   0A  1804 12.25                                                    
 KNR06    P   0A  1804 12.83                                                    
 KNR07    P   0A  1804 11.85                                                    
 KNR08    P   0A  1804 11.70                                                    
 KNR09    P   0A  1804 14.25                                                    
 KNR10    P   0A  1804 14.29                                                    
 KNR11    P   0A  1804 16.67                                                    
 KNR12    P   0A  1804 16.92                                                    
 KNR13    P   0A  1804 19.15                                                    
 KNR14    P   0A  1804 19.28                                                    
 KNR15    P   0A  1804 21.36                                                    
 KNR16    P   0A  1804 21.50                                                    
 KNR17    P   0A  1804 13.83                                                    
 KNR18    P   0A  1804 11.67                                                    
 KNR19    P   0A  1804 12.84                                                    
 KNR20    P   0A  1804 11.84                                                    
 KNR21    P   0A  1804  9.47                                                    
 KNR22    P   0A  1804 11.43                                                    
 KNR23    P   0A  1804  9.77                                                    
 KNR28    P   0A  1804  9.98                                                    
 KNR29    P   0A  1804 14.06                                                    
 KNR30    P   0A  1804 11.09                                                    
 KNR01    S   0A  1804 24.58                                                    
 KNR02    S   0A  1804 24.94                                                    
 KNR03    S   0A  1804 20.17                                                    
 KNR04    S   0A  1804 20.91                                                    
 KNR05    S   0A  1804 15.17                                                    
 KNR06    S   0A  1804 16.20                                                    
 KNR07    S   0A  1804 14.46                                                    
 KNR08    S   0A  1804 14.21                                                    
 KNR09    S   0A  1804 18.72                                                    
 KNR10    S   0A  1804 18.77                                                    
 KNR11    S   0A  1804 22.98                                                    
 KNR12    S   0A  1804 23.44                                                    
 KNR13    S   0A  1804 27.34                                                    
 KNR14    S   0A  1804 27.57                                                    
 KNR15    S   0A  1804 31.21                                                    
 KNR16    S   0A  1804 31.45                                                    
 KNR17    S   0A  1804 17.98                                                    
 KNR18    S   0A  1804 14.16                                                    
 KNR19    S   0A  1804 16.23                                                    
 KNR20    S   0A  1804 14.45                                                    
 KNR21    S   0A  1804 10.26                                                    
 KNR22    S   0A  1804 13.74                                                    
 KNR23    S   0A  1804 10.79                                                    
 KNR28    S   0A  1804 11.16                                                    
 KNR29    S   0A  1804 18.38                                                    
 KNR30    S   0A  1804 13.22                                                    

 2017 0302 1908 44.8 L  76.230   7.058  0.0  AWI 26                            1
 STAT SP IPHASW D HRMM SECON CODA AMPLIT PERI AZIMU VELO AIN AR TRES W  DIS CAZ7
 KNR01    P   0A  1908 58.51                                                    
 KNR02    P   0A  1908 58.68                                                    
 KNR03    P   0A  1908 56.00                                                    
 KNR04    P   0A  1908 56.34                                                    
 KNR05    P   0A  1908 53.29                                                    
 KNR06    P   0A  1908 53.56                                                    
 KNR07    P   0A  1908 49.08                                                    
 KNR08    P   0A  1908 49.18                                                    
 KNR09    P   0A  1908 46.36                                                    
 KNR10    P   0A  1908 47.55                                                    
 KNR11    P   0A  1908 48.28                                                    
 KNR12    P   0A  1908 48.94                                                    
 KNR13    P   0A  1908 50.77                                                    
 KNR14    P   0A  1908 51.19                                                    
 KNR15    P   0A  1908 53.02                                                    
 KNR16    P   0A  1908 53.40                                                    
 KNR17    P   0A  1908 54.84                                                    
 KNR18    P   0A  1908 51.79                                                    
 KNR19    P   0A  1908 47.18                                                    
 KNR20    P   0A  1908 51.27                                                    
 KNR21    P   0A  1908 51.04                                                    
 KNR22    P   0A  1908 52.33                                                    
 KNR23    P   0A  1908 49.90                                                    
 KNR28    P   0A  1908 51.11                                                    
 KNR29    P   0A  1908 54.82                                                    
 KNR30    P   0A  1908 51.57                                                    
 KNR01    S   0A  1909  8.99                                                    
 KNR02    S   0A  1909  9.28                                                    
 KNR03    S   0A  1909  4.59                                                    
 KNR04    S   0A  1909  5.19                                                    
 KNR05    S   0A  1908 59.84                                                    
 KNR06    S   0A  1909  0.31                                                    
 KNR07    S   0A  1908 52.40                                                    
 KNR08    S   0A  1908 52.57                                                    
 KNR09    S   0A  1908 47.59                                                    
 KNR10    S   0A  1908 49.76                                                    
 KNR11    S   0A  1908 50.98                                                    
 KNR12    S   0A  1908 52.15                                                    
 KNR13    S   0A  1908 55.40                                                    
 KNR14    S   0A  1908 56.13                                                    
 KNR15    S   0A  1908 59.37                                                    
 KNR16    S   0A  1909  0.04                                                    
 KNR17    S   0A  1909  2.56                                                    
 KNR18    S   0A  1908 57.19                                                    
 KNR19    S   0A  1908 49.19                                                    
 KNR20    S   0A  1908 56.27                                                    
 KNR21    S   0A  1908 55.86                                                    
 KNR22    S   0A  1908 58.15                                                    
 KNR23    S   0A  1908 53.84                                                    
 KNR28    S   0A  1908 55.98                                                    
 KNR29    S   0A  1909  2.52                                                    
 KNR30    S   0A  1908 56.80                                                    

