 2016 0914 1734 18.3 L  77.374   8.330  0.0  AWI 26                            1
 STAT SP IPHASW D HRMM SECON CODA AMPLIT PERI AZIMU VELO AIN AR TRES W  DIS CAZ7
 KNR01    P   0A  1734 25.27                                                    
 KNR02    P   0A  1734 23.73                                                    
 KNR03    P   0A  1734 27.56                                                    
 KNR04    P   0A  1734 26.08                                                    
 KNR05    P   0A  1734 29.53                                                    
 KNR06    P   0A  1734 28.92                                                    
 KNR07    P   0A  1734 33.96                                                    
 KNR08    P   0A  1734 33.28                                                    
 KNR09    P   0A  1734 36.42                                                    
 KNR10    P   0A  1734 35.85                                                    
 KNR11    P   0A  1734 38.69                                                    
 KNR12    P   0A  1734 38.41                                                    
 KNR13    P   0A  1734 41.07                                                    
 KNR14    P   0A  1734 40.66                                                    
 KNR15    P   0A  1734 43.17                                                    
 KNR16    P   0A  1734 42.78                                                    
 KNR17    P   0A  1734 27.68                                                    
 KNR18    P   0A  1734 31.69                                                    
 KNR19    P   0A  1734 34.96                                                    
 KNR20    P   0A  1734 31.39                                                    
 KNR21    P   0A  1734 31.38                                                    
 KNR22    P   0A  1734 30.09                                                    
 KNR23    P   0A  1734 32.57                                                    
 KNR28    P   0A  1734 31.63                                                    
 KNR29    P   0A  1734 27.66                                                    
 KNR30    P   0A  1734 30.86                                                    
 KNR01    S   0A  1734 30.64                                                    
 KNR02    S   0A  1734 27.91                                                    
 KNR03    S   0A  1734 34.67                                                    
 KNR04    S   0A  1734 32.07                                                    
 KNR05    S   0A  1734 38.12                                                    
 KNR06    S   0A  1734 37.05                                                    
 KNR07    S   0A  1734 45.89                                                    
 KNR08    S   0A  1734 44.70                                                    
 KNR09    S   0A  1734 50.21                                                    
 KNR10    S   0A  1734 49.21                                                    
 KNR11    S   0A  1734 54.19                                                    
 KNR12    S   0A  1734 53.71                                                    
 KNR13    S   0A  1734 58.38                                                    
 KNR14    S   0A  1734 57.66                                                    
 KNR15    S   0A  1735  2.06                                                    
 KNR16    S   0A  1735  1.38                                                    
 KNR17    S   0A  1734 34.89                                                    
 KNR18    S   0A  1734 41.91                                                    
 KNR19    S   0A  1734 47.65                                                    
 KNR20    S   0A  1734 41.38                                                    
 KNR21    S   0A  1734 41.38                                                    
 KNR22    S   0A  1734 39.11                                                    
 KNR23    S   0A  1734 43.46                                                    
 KNR28    S   0A  1734 41.81                                                    
 KNR29    S   0A  1734 34.85                                                    
 KNR30    S   0A  1734 40.46                                                    

 2016 0915 1617 25.2 L  77.374   8.330  0.0  AWI 26                            1
 STAT SP IPHASW D HRMM SECON CODA AMPLIT PERI AZIMU VELO AIN AR TRES W  DIS CAZ7
 KNR01    P   0A  1617 32.15                                                    
 KNR02    P   0A  1617 30.61                                                    
 KNR03    P   0A  1617 34.44                                                    
 KNR04    P   0A  1617 32.96                                                    
 KNR05    P   0A  1617 36.41                                                    
 KNR06    P   0A  1617 35.80                                                    
 KNR07    P   0A  1617 40.84                                                    
 KNR08    P   0A  1617 40.16                                                    
 KNR09    P   0A  1617 43.30                                                    
 KNR10    P   0A  1617 42.73                                                    
 KNR11    P   0A  1617 45.57                                                    
 KNR12    P   0A  1617 45.29                                                    
 KNR13    P   0A  1617 47.95                                                    
 KNR14    P   0A  1617 47.54                                                    
 KNR15    P   0A  1617 50.05                                                    
 KNR16    P   0A  1617 49.66                                                    
 KNR17    P   0A  1617 34.56                                                    
 KNR18    P   0A  1617 38.57                                                    
 KNR19    P   0A  1617 41.84                                                    
 KNR20    P   0A  1617 38.27                                                    
 KNR21    P   0A  1617 38.26                                                    
 KNR22    P   0A  1617 36.97                                                    
 KNR23    P   0A  1617 39.45                                                    
 KNR28    P   0A  1617 38.51                                                    
 KNR29    P   0A  1617 34.54                                                    
 KNR30    P   0A  1617 37.74                                                    
 KNR01    S   0A  1617 37.52                                                    
 KNR02    S   0A  1617 34.79                                                    
 KNR03    S   0A  1617 41.55                                                    
 KNR04    S   0A  1617 38.95                                                    
 KNR05    S   0A  1617 45.00                                                    
 KNR06    S   0A  1617 43.93                                                    
 KNR07    S   0A  1617 52.77                                                    
 KNR08    S   0A  1617 51.58                                                    
 KNR09    S   0A  1617 57.09                                                    
 KNR10    S   0A  1617 56.09                                                    
 KNR11    S   0A  1618  1.07                                                    
 KNR12    S   0A  1618  0.59                                                    
 KNR13    S   0A  1618  5.26                                                    
 KNR14    S   0A  1618  4.54                                                    
 KNR15    S   0A  1618  8.94                                                    
 KNR16    S   0A  1618  8.26                                                    
 KNR17    S   0A  1617 41.77                                                    
 KNR18    S   0A  1617 48.79                                                    
 KNR19    S   0A  1617 54.53                                                    
 KNR20    S   0A  1617 48.26                                                    
 KNR21    S   0A  1617 48.26                                                    
 KNR22    S   0A  1617 45.99                                                    
 KNR23    S   0A  1617 50.34                                                    
 KNR28    S   0A  1617 48.69                                                    
 KNR29    S   0A  1617 41.73                                                    
 KNR30    S   0A  1617 47.34                                                    

 2016 0916 0714  2.2 L  76.878   7.384  0.0  AWI 26                            1
 STAT SP IPHASW D HRMM SECON CODA AMPLIT PERI AZIMU VELO AIN AR TRES W  DIS CAZ7
 KNR01    P   0A  0714  6.84                                                    
 KNR02    P   0A  0714  6.83                                                    
 KNR03    P   0A  0714  5.29                                                    
 KNR04    P   0A  0714  4.97                                                    
 KNR05    P   0A  0714  5.65                                                    
 KNR06    P   0A  0714  5.77                                                    
 KNR07    P   0A  0714 10.19                                                    
 KNR08    P   0A  0714  9.85                                                    
 KNR09    P   0A  0714 12.77                                                    
 KNR10    P   0A  0714 12.55                                                    
 KNR11    P   0A  0714 15.13                                                    
 KNR12    P   0A  0714 15.19                                                    
 KNR13    P   0A  0714 17.60                                                    
 KNR14    P   0A  0714 17.54                                                    
 KNR15    P   0A  0714 19.77                                                    
 KNR16    P   0A  0714 19.72                                                    
 KNR17    P   0A  0714  3.31                                                    
 KNR18    P   0A  0714  7.93                                                    
 KNR19    P   0A  0714 11.38                                                    
 KNR20    P   0A  0714  8.28                                                    
 KNR21    P   0A  0714  7.67                                                    
 KNR22    P   0A  0714  6.46                                                    
 KNR23    P   0A  0714  8.84                                                    
 KNR28    P   0A  0714  7.80                                                    
 KNR29    P   0A  0714  5.13                                                    
 KNR30    P   0A  0714  7.43                                                    
 KNR01    S   0A  0714 10.41                                                    
 KNR02    S   0A  0714 10.38                                                    
 KNR03    S   0A  0714  7.67                                                    
 KNR04    S   0A  0714  7.16                                                    
 KNR05    S   0A  0714  8.30                                                    
 KNR06    S   0A  0714  8.52                                                    
 KNR07    S   0A  0714 16.32                                                    
 KNR08    S   0A  0714 15.73                                                    
 KNR09    S   0A  0714 20.85                                                    
 KNR10    S   0A  0714 20.48                                                    
 KNR11    S   0A  0714 25.00                                                    
 KNR12    S   0A  0714 25.10                                                    
 KNR13    S   0A  0714 29.32                                                    
 KNR14    S   0A  0714 29.22                                                    
 KNR15    S   0A  0714 33.12                                                    
 KNR16    S   0A  0714 33.05                                                    
 KNR17    S   0A  0714  4.17                                                    
 KNR18    S   0A  0714 12.33                                                    
 KNR19    S   0A  0714 18.41                                                    
 KNR20    S   0A  0714 12.95                                                    
 KNR21    S   0A  0714 11.87                                                    
 KNR22    S   0A  0714  9.74                                                    
 KNR23    S   0A  0714 13.93                                                    
 KNR28    S   0A  0714 12.10                                                    
 KNR29    S   0A  0714  7.41                                                    
 KNR30    S   0A  0714 11.45                                                    

 2016 0916 2026 58.2 L  76.284   7.331  0.0  AWI 26                            1
 STAT SP IPHASW D HRMM SECON CODA AMPLIT PERI AZIMU VELO AIN AR TRES W  DIS CAZ7
 KNR01    P   0A  2027 11.23                                                    
 KNR02    P   0A  2027 11.20                                                    
 KNR03    P   0A  2027  8.79                                                    
 KNR04    P   0A  2027  8.83                                                    
 KNR05    P   0A  2027  6.01                                                    
 KNR06    P   0A  2027  5.99                                                    
 KNR07    P   0A  2027  2.37                                                    
 KNR08    P   0A  2027  1.53                                                    
 KNR09    P   0A  2027  1.21                                                    
 KNR10    P   0A  2026 59.96                                                    
 KNR11    P   0A  2027  2.82                                                    
 KNR12    P   0A  2027  2.69                                                    
 KNR13    P   0A  2027  5.20                                                    
 KNR14    P   0A  2027  5.09                                                    
 KNR15    P   0A  2027  7.35                                                    
 KNR16    P   0A  2027  7.35                                                    
 KNR17    P   0A  2027  7.42                                                    
 KNR18    P   0A  2027  4.84                                                    
 KNR19    P   0A  2026 59.87                                                    
 KNR20    P   0A  2027  3.58                                                    
 KNR21    P   0A  2027  3.64                                                    
 KNR22    P   0A  2027  4.85                                                    
 KNR23    P   0A  2027  2.64                                                    
 KNR28    P   0A  2027  3.94                                                    
 KNR29    P   0A  2027  7.27                                                    
 KNR30    P   0A  2027  4.00                                                    
 KNR01    S   0A  2027 21.17                                                    
 KNR02    S   0A  2027 21.11                                                    
 KNR03    S   0A  2027 16.89                                                    
 KNR04    S   0A  2027 16.96                                                    
 KNR05    S   0A  2027 12.01                                                    
 KNR06    S   0A  2027 11.97                                                    
 KNR07    S   0A  2027  5.57                                                    
 KNR08    S   0A  2027  4.09                                                    
 KNR09    S   0A  2027  3.53                                                    
 KNR10    S   0A  2027  1.32                                                    
 KNR11    S   0A  2027  6.36                                                    
 KNR12    S   0A  2027  6.14                                                    
 KNR13    S   0A  2027 10.57                                                    
 KNR14    S   0A  2027 10.39                                                    
 KNR15    S   0A  2027 14.37                                                    
 KNR16    S   0A  2027 14.37                                                    
 KNR17    S   0A  2027 14.49                                                    
 KNR18    S   0A  2027  9.94                                                    
 KNR19    S   0A  2027  1.16                                                    
 KNR20    S   0A  2027  7.71                                                    
 KNR21    S   0A  2027  7.83                                                    
 KNR22    S   0A  2027  9.96                                                    
 KNR23    S   0A  2027  6.06                                                    
 KNR28    S   0A  2027  8.34                                                    
 KNR29    S   0A  2027 14.23                                                    
 KNR30    S   0A  2027  8.46                                                    

