 2016 0803 1611 53.0 L  75.363  11.221  0.0  AWI 26                            1
 STAT SP IPHASW D HRMM SECON CODA AMPLIT PERI AZIMU VELO AIN AR TRES W  DIS CAZ7
 KNR01    P   0A  1612 22.74                                                    
 KNR02    P   0A  1612 21.32                                                    
 KNR03    P   0A  1612 20.96                                                    
 KNR04    P   0A  1612 19.21                                                    
 KNR05    P   0A  1612 18.43                                                    
 KNR06    P   0A  1612 17.03                                                    
 KNR07    P   0A  1612 16.05                                                    
 KNR08    P   0A  1612 14.18                                                    
 KNR09    P   0A  1612 14.08                                                    
 KNR10    P   0A  1612 12.18                                                    
 KNR11    P   0A  1612 12.61                                                    
 KNR12    P   0A  1612 10.49                                                    
 KNR13    P   0A  1612 11.48                                                    
 KNR14    P   0A  1612  8.99                                                    
 KNR15    P   0A  1612 10.43                                                    
 KNR16    P   0A  1612  7.75                                                    
 KNR17    P   0A  1612 18.83                                                    
 KNR18    P   0A  1612 18.16                                                    
 KNR19    P   0A  1612 14.00                                                    
 KNR20    P   0A  1612 14.84                                                    
 KNR21    P   0A  1612 16.26                                                    
 KNR22    P   0A  1612 16.78                                                    
 KNR23    P   0A  1612 15.85                                                    
 KNR28    P   0A  1612 17.03                                                    
 KNR29    P   0A  1612 17.83                                                    
 KNR30    P   0A  1612 15.82                                                    
 KNR01    S   0A  1612 45.30                                                    
 KNR02    S   0A  1612 42.82                                                    
 KNR03    S   0A  1612 42.18                                                    
 KNR04    S   0A  1612 39.10                                                    
 KNR05    S   0A  1612 37.74                                                    
 KNR06    S   0A  1612 35.27                                                    
 KNR07    S   0A  1612 33.56                                                    
 KNR08    S   0A  1612 30.27                                                    
 KNR09    S   0A  1612 30.09                                                    
 KNR10    S   0A  1612 26.76                                                    
 KNR11    S   0A  1612 27.51                                                    
 KNR12    S   0A  1612 23.79                                                    
 KNR13    S   0A  1612 25.53                                                    
 KNR14    S   0A  1612 21.16                                                    
 KNR15    S   0A  1612 23.69                                                    
 KNR16    S   0A  1612 18.98                                                    
 KNR17    S   0A  1612 38.43                                                    
 KNR18    S   0A  1612 37.26                                                    
 KNR19    S   0A  1612 29.95                                                    
 KNR20    S   0A  1612 31.42                                                    
 KNR21    S   0A  1612 33.93                                                    
 KNR22    S   0A  1612 34.84                                                    
 KNR23    S   0A  1612 33.21                                                    
 KNR28    S   0A  1612 35.28                                                    
 KNR29    S   0A  1612 36.68                                                    
 KNR30    S   0A  1612 33.15                                                    

 2016 0910 1906 15.8 L  76.316   6.966  0.0  AWI 26                            1
 STAT SP IPHASW D HRMM SECON CODA AMPLIT PERI AZIMU VELO AIN AR TRES W  DIS CAZ7
 KNR01    P   0A  1906 28.23                                                    
 KNR02    P   0A  1906 28.50                                                    
 KNR03    P   0A  1906 25.71                                                    
 KNR04    P   0A  1906 26.21                                                    
 KNR05    P   0A  1906 22.99                                                    
 KNR06    P   0A  1906 23.45                                                    
 KNR07    P   0A  1906 18.75                                                    
 KNR08    P   0A  1906 19.31                                                    
 KNR09    P   0A  1906 17.80                                                    
 KNR10    P   0A  1906 19.12                                                    
 KNR11    P   0A  1906 20.41                                                    
 KNR12    P   0A  1906 21.13                                                    
 KNR13    P   0A  1906 22.96                                                    
 KNR14    P   0A  1906 23.44                                                    
 KNR15    P   0A  1906 25.21                                                    
 KNR16    P   0A  1906 25.63                                                    
 KNR17    P   0A  1906 24.64                                                    
 KNR18    P   0A  1906 21.45                                                    
 KNR19    P   0A  1906 16.88                                                    
 KNR20    P   0A  1906 21.36                                                    
 KNR21    P   0A  1906 20.82                                                    
 KNR22    P   0A  1906 22.15                                                    
 KNR23    P   0A  1906 19.63                                                    
 KNR28    P   0A  1906 20.79                                                    
 KNR29    P   0A  1906 24.73                                                    
 KNR30    P   0A  1906 21.48                                                    
 KNR01    S   0A  1906 37.78                                                    
 KNR02    S   0A  1906 38.25                                                    
 KNR03    S   0A  1906 33.36                                                    
 KNR04    S   0A  1906 34.23                                                    
 KNR05    S   0A  1906 28.57                                                    
 KNR06    S   0A  1906 29.38                                                    
 KNR07    S   0A  1906 21.09                                                    
 KNR08    S   0A  1906 22.07                                                    
 KNR09    S   0A  1906 19.49                                                    
 KNR10    S   0A  1906 21.74                                                    
 KNR11    S   0A  1906 24.02                                                    
 KNR12    S   0A  1906 25.29                                                    
 KNR13    S   0A  1906 28.52                                                    
 KNR14    S   0A  1906 29.37                                                    
 KNR15    S   0A  1906 32.49                                                    
 KNR16    S   0A  1906 33.23                                                    
 KNR17    S   0A  1906 31.48                                                    
 KNR18    S   0A  1906 25.85                                                    
 KNR19    S   0A  1906 17.75                                                    
 KNR20    S   0A  1906 25.69                                                    
 KNR21    S   0A  1906 24.74                                                    
 KNR22    S   0A  1906 27.09                                                    
 KNR23    S   0A  1906 22.63                                                    
 KNR28    S   0A  1906 24.68                                                    
 KNR29    S   0A  1906 31.63                                                    
 KNR30    S   0A  1906 25.91                                                    

 2016 0910 2259 36.0 L  76.662   7.194  0.0  AWI 26                            1
 STAT SP IPHASW D HRMM SECON CODA AMPLIT PERI AZIMU VELO AIN AR TRES W  DIS CAZ7
 KNR01    P   0A  2259 43.54                                                    
 KNR02    P   0A  2259 43.76                                                    
 KNR03    P   0A  2259 41.10                                                    
 KNR04    P   0A  2259 41.52                                                    
 KNR05    P   0A  2259 38.04                                                    
 KNR06    P   0A  2259 39.18                                                    
 KNR07    P   0A  2259 40.78                                                    
 KNR08    P   0A  2259 40.59                                                    
 KNR09    P   0A  2259 43.35                                                    
 KNR10    P   0A  2259 43.30                                                    
 KNR11    P   0A  2259 45.75                                                    
 KNR12    P   0A  2259 45.94                                                    
 KNR13    P   0A  2259 48.22                                                    
 KNR14    P   0A  2259 48.30                                                    
 KNR15    P   0A  2259 50.43                                                    
 KNR16    P   0A  2259 50.51                                                    
 KNR17    P   0A  2259 39.79                                                    
 KNR18    P   0A  2259 39.20                                                    
 KNR19    P   0A  2259 41.95                                                    
 KNR20    P   0A  2259 39.72                                                    
 KNR21    P   0A  2259 38.04                                                    
 KNR22    P   0A  2259 37.56                                                    
 KNR23    P   0A  2259 39.37                                                    
 KNR28    P   0A  2259 38.26                                                    
 KNR29    P   0A  2259 40.24                                                    
 KNR30    P   0A  2259 38.58                                                    
 KNR01    S   0A  2259 49.36                                                    
 KNR02    S   0A  2259 49.75                                                    
 KNR03    S   0A  2259 45.05                                                    
 KNR04    S   0A  2259 45.80                                                    
 KNR05    S   0A  2259 39.73                                                    
 KNR06    S   0A  2259 41.65                                                    
 KNR07    S   0A  2259 44.48                                                    
 KNR08    S   0A  2259 44.16                                                    
 KNR09    S   0A  2259 49.02                                                    
 KNR10    S   0A  2259 48.93                                                    
 KNR11    S   0A  2259 53.24                                                    
 KNR12    S   0A  2259 53.58                                                    
 KNR13    S   0A  2259 57.58                                                    
 KNR14    S   0A  2259 57.72                                                    
 KNR15    S   0A  2300  1.44                                                    
 KNR16    S   0A  2300  1.60                                                    
 KNR17    S   0A  2259 42.73                                                    
 KNR18    S   0A  2259 41.70                                                    
 KNR19    S   0A  2259 46.55                                                    
 KNR20    S   0A  2259 42.62                                                    
 KNR21    S   0A  2259 39.74                                                    
 KNR22    S   0A  2259 38.80                                                    
 KNR23    S   0A  2259 41.99                                                    
 KNR28    S   0A  2259 40.18                                                    
 KNR29    S   0A  2259 43.52                                                    
 KNR30    S   0A  2259 40.70                                                    

 2016 0911 0359 51.2 L  76.619   7.240  0.0  AWI 26                            1
 STAT SP IPHASW D HRMM SECON CODA AMPLIT PERI AZIMU VELO AIN AR TRES W  DIS CAZ7
 KNR01    P   0A  0359 59.39                                                    
 KNR02    P   0A  0359 59.52                                                    
 KNR03    P   0A  0359 56.95                                                    
 KNR04    P   0A  0359 57.22                                                    
 KNR05    P   0A  0359 54.10                                                    
 KNR06    P   0A  0359 54.63                                                    
 KNR07    P   0A  0359 55.51                                                    
 KNR08    P   0A  0359 55.15                                                    
 KNR09    P   0A  0359 57.97                                                    
 KNR10    P   0A  0359 57.85                                                    
 KNR11    P   0A  0400  0.36                                                    
 KNR12    P   0A  0400  0.51                                                    
 KNR13    P   0A  0400  2.83                                                    
 KNR14    P   0A  0400  2.87                                                    
 KNR15    P   0A  0400  5.02                                                    
 KNR16    P   0A  0400  5.08                                                    
 KNR17    P   0A  0359 55.56                                                    
 KNR18    P   0A  0359 54.47                                                    
 KNR19    P   0A  0359 56.52                                                    
 KNR20    P   0A  0359 54.46                                                    
 KNR21    P   0A  0359 52.20                                                    
 KNR22    P   0A  0359 52.91                                                    
 KNR23    P   0A  0359 53.93                                                    
 KNR28    P   0A  0359 53.09                                                    
 KNR29    P   0A  0359 55.82                                                    
 KNR30    P   0A  0359 53.24                                                    
 KNR01    S   0A  0400  5.71                                                    
 KNR02    S   0A  0400  5.94                                                    
 KNR03    S   0A  0400  1.41                                                    
 KNR04    S   0A  0400  1.87                                                    
 KNR05    S   0A  0359 56.38                                                    
 KNR06    S   0A  0359 57.29                                                    
 KNR07    S   0A  0359 58.86                                                    
 KNR08    S   0A  0359 58.21                                                    
 KNR09    S   0A  0400  3.20                                                    
 KNR10    S   0A  0400  2.98                                                    
 KNR11    S   0A  0400  7.42                                                    
 KNR12    S   0A  0400  7.67                                                    
 KNR13    S   0A  0400 11.74                                                    
 KNR14    S   0A  0400 11.81                                                    
 KNR15    S   0A  0400 15.59                                                    
 KNR16    S   0A  0400 15.69                                                    
 KNR17    S   0A  0359 58.94                                                    
 KNR18    S   0A  0359 57.02                                                    
 KNR19    S   0A  0400  0.65                                                    
 KNR20    S   0A  0359 56.99                                                    
 KNR21    S   0A  0359 53.00                                                    
 KNR22    S   0A  0359 54.25                                                    
 KNR23    S   0A  0359 56.12                                                    
 KNR28    S   0A  0359 54.63                                                    
 KNR29    S   0A  0359 59.40                                                    
 KNR30    S   0A  0359 54.93                                                    

