 2017 0301 0425 15.5 L  76.370   6.965  0.0  AWI 26                            1
 STAT SP IPHASW D HRMM SECON CODA AMPLIT PERI AZIMU VELO AIN AR TRES W  DIS CAZ7
 KNR01    P   0A  0425 27.22                                                    
 KNR02    P   0A  0425 27.52                                                    
 KNR03    P   0A  0425 24.70                                                    
 KNR04    P   0A  0425 25.24                                                    
 KNR05    P   0A  0425 21.96                                                    
 KNR06    P   0A  0425 22.49                                                    
 KNR07    P   0A  0425 17.65                                                    
 KNR08    P   0A  0425 18.62                                                    
 KNR09    P   0A  0425 18.53                                                    
 KNR10    P   0A  0425 19.34                                                    
 KNR11    P   0A  0425 20.96                                                    
 KNR12    P   0A  0425 21.60                                                    
 KNR13    P   0A  0425 23.51                                                    
 KNR14    P   0A  0425 23.94                                                    
 KNR15    P   0A  0425 25.75                                                    
 KNR16    P   0A  0425 26.13                                                    
 KNR17    P   0A  0425 23.63                                                    
 KNR18    P   0A  0425 20.45                                                    
 KNR19    P   0A  0425 17.05                                                    
 KNR20    P   0A  0425 20.55                                                    
 KNR21    P   0A  0425 19.82                                                    
 KNR22    P   0A  0425 21.17                                                    
 KNR23    P   0A  0425 18.61                                                    
 KNR28    P   0A  0425 19.76                                                    
 KNR29    P   0A  0425 23.77                                                    
 KNR30    P   0A  0425 20.56                                                    
 KNR01    S   0A  0425 36.19                                                    
 KNR02    S   0A  0425 36.70                                                    
 KNR03    S   0A  0425 31.77                                                    
 KNR04    S   0A  0425 32.72                                                    
 KNR05    S   0A  0425 26.93                                                    
 KNR06    S   0A  0425 27.87                                                    
 KNR07    S   0A  0425 19.43                                                    
 KNR08    S   0A  0425 21.04                                                    
 KNR09    S   0A  0425 20.88                                                    
 KNR10    S   0A  0425 22.30                                                    
 KNR11    S   0A  0425 25.17                                                    
 KNR12    S   0A  0425 26.29                                                    
 KNR13    S   0A  0425 29.67                                                    
 KNR14    S   0A  0425 30.43                                                    
 KNR15    S   0A  0425 33.60                                                    
 KNR16    S   0A  0425 34.27                                                    
 KNR17    S   0A  0425 29.90                                                    
 KNR18    S   0A  0425 24.27                                                    
 KNR19    S   0A  0425 18.25                                                    
 KNR20    S   0A  0425 24.44                                                    
 KNR21    S   0A  0425 23.16                                                    
 KNR22    S   0A  0425 25.54                                                    
 KNR23    S   0A  0425 21.01                                                    
 KNR28    S   0A  0425 23.05                                                    
 KNR29    S   0A  0425 30.14                                                    
 KNR30    S   0A  0425 24.45                                                    

 2017 0301 1407  4.2 L  76.766   8.752  0.0  AWI 26                            1
 STAT SP IPHASW D HRMM SECON CODA AMPLIT PERI AZIMU VELO AIN AR TRES W  DIS CAZ7
 KNR01    P   0A  1407 12.96                                                    
 KNR02    P   0A  1407 10.98                                                    
 KNR03    P   0A  1407 12.14                                                    
 KNR04    P   0A  1407  9.10                                                    
 KNR05    P   0A  1407 11.04                                                    
 KNR06    P   0A  1407  8.70                                                    
 KNR07    P   0A  1407 13.73                                                    
 KNR08    P   0A  1407 11.78                                                    
 KNR09    P   0A  1407 15.37                                                    
 KNR10    P   0A  1407 13.92                                                    
 KNR11    P   0A  1407 17.25                                                    
 KNR12    P   0A  1407 16.31                                                    
 KNR13    P   0A  1407 19.44                                                    
 KNR14    P   0A  1407 18.43                                                    
 KNR15    P   0A  1407 21.34                                                    
 KNR16    P   0A  1407 20.47                                                    
 KNR17    P   0A  1407  9.78                                                    
 KNR18    P   0A  1407 12.89                                                    
 KNR19    P   0A  1407 13.70                                                    
 KNR20    P   0A  1407  9.72                                                    
 KNR21    P   0A  1407 10.99                                                    
 KNR22    P   0A  1407  9.91                                                    
 KNR23    P   0A  1407 12.07                                                    
 KNR28    P   0A  1407 11.93                                                    
 KNR29    P   0A  1407  8.35                                                    
 KNR30    P   0A  1407  9.91                                                    
 KNR01    S   0A  1407 19.68                                                    
 KNR02    S   0A  1407 16.19                                                    
 KNR03    S   0A  1407 18.25                                                    
 KNR04    S   0A  1407 12.86                                                    
 KNR05    S   0A  1407 16.30                                                    
 KNR06    S   0A  1407 12.16                                                    
 KNR07    S   0A  1407 21.04                                                    
 KNR08    S   0A  1407 17.59                                                    
 KNR09    S   0A  1407 23.91                                                    
 KNR10    S   0A  1407 21.37                                                    
 KNR11    S   0A  1407 27.20                                                    
 KNR12    S   0A  1407 25.55                                                    
 KNR13    S   0A  1407 31.04                                                    
 KNR14    S   0A  1407 29.28                                                    
 KNR15    S   0A  1407 34.37                                                    
 KNR16    S   0A  1407 32.85                                                    
 KNR17    S   0A  1407 14.07                                                    
 KNR18    S   0A  1407 19.57                                                    
 KNR19    S   0A  1407 20.99                                                    
 KNR20    S   0A  1407 13.95                                                    
 KNR21    S   0A  1407 16.20                                                    
 KNR22    S   0A  1407 14.29                                                    
 KNR23    S   0A  1407 18.11                                                    
 KNR28    S   0A  1407 17.86                                                    
 KNR29    S   0A  1407 11.53                                                    
 KNR30    S   0A  1407 14.29                                                    

 2017 0301 2107 27.8 L  76.359   7.378  0.0  AWI 26                            1
 STAT SP IPHASW D HRMM SECON CODA AMPLIT PERI AZIMU VELO AIN AR TRES W  DIS CAZ7
 KNR01    P   0A  2107 39.77                                                    
 KNR02    P   0A  2107 39.71                                                    
 KNR03    P   0A  2107 37.36                                                    
 KNR04    P   0A  2107 37.34                                                    
 KNR05    P   0A  2107 34.55                                                    
 KNR06    P   0A  2107 34.48                                                    
 KNR07    P   0A  2107 31.44                                                    
 KNR08    P   0A  2107 29.77                                                    
 KNR09    P   0A  2107 31.51                                                    
 KNR10    P   0A  2107 30.66                                                    
 KNR11    P   0A  2107 33.48                                                    
 KNR12    P   0A  2107 33.34                                                    
 KNR13    P   0A  2107 35.91                                                    
 KNR14    P   0A  2107 35.76                                                    
 KNR15    P   0A  2107 38.04                                                    
 KNR16    P   0A  2107 37.99                                                    
 KNR17    P   0A  2107 35.92                                                    
 KNR18    P   0A  2107 33.57                                                    
 KNR19    P   0A  2107 29.50                                                    
 KNR20    P   0A  2107 32.11                                                    
 KNR21    P   0A  2107 32.15                                                    
 KNR22    P   0A  2107 33.34                                                    
 KNR23    P   0A  2107 31.25                                                    
 KNR28    P   0A  2107 32.55                                                    
 KNR29    P   0A  2107 35.77                                                    
 KNR30    P   0A  2107 32.48                                                    
 KNR01    S   0A  2107 48.91                                                    
 KNR02    S   0A  2107 48.80                                                    
 KNR03    S   0A  2107 44.69                                                    
 KNR04    S   0A  2107 44.65                                                    
 KNR05    S   0A  2107 39.73                                                    
 KNR06    S   0A  2107 39.60                                                    
 KNR07    S   0A  2107 34.24                                                    
 KNR08    S   0A  2107 31.34                                                    
 KNR09    S   0A  2107 34.37                                                    
 KNR10    S   0A  2107 32.90                                                    
 KNR11    S   0A  2107 37.85                                                    
 KNR12    S   0A  2107 37.59                                                    
 KNR13    S   0A  2107 42.13                                                    
 KNR14    S   0A  2107 41.87                                                    
 KNR15    S   0A  2107 45.88                                                    
 KNR16    S   0A  2107 45.78                                                    
 KNR17    S   0A  2107 42.16                                                    
 KNR18    S   0A  2107 38.00                                                    
 KNR19    S   0A  2107 30.80                                                    
 KNR20    S   0A  2107 35.42                                                    
 KNR21    S   0A  2107 35.50                                                    
 KNR22    S   0A  2107 37.59                                                    
 KNR23    S   0A  2107 33.89                                                    
 KNR28    S   0A  2107 36.20                                                    
 KNR29    S   0A  2107 41.89                                                    
 KNR30    S   0A  2107 36.09                                                    

 2017 0302 0431 23.7 L  76.543   7.147  0.0  AWI 26                            1
 STAT SP IPHASW D HRMM SECON CODA AMPLIT PERI AZIMU VELO AIN AR TRES W  DIS CAZ7
 KNR01    P   0A  0431 32.92                                                    
 KNR02    P   0A  0431 33.13                                                    
 KNR03    P   0A  0431 30.43                                                    
 KNR04    P   0A  0431 30.84                                                    
 KNR05    P   0A  0431 27.60                                                    
 KNR06    P   0A  0431 28.15                                                    
 KNR07    P   0A  0431 26.93                                                    
 KNR08    P   0A  0431 26.77                                                    
 KNR09    P   0A  0431 29.30                                                    
 KNR10    P   0A  0431 29.34                                                    
 KNR11    P   0A  0431 31.71                                                    
 KNR12    P   0A  0431 31.97                                                    
 KNR13    P   0A  0431 34.20                                                    
 KNR14    P   0A  0431 34.33                                                    
 KNR15    P   0A  0431 36.40                                                    
 KNR16    P   0A  0431 36.54                                                    
 KNR17    P   0A  0431 29.19                                                    
 KNR18    P   0A  0431 26.95                                                    
 KNR19    P   0A  0431 27.89                                                    
 KNR20    P   0A  0431 27.04                                                    
 KNR21    P   0A  0431 24.88                                                    
 KNR22    P   0A  0431 26.77                                                    
 KNR23    P   0A  0431 24.70                                                    
 KNR28    P   0A  0431 25.36                                                    
 KNR29    P   0A  0431 29.40                                                    
 KNR30    P   0A  0431 26.39                                                    
 KNR01    S   0A  0431 40.05                                                    
 KNR02    S   0A  0431 40.40                                                    
 KNR03    S   0A  0431 35.65                                                    
 KNR04    S   0A  0431 36.37                                                    
 KNR05    S   0A  0431 30.65                                                    
 KNR06    S   0A  0431 31.62                                                    
 KNR07    S   0A  0431 29.46                                                    
 KNR08    S   0A  0431 29.18                                                    
 KNR09    S   0A  0431 33.65                                                    
 KNR10    S   0A  0431 33.71                                                    
 KNR11    S   0A  0431 37.91                                                    
 KNR12    S   0A  0431 38.36                                                    
 KNR13    S   0A  0431 42.27                                                    
 KNR14    S   0A  0431 42.51                                                    
 KNR15    S   0A  0431 46.14                                                    
 KNR16    S   0A  0431 46.39                                                    
 KNR17    S   0A  0431 33.45                                                    
 KNR18    S   0A  0431 29.49                                                    
 KNR19    S   0A  0431 31.15                                                    
 KNR20    S   0A  0431 29.65                                                    
 KNR21    S   0A  0431 25.84                                                    
 KNR22    S   0A  0431 29.18                                                    
 KNR23    S   0A  0431 25.51                                                    
 KNR28    S   0A  0431 26.68                                                    
 KNR29    S   0A  0431 33.82                                                    
 KNR30    S   0A  0431 28.57                                                    

