 2016 0911 1511 13.8 L  75.586   5.588  0.0  AWI 26                            1
 STAT SP IPHASW D HRMM SECON CODA AMPLIT PERI AZIMU VELO AIN AR TRES W  DIS CAZ7
 KNR01    P   0A  1511 37.02                                                    
 KNR02    P   0A  1511 37.71                                                    
 KNR03    P   0A  1511 34.48                                                    
 KNR04    P   0A  1511 35.53                                                    
 KNR05    P   0A  1511 32.13                                                    
 KNR06    P   0A  1511 32.87                                                    
 KNR07    P   0A  1511 27.70                                                    
 KNR08    P   0A  1511 28.75                                                    
 KNR09    P   0A  1511 25.27                                                    
 KNR10    P   0A  1511 26.62                                                    
 KNR11    P   0A  1511 23.22                                                    
 KNR12    P   0A  1511 24.69                                                    
 KNR13    P   0A  1511 21.25                                                    
 KNR14    P   0A  1511 23.53                                                    
 KNR15    P   0A  1511 20.20                                                    
 KNR16    P   0A  1511 22.98                                                    
 KNR17    P   0A  1511 33.90                                                    
 KNR18    P   0A  1511 30.14                                                    
 KNR19    P   0A  1511 26.88                                                    
 KNR20    P   0A  1511 30.77                                                    
 KNR21    P   0A  1511 30.31                                                    
 KNR22    P   0A  1511 31.61                                                    
 KNR23    P   0A  1511 29.11                                                    
 KNR28    P   0A  1511 30.03                                                    
 KNR29    P   0A  1511 34.10                                                    
 KNR30    P   0A  1511 30.99                                                    
 KNR01    S   0A  1511 54.72                                                    
 KNR02    S   0A  1511 55.93                                                    
 KNR03    S   0A  1511 50.25                                                    
 KNR04    S   0A  1511 52.09                                                    
 KNR05    S   0A  1511 46.12                                                    
 KNR06    S   0A  1511 47.43                                                    
 KNR07    S   0A  1511 38.36                                                    
 KNR08    S   0A  1511 40.19                                                    
 KNR09    S   0A  1511 34.10                                                    
 KNR10    S   0A  1511 36.45                                                    
 KNR11    S   0A  1511 30.50                                                    
 KNR12    S   0A  1511 33.07                                                    
 KNR13    S   0A  1511 27.04                                                    
 KNR14    S   0A  1511 31.04                                                    
 KNR15    S   0A  1511 25.17                                                    
 KNR16    S   0A  1511 30.07                                                    
 KNR17    S   0A  1511 49.24                                                    
 KNR18    S   0A  1511 42.63                                                    
 KNR19    S   0A  1511 36.91                                                    
 KNR20    S   0A  1511 43.74                                                    
 KNR21    S   0A  1511 42.93                                                    
 KNR22    S   0A  1511 45.20                                                    
 KNR23    S   0A  1511 40.83                                                    
 KNR28    S   0A  1511 42.43                                                    
 KNR29    S   0A  1511 49.59                                                    
 KNR30    S   0A  1511 44.12                                                    

 2016 0911 1511 50.4 L  76.921   6.715  0.0  AWI 26                            1
 STAT SP IPHASW D HRMM SECON CODA AMPLIT PERI AZIMU VELO AIN AR TRES W  DIS CAZ7
 KNR01    P   0A  1511 54.25                                                    
 KNR02    P   0A  1511 55.97                                                    
 KNR03    P   0A  1511 51.01                                                    
 KNR04    P   0A  1511 55.24                                                    
 KNR05    P   0A  1511 54.35                                                    
 KNR06    P   0A  1511 55.88                                                    
 KNR07    P   0A  1511 58.59                                                    
 KNR08    P   0A  1511 59.10                                                    
 KNR09    P   0A  1512  1.34                                                    
 KNR10    P   0A  1512  1.70                                                    
 KNR11    P   0A  1512  3.78                                                    
 KNR12    P   0A  1512  4.27                                                    
 KNR13    P   0A  1512  6.27                                                    
 KNR14    P   0A  1512  6.62                                                    
 KNR15    P   0A  1512  8.47                                                    
 KNR16    P   0A  1512  8.79                                                    
 KNR17    P   0A  1511 54.17                                                    
 KNR18    P   0A  1511 55.89                                                    
 KNR19    P   0A  1512  0.22                                                    
 KNR20    P   0A  1511 58.00                                                    
 KNR21    P   0A  1511 56.77                                                    
 KNR22    P   0A  1511 55.98                                                    
 KNR23    P   0A  1511 57.67                                                    
 KNR28    P   0A  1511 56.40                                                    
 KNR29    P   0A  1511 55.58                                                    
 KNR30    P   0A  1511 57.00                                                    
 KNR01    S   0A  1511 57.24                                                    
 KNR02    S   0A  1512  0.28                                                    
 KNR03    S   0A  1511 51.49                                                    
 KNR04    S   0A  1511 58.99                                                    
 KNR05    S   0A  1511 57.42                                                    
 KNR06    S   0A  1512  0.13                                                    
 KNR07    S   0A  1512  4.90                                                    
 KNR08    S   0A  1512  5.80                                                    
 KNR09    S   0A  1512  9.74                                                    
 KNR10    S   0A  1512 10.37                                                    
 KNR11    S   0A  1512 14.01                                                    
 KNR12    S   0A  1512 14.87                                                    
 KNR13    S   0A  1512 18.37                                                    
 KNR14    S   0A  1512 18.99                                                    
 KNR15    S   0A  1512 22.25                                                    
 KNR16    S   0A  1512 22.80                                                    
 KNR17    S   0A  1511 57.10                                                    
 KNR18    S   0A  1512  0.13                                                    
 KNR19    S   0A  1512  7.78                                                    
 KNR20    S   0A  1512  3.87                                                    
 KNR21    S   0A  1512  1.69                                                    
 KNR22    S   0A  1512  0.29                                                    
 KNR23    S   0A  1512  3.28                                                    
 KNR28    S   0A  1512  1.03                                                    
 KNR29    S   0A  1511 59.60                                                    
 KNR30    S   0A  1512  2.09                                                    

 2016 0911 1840  3.2 L  77.224   6.508  0.0  AWI 26                            1
 STAT SP IPHASW D HRMM SECON CODA AMPLIT PERI AZIMU VELO AIN AR TRES W  DIS CAZ7
 KNR01    P   0A  1840  6.59                                                    
 KNR02    P   0A  1840  8.99                                                    
 KNR03    P   0A  1840  8.73                                                    
 KNR04    P   0A  1840 10.44                                                    
 KNR05    P   0A  1840 11.58                                                    
 KNR06    P   0A  1840 12.52                                                    
 KNR07    P   0A  1840 15.73                                                    
 KNR08    P   0A  1840 16.20                                                    
 KNR09    P   0A  1840 18.49                                                    
 KNR10    P   0A  1840 18.84                                                    
 KNR11    P   0A  1840 20.89                                                    
 KNR12    P   0A  1840 21.39                                                    
 KNR13    P   0A  1840 23.34                                                    
 KNR14    P   0A  1840 23.70                                                    
 KNR15    P   0A  1840 25.55                                                    
 KNR16    P   0A  1840 25.88                                                    
 KNR17    P   0A  1840 10.66                                                    
 KNR18    P   0A  1840 13.06                                                    
 KNR19    P   0A  1840 17.39                                                    
 KNR20    P   0A  1840 14.92                                                    
 KNR21    P   0A  1840 13.94                                                    
 KNR22    P   0A  1840 13.01                                                    
 KNR23    P   0A  1840 14.86                                                    
 KNR28    P   0A  1840 13.62                                                    
 KNR29    P   0A  1840 11.71                                                    
 KNR30    P   0A  1840 14.00                                                    
 KNR01    S   0A  1840  9.23                                                    
 KNR02    S   0A  1840 13.46                                                    
 KNR03    S   0A  1840 13.02                                                    
 KNR04    S   0A  1840 16.04                                                    
 KNR05    S   0A  1840 18.04                                                    
 KNR06    S   0A  1840 19.70                                                    
 KNR07    S   0A  1840 25.32                                                    
 KNR08    S   0A  1840 26.15                                                    
 KNR09    S   0A  1840 30.16                                                    
 KNR10    S   0A  1840 30.77                                                    
 KNR11    S   0A  1840 34.38                                                    
 KNR12    S   0A  1840 35.24                                                    
 KNR13    S   0A  1840 38.67                                                    
 KNR14    S   0A  1840 39.31                                                    
 KNR15    S   0A  1840 42.55                                                    
 KNR16    S   0A  1840 43.13                                                    
 KNR17    S   0A  1840 16.43                                                    
 KNR18    S   0A  1840 20.64                                                    
 KNR19    S   0A  1840 28.23                                                    
 KNR20    S   0A  1840 23.90                                                    
 KNR21    S   0A  1840 22.18                                                    
 KNR22    S   0A  1840 20.56                                                    
 KNR23    S   0A  1840 23.80                                                    
 KNR28    S   0A  1840 21.63                                                    
 KNR29    S   0A  1840 18.27                                                    
 KNR30    S   0A  1840 22.30                                                    

 2016 0912 0506 20.5 L  75.786   7.459  0.0  AWI 26                            1
 STAT SP IPHASW D HRMM SECON CODA AMPLIT PERI AZIMU VELO AIN AR TRES W  DIS CAZ7
 KNR01    P   0A  0506 40.51                                                    
 KNR02    P   0A  0506 40.39                                                    
 KNR03    P   0A  0506 38.09                                                    
 KNR04    P   0A  0506 38.03                                                    
 KNR05    P   0A  0506 35.38                                                    
 KNR06    P   0A  0506 35.24                                                    
 KNR07    P   0A  0506 31.31                                                    
 KNR08    P   0A  0506 30.92                                                    
 KNR09    P   0A  0506 28.58                                                    
 KNR10    P   0A  0506 28.24                                                    
 KNR11    P   0A  0506 26.23                                                    
 KNR12    P   0A  0506 25.55                                                    
 KNR13    P   0A  0506 24.24                                                    
 KNR14    P   0A  0506 23.24                                                    
 KNR15    P   0A  0506 23.53                                                    
 KNR16    P   0A  0506 22.56                                                    
 KNR17    P   0A  0506 36.75                                                    
 KNR18    P   0A  0506 33.98                                                    
 KNR19    P   0A  0506 29.53                                                    
 KNR20    P   0A  0506 32.73                                                    
 KNR21    P   0A  0506 33.08                                                    
 KNR22    P   0A  0506 34.23                                                    
 KNR23    P   0A  0506 32.06                                                    
 KNR28    P   0A  0506 33.29                                                    
 KNR29    P   0A  0506 36.47                                                    
 KNR30    P   0A  0506 33.34                                                    
 KNR01    S   0A  0506 55.76                                                    
 KNR02    S   0A  0506 55.55                                                    
 KNR03    S   0A  0506 51.52                                                    
 KNR04    S   0A  0506 51.41                                                    
 KNR05    S   0A  0506 46.75                                                    
 KNR06    S   0A  0506 46.51                                                    
 KNR07    S   0A  0506 39.63                                                    
 KNR08    S   0A  0506 38.95                                                    
 KNR09    S   0A  0506 34.83                                                    
 KNR10    S   0A  0506 34.23                                                    
 KNR11    S   0A  0506 30.67                                                    
 KNR12    S   0A  0506 29.48                                                    
 KNR13    S   0A  0506 27.17                                                    
 KNR14    S   0A  0506 25.45                                                    
 KNR15    S   0A  0506 25.91                                                    
 KNR16    S   0A  0506 24.30                                                    
 KNR17    S   0A  0506 49.16                                                    
 KNR18    S   0A  0506 44.31                                                    
 KNR19    S   0A  0506 36.50                                                    
 KNR20    S   0A  0506 42.11                                                    
 KNR21    S   0A  0506 42.72                                                    
 KNR22    S   0A  0506 44.73                                                    
 KNR23    S   0A  0506 40.94                                                    
 KNR28    S   0A  0506 43.10                                                    
 KNR29    S   0A  0506 48.67                                                    
 KNR30    S   0A  0506 43.18                                                    

