 2017 0303 0406 34.1 L  76.586   7.194  0.0  AWI 26                            1
 STAT SP IPHASW D HRMM SECON CODA AMPLIT PERI AZIMU VELO AIN AR TRES W  DIS CAZ7
 KNR01    P   0A  0406 42.72                                                    
 KNR02    P   0A  0406 42.89                                                    
 KNR03    P   0A  0406 40.25                                                    
 KNR04    P   0A  0406 40.59                                                    
 KNR05    P   0A  0406 37.41                                                    
 KNR06    P   0A  0406 37.96                                                    
 KNR07    P   0A  0406 37.91                                                    
 KNR08    P   0A  0406 37.64                                                    
 KNR09    P   0A  0406 40.35                                                    
 KNR10    P   0A  0406 40.30                                                    
 KNR11    P   0A  0406 42.76                                                    
 KNR12    P   0A  0406 42.95                                                    
 KNR13    P   0A  0406 45.23                                                    
 KNR14    P   0A  0406 45.31                                                    
 KNR15    P   0A  0406 47.43                                                    
 KNR16    P   0A  0406 47.53                                                    
 KNR17    P   0A  0406 38.94                                                    
 KNR18    P   0A  0406 37.26                                                    
 KNR19    P   0A  0406 38.92                                                    
 KNR20    P   0A  0406 37.33                                                    
 KNR21    P   0A  0406 34.55                                                    
 KNR22    P   0A  0406 36.40                                                    
 KNR23    P   0A  0406 36.14                                                    
 KNR28    P   0A  0406 35.58                                                    
 KNR29    P   0A  0406 39.18                                                    
 KNR30    P   0A  0406 36.31                                                    
 KNR01    S   0A  0406 49.39                                                    
 KNR02    S   0A  0406 49.69                                                    
 KNR03    S   0A  0406 45.02                                                    
 KNR04    S   0A  0406 45.63                                                    
 KNR05    S   0A  0406 40.00                                                    
 KNR06    S   0A  0406 40.97                                                    
 KNR07    S   0A  0406 40.89                                                    
 KNR08    S   0A  0406 40.41                                                    
 KNR09    S   0A  0406 45.20                                                    
 KNR10    S   0A  0406 45.11                                                    
 KNR11    S   0A  0406 49.45                                                    
 KNR12    S   0A  0406 49.79                                                    
 KNR13    S   0A  0406 53.78                                                    
 KNR14    S   0A  0406 53.93                                                    
 KNR15    S   0A  0406 57.63                                                    
 KNR16    S   0A  0406 57.81                                                    
 KNR17    S   0A  0406 42.70                                                    
 KNR18    S   0A  0406 39.73                                                    
 KNR19    S   0A  0406 42.67                                                    
 KNR20    S   0A  0406 39.86                                                    
 KNR21    S   0A  0406 34.91                                                    
 KNR22    S   0A  0406 38.37                                                    
 KNR23    S   0A  0406 37.85                                                    
 KNR28    S   0A  0406 36.76                                                    
 KNR29    S   0A  0406 43.12                                                    
 KNR30    S   0A  0406 38.19                                                    

 2017 0303 0445 14.2 L  76.554   7.147  0.0  AWI 26                            1
 STAT SP IPHASW D HRMM SECON CODA AMPLIT PERI AZIMU VELO AIN AR TRES W  DIS CAZ7
 KNR01    P   0A  0445 23.25                                                    
 KNR02    P   0A  0445 23.46                                                    
 KNR03    P   0A  0445 20.76                                                    
 KNR04    P   0A  0445 21.17                                                    
 KNR05    P   0A  0445 17.93                                                    
 KNR06    P   0A  0445 18.51                                                    
 KNR07    P   0A  0445 17.53                                                    
 KNR08    P   0A  0445 17.38                                                    
 KNR09    P   0A  0445 19.93                                                    
 KNR10    P   0A  0445 19.96                                                    
 KNR11    P   0A  0445 22.35                                                    
 KNR12    P   0A  0445 22.60                                                    
 KNR13    P   0A  0445 24.83                                                    
 KNR14    P   0A  0445 24.96                                                    
 KNR15    P   0A  0445 27.04                                                    
 KNR16    P   0A  0445 27.18                                                    
 KNR17    P   0A  0445 19.51                                                    
 KNR18    P   0A  0445 17.35                                                    
 KNR19    P   0A  0445 18.52                                                    
 KNR20    P   0A  0445 17.52                                                    
 KNR21    P   0A  0445 15.15                                                    
 KNR22    P   0A  0445 17.11                                                    
 KNR23    P   0A  0445 15.45                                                    
 KNR28    P   0A  0445 15.66                                                    
 KNR29    P   0A  0445 19.74                                                    
 KNR30    P   0A  0445 16.77                                                    
 KNR01    S   0A  0445 30.26                                                    
 KNR02    S   0A  0445 30.62                                                    
 KNR03    S   0A  0445 25.85                                                    
 KNR04    S   0A  0445 26.59                                                    
 KNR05    S   0A  0445 20.85                                                    
 KNR06    S   0A  0445 21.88                                                    
 KNR07    S   0A  0445 20.14                                                    
 KNR08    S   0A  0445 19.89                                                    
 KNR09    S   0A  0445 24.40                                                    
 KNR10    S   0A  0445 24.45                                                    
 KNR11    S   0A  0445 28.66                                                    
 KNR12    S   0A  0445 29.12                                                    
 KNR13    S   0A  0445 33.02                                                    
 KNR14    S   0A  0445 33.26                                                    
 KNR15    S   0A  0445 36.89                                                    
 KNR16    S   0A  0445 37.13                                                    
 KNR17    S   0A  0445 23.66                                                    
 KNR18    S   0A  0445 19.84                                                    
 KNR19    S   0A  0445 21.91                                                    
 KNR20    S   0A  0445 20.13                                                    
 KNR21    S   0A  0445 15.94                                                    
 KNR22    S   0A  0445 19.42                                                    
 KNR23    S   0A  0445 16.47                                                    
 KNR28    S   0A  0445 16.84                                                    
 KNR29    S   0A  0445 24.06                                                    
 KNR30    S   0A  0445 18.90                                                    

 2017 0303 0453  0.3 L  76.565   7.194  0.0  AWI 26                            1
 STAT SP IPHASW D HRMM SECON CODA AMPLIT PERI AZIMU VELO AIN AR TRES W  DIS CAZ7
 KNR01    P   0A  0453  9.27                                                    
 KNR02    P   0A  0453  9.43                                                    
 KNR03    P   0A  0453  6.80                                                    
 KNR04    P   0A  0453  7.13                                                    
 KNR05    P   0A  0453  3.96                                                    
 KNR06    P   0A  0453  4.45                                                    
 KNR07    P   0A  0453  3.91                                                    
 KNR08    P   0A  0453  3.60                                                    
 KNR09    P   0A  0453  6.29                                                    
 KNR10    P   0A  0453  6.23                                                    
 KNR11    P   0A  0453  8.69                                                    
 KNR12    P   0A  0453  8.89                                                    
 KNR13    P   0A  0453 11.16                                                    
 KNR14    P   0A  0453 11.25                                                    
 KNR15    P   0A  0453 13.36                                                    
 KNR16    P   0A  0453 13.46                                                    
 KNR17    P   0A  0453  5.48                                                    
 KNR18    P   0A  0453  3.59                                                    
 KNR19    P   0A  0453  4.85                                                    
 KNR20    P   0A  0453  3.52                                                    
 KNR21    P   0A  0453  0.92                                                    
 KNR22    P   0A  0453  2.98                                                    
 KNR23    P   0A  0453  1.96                                                    
 KNR28    P   0A  0453  1.93                                                    
 KNR29    P   0A  0453  5.68                                                    
 KNR30    P   0A  0453  2.65                                                    
 KNR01    S   0A  0453 16.17                                                    
 KNR02    S   0A  0453 16.45                                                    
 KNR03    S   0A  0453 11.80                                                    
 KNR04    S   0A  0453 12.38                                                    
 KNR05    S   0A  0453  6.78                                                    
 KNR06    S   0A  0453  7.64                                                    
 KNR07    S   0A  0453  6.70                                                    
 KNR08    S   0A  0453  6.15                                                    
 KNR09    S   0A  0453 10.90                                                    
 KNR10    S   0A  0453 10.81                                                    
 KNR11    S   0A  0453 15.14                                                    
 KNR12    S   0A  0453 15.50                                                    
 KNR13    S   0A  0453 19.48                                                    
 KNR14    S   0A  0453 19.63                                                    
 KNR15    S   0A  0453 23.34                                                    
 KNR16    S   0A  0453 23.51                                                    
 KNR17    S   0A  0453  9.48                                                    
 KNR18    S   0A  0453  6.14                                                    
 KNR19    S   0A  0453  8.35                                                    
 KNR20    S   0A  0453  6.02                                                    
 KNR21    S   0A  0453  1.39                                                    
 KNR22    S   0A  0453  5.14                                                    
 KNR23    S   0A  0453  3.26                                                    
 KNR28    S   0A  0453  3.20                                                    
 KNR29    S   0A  0453  9.83                                                    
 KNR30    S   0A  0453  4.65                                                    

 2017 0303 0546 14.1 L  76.597   7.194  0.0  AWI 26                            1
 STAT SP IPHASW D HRMM SECON CODA AMPLIT PERI AZIMU VELO AIN AR TRES W  DIS CAZ7
 KNR01    P   0A  0546 22.57                                                    
 KNR02    P   0A  0546 22.75                                                    
 KNR03    P   0A  0546 20.09                                                    
 KNR04    P   0A  0546 20.45                                                    
 KNR05    P   0A  0546 17.25                                                    
 KNR06    P   0A  0546 17.84                                                    
 KNR07    P   0A  0546 18.04                                                    
 KNR08    P   0A  0546 17.79                                                    
 KNR09    P   0A  0546 20.50                                                    
 KNR10    P   0A  0546 20.45                                                    
 KNR11    P   0A  0546 22.91                                                    
 KNR12    P   0A  0546 23.11                                                    
 KNR13    P   0A  0546 25.38                                                    
 KNR14    P   0A  0546 25.46                                                    
 KNR15    P   0A  0546 27.58                                                    
 KNR16    P   0A  0546 27.68                                                    
 KNR17    P   0A  0546 18.78                                                    
 KNR18    P   0A  0546 17.22                                                    
 KNR19    P   0A  0546 19.08                                                    
 KNR20    P   0A  0546 17.37                                                    
 KNR21    P   0A  0546 14.70                                                    
 KNR22    P   0A  0546 16.23                                                    
 KNR23    P   0A  0546 16.34                                                    
 KNR28    P   0A  0546 15.60                                                    
 KNR29    P   0A  0546 19.05                                                    
 KNR30    P   0A  0546 16.29                                                    
 KNR01    S   0A  0546 29.11                                                    
 KNR02    S   0A  0546 29.43                                                    
 KNR03    S   0A  0546 24.75                                                    
 KNR04    S   0A  0546 25.38                                                    
 KNR05    S   0A  0546 19.72                                                    
 KNR06    S   0A  0546 20.77                                                    
 KNR07    S   0A  0546 21.12                                                    
 KNR08    S   0A  0546 20.66                                                    
 KNR09    S   0A  0546 25.47                                                    
 KNR10    S   0A  0546 25.38                                                    
 KNR11    S   0A  0546 29.72                                                    
 KNR12    S   0A  0546 30.06                                                    
 KNR13    S   0A  0546 34.05                                                    
 KNR14    S   0A  0546 34.19                                                    
 KNR15    S   0A  0546 37.90                                                    
 KNR16    S   0A  0546 38.07                                                    
 KNR17    S   0A  0546 22.42                                                    
 KNR18    S   0A  0546 19.67                                                    
 KNR19    S   0A  0546 22.95                                                    
 KNR20    S   0A  0546 19.93                                                    
 KNR21    S   0A  0546 15.19                                                    
 KNR22    S   0A  0546 18.04                                                    
 KNR23    S   0A  0546 18.26                                                    
 KNR28    S   0A  0546 16.80                                                    
 KNR29    S   0A  0546 22.89                                                    
 KNR30    S   0A  0546 18.15                                                    

