 2017 0303 1012 21.4 L  76.727   7.335  0.0  AWI 26                            1
 STAT SP IPHASW D HRMM SECON CODA AMPLIT PERI AZIMU VELO AIN AR TRES W  DIS CAZ7
 KNR01    P   0A  1012 28.12                                                    
 KNR02    P   0A  1012 28.15                                                    
 KNR03    P   0A  1012 25.87                                                    
 KNR04    P   0A  1012 25.91                                                    
 KNR05    P   0A  1012 23.19                                                    
 KNR06    P   0A  1012 23.71                                                    
 KNR07    P   0A  1012 27.28                                                    
 KNR08    P   0A  1012 26.86                                                    
 KNR09    P   0A  1012 29.82                                                    
 KNR10    P   0A  1012 29.60                                                    
 KNR11    P   0A  1012 32.17                                                    
 KNR12    P   0A  1012 32.24                                                    
 KNR13    P   0A  1012 34.64                                                    
 KNR14    P   0A  1012 34.60                                                    
 KNR15    P   0A  1012 36.83                                                    
 KNR16    P   0A  1012 36.81                                                    
 KNR17    P   0A  1012 24.11                                                    
 KNR18    P   0A  1012 25.47                                                    
 KNR19    P   0A  1012 28.37                                                    
 KNR20    P   0A  1012 25.53                                                    
 KNR21    P   0A  1012 24.65                                                    
 KNR22    P   0A  1012 23.23                                                    
 KNR23    P   0A  1012 25.84                                                    
 KNR28    P   0A  1012 24.93                                                    
 KNR29    P   0A  1012 24.70                                                    
 KNR30    P   0A  1012 24.55                                                    
 KNR01    S   0A  1012 33.28                                                    
 KNR02    S   0A  1012 33.34                                                    
 KNR03    S   0A  1012 29.30                                                    
 KNR04    S   0A  1012 29.37                                                    
 KNR05    S   0A  1012 24.57                                                    
 KNR06    S   0A  1012 25.64                                                    
 KNR07    S   0A  1012 31.80                                                    
 KNR08    S   0A  1012 31.06                                                    
 KNR09    S   0A  1012 36.29                                                    
 KNR10    S   0A  1012 35.90                                                    
 KNR11    S   0A  1012 40.41                                                    
 KNR12    S   0A  1012 40.54                                                    
 KNR13    S   0A  1012 44.73                                                    
 KNR14    S   0A  1012 44.67                                                    
 KNR15    S   0A  1012 48.57                                                    
 KNR16    S   0A  1012 48.55                                                    
 KNR17    S   0A  1012 26.27                                                    
 KNR18    S   0A  1012 28.60                                                    
 KNR19    S   0A  1012 33.72                                                    
 KNR20    S   0A  1012 28.71                                                    
 KNR21    S   0A  1012 27.15                                                    
 KNR22    S   0A  1012 24.66                                                    
 KNR23    S   0A  1012 29.25                                                    
 KNR28    S   0A  1012 27.64                                                    
 KNR29    S   0A  1012 27.23                                                    
 KNR30    S   0A  1012 26.97                                                    

 2017 0303 1349 27.1 L  76.586   7.194  0.0  AWI 26                            1
 STAT SP IPHASW D HRMM SECON CODA AMPLIT PERI AZIMU VELO AIN AR TRES W  DIS CAZ7
 KNR01    P   0A  1349 35.76                                                    
 KNR02    P   0A  1349 35.93                                                    
 KNR03    P   0A  1349 33.29                                                    
 KNR04    P   0A  1349 33.63                                                    
 KNR05    P   0A  1349 30.45                                                    
 KNR06    P   0A  1349 31.00                                                    
 KNR07    P   0A  1349 30.95                                                    
 KNR08    P   0A  1349 30.68                                                    
 KNR09    P   0A  1349 33.39                                                    
 KNR10    P   0A  1349 33.34                                                    
 KNR11    P   0A  1349 35.80                                                    
 KNR12    P   0A  1349 35.99                                                    
 KNR13    P   0A  1349 38.27                                                    
 KNR14    P   0A  1349 38.35                                                    
 KNR15    P   0A  1349 40.47                                                    
 KNR16    P   0A  1349 40.57                                                    
 KNR17    P   0A  1349 31.98                                                    
 KNR18    P   0A  1349 30.30                                                    
 KNR19    P   0A  1349 31.96                                                    
 KNR20    P   0A  1349 30.37                                                    
 KNR21    P   0A  1349 27.59                                                    
 KNR22    P   0A  1349 29.43                                                    
 KNR23    P   0A  1349 29.18                                                    
 KNR28    P   0A  1349 28.62                                                    
 KNR29    P   0A  1349 32.22                                                    
 KNR30    P   0A  1349 29.35                                                    
 KNR01    S   0A  1349 42.43                                                    
 KNR02    S   0A  1349 42.73                                                    
 KNR03    S   0A  1349 38.06                                                    
 KNR04    S   0A  1349 38.67                                                    
 KNR05    S   0A  1349 33.04                                                    
 KNR06    S   0A  1349 34.01                                                    
 KNR07    S   0A  1349 33.93                                                    
 KNR08    S   0A  1349 33.45                                                    
 KNR09    S   0A  1349 38.24                                                    
 KNR10    S   0A  1349 38.15                                                    
 KNR11    S   0A  1349 42.49                                                    
 KNR12    S   0A  1349 42.83                                                    
 KNR13    S   0A  1349 46.82                                                    
 KNR14    S   0A  1349 46.97                                                    
 KNR15    S   0A  1349 50.67                                                    
 KNR16    S   0A  1349 50.85                                                    
 KNR17    S   0A  1349 35.74                                                    
 KNR18    S   0A  1349 32.77                                                    
 KNR19    S   0A  1349 35.71                                                    
 KNR20    S   0A  1349 32.90                                                    
 KNR21    S   0A  1349 27.95                                                    
 KNR22    S   0A  1349 31.41                                                    
 KNR23    S   0A  1349 30.89                                                    
 KNR28    S   0A  1349 29.80                                                    
 KNR29    S   0A  1349 36.16                                                    
 KNR30    S   0A  1349 31.23                                                    

 2017 0303 2017 33.6 L  76.651   7.194  0.0  AWI 26                            1
 STAT SP IPHASW D HRMM SECON CODA AMPLIT PERI AZIMU VELO AIN AR TRES W  DIS CAZ7
 KNR01    P   0A  2017 41.30                                                    
 KNR02    P   0A  2017 41.51                                                    
 KNR03    P   0A  2017 38.85                                                    
 KNR04    P   0A  2017 39.26                                                    
 KNR05    P   0A  2017 35.84                                                    
 KNR06    P   0A  2017 36.86                                                    
 KNR07    P   0A  2017 38.24                                                    
 KNR08    P   0A  2017 38.05                                                    
 KNR09    P   0A  2017 40.79                                                    
 KNR10    P   0A  2017 40.74                                                    
 KNR11    P   0A  2017 43.19                                                    
 KNR12    P   0A  2017 43.39                                                    
 KNR13    P   0A  2017 45.67                                                    
 KNR14    P   0A  2017 45.75                                                    
 KNR15    P   0A  2017 47.87                                                    
 KNR16    P   0A  2017 47.96                                                    
 KNR17    P   0A  2017 37.54                                                    
 KNR18    P   0A  2017 36.76                                                    
 KNR19    P   0A  2017 39.39                                                    
 KNR20    P   0A  2017 37.23                                                    
 KNR21    P   0A  2017 35.44                                                    
 KNR22    P   0A  2017 35.19                                                    
 KNR23    P   0A  2017 36.82                                                    
 KNR28    P   0A  2017 35.70                                                    
 KNR29    P   0A  2017 37.95                                                    
 KNR30    P   0A  2017 36.07                                                    
 KNR01    S   0A  2017 47.24                                                    
 KNR02    S   0A  2017 47.62                                                    
 KNR03    S   0A  2017 42.92                                                    
 KNR04    S   0A  2017 43.64                                                    
 KNR05    S   0A  2017 37.73                                                    
 KNR06    S   0A  2017 39.39                                                    
 KNR07    S   0A  2017 41.84                                                    
 KNR08    S   0A  2017 41.49                                                    
 KNR09    S   0A  2017 46.35                                                    
 KNR10    S   0A  2017 46.26                                                    
 KNR11    S   0A  2017 50.58                                                    
 KNR12    S   0A  2017 50.91                                                    
 KNR13    S   0A  2017 54.91                                                    
 KNR14    S   0A  2017 55.05                                                    
 KNR15    S   0A  2017 58.77                                                    
 KNR16    S   0A  2017 58.93                                                    
 KNR17    S   0A  2017 40.59                                                    
 KNR18    S   0A  2017 39.23                                                    
 KNR19    S   0A  2017 43.87                                                    
 KNR20    S   0A  2017 40.05                                                    
 KNR21    S   0A  2017 36.92                                                    
 KNR22    S   0A  2017 36.44                                                    
 KNR23    S   0A  2017 39.32                                                    
 KNR28    S   0A  2017 37.45                                                    
 KNR29    S   0A  2017 41.32                                                    
 KNR30    S   0A  2017 38.13                                                    

 2017 0303 2058 12.2 L  76.500   7.055  0.0  AWI 26                            1
 STAT SP IPHASW D HRMM SECON CODA AMPLIT PERI AZIMU VELO AIN AR TRES W  DIS CAZ7
 KNR01    P   0A  2058 22.09                                                    
 KNR02    P   0A  2058 22.37                                                    
 KNR03    P   0A  2058 19.57                                                    
 KNR04    P   0A  2058 20.10                                                    
 KNR05    P   0A  2058 16.77                                                    
 KNR06    P   0A  2058 17.41                                                    
 KNR07    P   0A  2058 14.70                                                    
 KNR08    P   0A  2058 15.10                                                    
 KNR09    P   0A  2058 17.17                                                    
 KNR10    P   0A  2058 17.42                                                    
 KNR11    P   0A  2058 19.60                                                    
 KNR12    P   0A  2058 19.99                                                    
 KNR13    P   0A  2058 22.11                                                    
 KNR14    P   0A  2058 22.35                                                    
 KNR15    P   0A  2058 24.33                                                    
 KNR16    P   0A  2058 24.56                                                    
 KNR17    P   0A  2058 18.44                                                    
 KNR18    P   0A  2058 15.67                                                    
 KNR19    P   0A  2058 15.83                                                    
 KNR20    P   0A  2058 16.03                                                    
 KNR21    P   0A  2058 14.50                                                    
 KNR22    P   0A  2058 16.04                                                    
 KNR23    P   0A  2058 12.52                                                    
 KNR28    P   0A  2058 14.44                                                    
 KNR29    P   0A  2058 18.66                                                    
 KNR30    P   0A  2058 15.63                                                    
 KNR01    S   0A  2058 29.66                                                    
 KNR02    S   0A  2058 30.15                                                    
 KNR03    S   0A  2058 25.23                                                    
 KNR04    S   0A  2058 26.18                                                    
 KNR05    S   0A  2058 20.29                                                    
 KNR06    S   0A  2058 21.41                                                    
 KNR07    S   0A  2058 16.75                                                    
 KNR08    S   0A  2058 17.36                                                    
 KNR09    S   0A  2058 20.99                                                    
 KNR10    S   0A  2058 21.43                                                    
 KNR11    S   0A  2058 25.29                                                    
 KNR12    S   0A  2058 25.97                                                    
 KNR13    S   0A  2058 29.70                                                    
 KNR14    S   0A  2058 30.13                                                    
 KNR15    S   0A  2058 33.59                                                    
 KNR16    S   0A  2058 34.00                                                    
 KNR17    S   0A  2058 23.23                                                    
 KNR18    S   0A  2058 18.34                                                    
 KNR19    S   0A  2058 18.62                                                    
 KNR20    S   0A  2058 18.97                                                    
 KNR21    S   0A  2058 16.43                                                    
 KNR22    S   0A  2058 18.98                                                    
 KNR23    S   0A  2058 12.74                                                    
 KNR28    S   0A  2058 16.30                                                    
 KNR29    S   0A  2058 23.62                                                    
 KNR30    S   0A  2058 18.26                                                    

