 2016  910 19 6 17.0 L                       TES                               1
                                                                               6
 STAT SP IPHASW D HRMM SECON CODA AMPLIT PERI AZIMU VELO AIN AR TRES W  DIS CAZ7
 KNR19    P   0   19 6 17.01                                                    
 KNR14BH  P   2   19 6 23.28                                                    
 KNR14B1  S   2   19 6 29.80                                                    
 KNR17BH  P   2   19 6 24.34                                                    
 KNR13BZ  P   2   19 6 23.98                                                    
 KNR13BZ  S   2   19 6 30.12                                                    
 KNR05BZ  P   1   19 6 22.88                                                    
 KNR05B2  S   2   19 6 28.78                                                    
 KNR22HZ  P   2   19 6 21.80                                                    
 KNR22H2  S   2   19 6 26.36                                                    
 KNR17B2  S   3   19 6 31.34                                                    
 KNR29    P   0   19 6 24.41                                                    
 KNR29    S   2   19 6 30.78                                                    
 KNR03BZ  P   2   19 6 25.54                                                    
 KNR03B2  S   3   19 6 32.66                                                    
 KNR15    S   2   19 6 33.71                                                    
 KNR16BZ  P   2   19 6 25.36                                                    
 KNR04BZ  P   2   19 6 26.48                                                    
 KNR04B2  S   3   19 6 34.94                                                    
 KNR01BZ  P   4   19 6 29.40                                                    
 KNR02BZ  P   3   19 6 28.50                                                    
 KNR18    P   0   19 6 21.87                                                    
 KNR18    S   2   19 6 26.29                                                    
 KNR12BZ  S   2   19 6 25.78                                                    
 KNR19    S   2   19 6 17.68                                                    
 KNR09BH  P   0   19 6 17.94                                                    
 KNR09B2  S   0   19 6 20.40                                                    
 KNR07BH  P   0   19 6 18.66                                                    
 KNR07B2  S   0   19 6 21.04                                                    
 KNR08BH  P   0   19 6 18.84                                                    
 KNR08B2  S   3   19 6 20.26                                                    
 KNR10BH  P   0   19 6 18.66                                                    
 KNR10B2  S   1   19 6 23.26                                                    
 KNR23HZ  P   0   19 6 19.18                                                    
 KNR23H1  S   3   19 6 21.80                                                    
 KNR28    P   0   19 6 20.95                                                    
 KNR28    S   2   19 6 24.66                                                    
 KNR11BH  P   2   19 6 20.24                                                    
 KNR11B2  S   3   19 6 24.54                                                    
 KNR20    P   0   19 6 20.83                                                    
 KNR20    S   2   19 6 24.45                                                    
 KNR30    P   0   19 6 21.13                                                    
 KNR30    S   2   19 6 24.97                                                    
 KNR12BZ  P   0   19 6 20.94                                                    
 KNR02B2  S   3   19 6 38.34                                                    
                                                                                
