 2016  910 19 6 17.0 L                           24        L                   1
                                                                               E
                                                                               6
 STAT SP IPHASW D HRMM SECON CODA AMPLIT PERI AZIMU VELO AIN AR TRES W  DIS CAZ7
 KNR19    P   0   19 6 17.01                                   -0.09            
 KNR19    S   2   19 6 17.68                                   -0.42            
 KNR09BH  P   0   19 6 17.94                                   -0.36            
 KNR09B2  S   0   19 6 20.40                                     0.1            
 KNR07BH  P   0   19 6 18.66                                   0.060            
 KNR07B2  S   0   19 6 21.04                                    0.24            
 KNR08BH  P   0   19 6 18.84                                   0.039            
 KNR08B2  S   3   19 6 20.26                                   -0.84            
 KNR10BH  P   0   19 6 18.66                                   -0.24            
 KNR10B2  S   1   19 6 23.26                                    1.96            
 KNR23HZ  P   0   19 6 19.18                                   0.079            
 KNR23H1  S   3   19 6 21.80                                     0.1            
 KNR28    P   0   19 6 20.95                                    0.35            
 KNR28    S   2   19 6 24.66                                    0.36            
 KNR11BH  P   2   19 6 20.24                                   -0.46            
 KNR11B2  S   3   19 6 24.54                                   -0.06            
 KNR20    P   0   19 6 20.83                                   -0.17            
 KNR20    S   2   19 6 24.45                                   -0.55            
 KNR30    P   0   19 6 21.13                                   0.029            
 KNR30    S   2   19 6 24.97                                   -0.23            
 KNR12BZ  P   0   19 6 20.94                                   -0.26            
 KNR12BZ  S   2   19 6 25.78                                    0.28            
 KNR18    P   0   19 6 21.87                                    0.57            
 KNR18    S   2   19 6 26.29                                    0.69            
 KNR22HZ  P   2   19 6 21.80                                     0.1            
 KNR22H2  S   2   19 6 26.36                                    0.06            
 KNR05BZ  P   1   19 6 22.88                                   -0.02            
 KNR05B2  S   2   19 6 28.78                                    0.48            
 KNR13BZ  P   2   19 6 23.98                                    0.58            
 KNR13BZ  S   2   19 6 30.12                                    0.82            
 KNR14BH  P   2   19 6 23.28                                   -0.42            
 KNR14B1  S   2   19 6 29.80                                    -0.1            
 KNR17BH  P   2   19 6 24.34                                   -0.06            
 KNR17B2  S   3   19 6 31.34                                    0.24            
 KNR29    P   0   19 6 24.41                                   -0.19            
 KNR29    S   2   19 6 30.78                                   -0.62            
 KNR03BZ  P   2   19 6 25.54                                   -0.36            
 KNR03B2  S   3   19 6 32.66                                   -1.04            
 KNR15    S   2   19 6 33.71                                    0.21            
 KNR16BZ  P   2   19 6 25.36                                   -0.74            
 KNR04BZ  P   2   19 6 26.48                                    0.28            
 KNR04B2  S   3   19 6 34.94                                    0.64            
 KNR01BZ  P   4   19 6 29.40                                     0.9            
 KNR02BZ  P   3   19 6 28.50                                    -0.2            
 KNR02B2  S   3   19 6 38.34                                   -0.26            
                                                                                
 2016  910 19 6 17.0 L                           24        L                   1
                                                                               E
                                                                               6
 STAT SP IPHASW D HRMM SECON CODA AMPLIT PERI AZIMU VELO AIN AR TRES W  DIS CAZ7
 KNR19    P   0   19 6 17.01                                   -0.09            
 KNR19    S   2   19 6 17.68                                   -0.42            
 KNR09BH  P   0   19 6 17.94                                   -0.36            
 KNR09B2  S   0   19 6 20.40                                     0.1            
 KNR07BH  P   0   19 6 18.66                                   0.060            
 KNR07B2  S   0   19 6 21.04                                    0.24            
 KNR08BH  P   0   19 6 18.84                                   0.039            
 KNR08B2  S   3   19 6 20.26                                   -0.84            
 KNR10BH  P   0   19 6 18.66                                   -0.24            
 KNR10B2  S   1   19 6 23.26                                    1.96            
 KNR23HZ  P   0   19 6 19.18                                   0.079            
 KNR23H1  S   3   19 6 21.80                                     0.1            
 KNR28    P   0   19 6 20.95                                    0.35            
 KNR28    S   2   19 6 24.66                                    0.36            
 KNR11BH  P   2   19 6 20.24                                   -0.46            
 KNR11B2  S   3   19 6 24.54                                   -0.06            
 KNR20    P   0   19 6 20.83                                   -0.17            
 KNR20    S   2   19 6 24.45                                   -0.55            
 KNR30    P   0   19 6 21.13                                   0.029            
 KNR30    S   2   19 6 24.97                                   -0.23            
 KNR12BZ  P   0   19 6 20.94                                   -0.26            
 KNR12BZ  S   2   19 6 25.78                                    0.28            
 KNR18    P   0   19 6 21.87                                    0.57            
 KNR18    S   2   19 6 26.29                                    0.69            
 KNR22HZ  P   2   19 6 21.80                                     0.1            
 KNR22H2  S   2   19 6 26.36                                    0.06            
 KNR05BZ  P   1   19 6 22.88                                   -0.02            
 KNR05B2  S   2   19 6 28.78                                    0.48            
 KNR13BZ  P   2   19 6 23.98                                    0.58            
 KNR13BZ  S   2   19 6 30.12                                    0.82            
 KNR14BH  P   2   19 6 23.28                                   -0.42            
 KNR14B1  S   2   19 6 29.80                                    -0.1            
 KNR17BH  P   2   19 6 24.34                                   -0.06            
 KNR17B2  S   3   19 6 31.34                                    0.24            
 KNR29    P   0   19 6 24.41                                   -0.19            
 KNR29    S   2   19 6 30.78                                   -0.62            
 KNR03BZ  P   2   19 6 25.54                                   -0.36            
 KNR03B2  S   3   19 6 32.66                                   -1.04            
 KNR15    S   2   19 6 33.71                                    0.21            
 KNR16BZ  P   2   19 6 25.36                                   -0.74            
 KNR04BZ  P   2   19 6 26.48                                    0.28            
 KNR04B2  S   3   19 6 34.94                                    0.64            
 KNR01BZ  P   3   19 6 29.40                                     0.9            
 KNR02BZ  P   4   19 6 28.50                                    -0.2            
 KNR02B2  S   4   19 6 38.34                                   -0.26            
                                                                                
 2016  910 19 6 17.0 L                           24        L                   1
                                                                               E
                                                                               6
 STAT SP IPHASW D HRMM SECON CODA AMPLIT PERI AZIMU VELO AIN AR TRES W  DIS CAZ7
 KNR19    P   0   19 6 17.01                                   -0.09            
 KNR19    S   2   19 6 17.68                                   -0.42            
 KNR09BH  P   0   19 6 17.94                                   -0.36            
 KNR09B2  S   0   19 6 20.40                                     0.1            
 KNR07BH  P   0   19 6 18.66                                   0.060            
 KNR07B2  S   0   19 6 21.04                                    0.24            
 KNR08BH  P   0   19 6 18.84                                   0.039            
 KNR08B2  S   3   19 6 20.26                                   -0.84            
 KNR10BH  P   0   19 6 18.66                                   -0.24            
 KNR10B2  S   1   19 6 23.26                                    1.96            
 KNR23HZ  P   0   19 6 19.18                                   0.079            
 KNR23H1  S   3   19 6 21.80                                     0.1            
 KNR28    P   0   19 6 20.95                                    0.35            
 KNR28    S   2   19 6 24.66                                    0.36            
 KNR11BH  P   2   19 6 20.24                                   -0.46            
 KNR11B2  S   3   19 6 24.54                                   -0.06            
 KNR20    P   0   19 6 20.83                                   -0.17            
 KNR20    S   2   19 6 24.45                                   -0.55            
 KNR30    P   0   19 6 21.13                                   0.029            
 KNR30    S   2   19 6 24.97                                   -0.23            
 KNR12BZ  P   0   19 6 20.94                                   -0.26            
 KNR12BZ  S   2   19 6 25.78                                    0.28            
 KNR18    P   0   19 6 21.87                                    0.57            
 KNR18    S   2   19 6 26.29                                    0.69            
 KNR22HZ  P   2   19 6 21.80                                     0.1            
 KNR22H2  S   2   19 6 26.36                                    0.06            
 KNR05BZ  P   1   19 6 22.88                                   -0.02            
 KNR05B2  S   2   19 6 28.78                                    0.48            
 KNR13BZ  P   2   19 6 23.98                                    0.58            
 KNR13BZ  S   2   19 6 30.12                                    0.82            
 KNR14BH  P   2   19 6 23.28                                   -0.42            
 KNR14B1  S   2   19 6 29.80                                    -0.1            
 KNR17BH  P   2   19 6 24.34                                   -0.06            
 KNR17B2  S   3   19 6 31.34                                    0.24            
 KNR29    P   0   19 6 24.41                                   -0.19            
 KNR29    S   2   19 6 30.78                                   -0.62            
 KNR03BZ  P   4   19 6 25.54                                   -0.36            
 KNR03B2  S   4   19 6 32.66                                   -1.04            
 KNR15    S   2   19 6 33.71                                    0.21            
 KNR16BZ  P   2   19 6 25.36                                   -0.74            
 KNR04BZ  P   2   19 6 26.48                                    0.28            
 KNR04B2  S   3   19 6 34.94                                    0.64            
 KNR01BZ  P   3   19 6 29.40                                     0.9            
 KNR02BZ  P   3   19 6 28.50                                    -0.2            
 KNR02B2  S   3   19 6 38.34                                   -0.26            
                                                                                
 2016  910 19 6 17.0 L                           24        L                   1
                                                                               E
                                                                               6
 STAT SP IPHASW D HRMM SECON CODA AMPLIT PERI AZIMU VELO AIN AR TRES W  DIS CAZ7
 KNR19    P   0   19 6 17.01                                   -0.09            
 KNR19    S   2   19 6 17.68                                   -0.42            
 KNR09BH  P   0   19 6 17.94                                   -0.36            
 KNR09B2  S   0   19 6 20.40                                     0.1            
 KNR07BH  P   0   19 6 18.66                                   0.060            
 KNR07B2  S   0   19 6 21.04                                    0.24            
 KNR08BH  P   0   19 6 18.84                                   0.039            
 KNR08B2  S   3   19 6 20.26                                   -0.84            
 KNR10BH  P   0   19 6 18.66                                   -0.24            
 KNR10B2  S   1   19 6 23.26                                    1.96            
 KNR23HZ  P   0   19 6 19.18                                   0.079            
 KNR23H1  S   3   19 6 21.80                                     0.1            
 KNR28    P   0   19 6 20.95                                    0.35            
 KNR28    S   2   19 6 24.66                                    0.36            
 KNR11BH  P   2   19 6 20.24                                   -0.46            
 KNR11B2  S   3   19 6 24.54                                   -0.06            
 KNR20    P   0   19 6 20.83                                   -0.17            
 KNR20    S   2   19 6 24.45                                   -0.55            
 KNR30    P   0   19 6 21.13                                   0.029            
 KNR30    S   2   19 6 24.97                                   -0.23            
 KNR12BZ  P   0   19 6 20.94                                   -0.26            
 KNR12BZ  S   2   19 6 25.78                                    0.28            
 KNR18    P   0   19 6 21.87                                    0.57            
 KNR18    S   2   19 6 26.29                                    0.69            
 KNR22HZ  P   2   19 6 21.80                                     0.1            
 KNR22H2  S   2   19 6 26.36                                    0.06            
 KNR05BZ  P   1   19 6 22.88                                   -0.02            
 KNR05B2  S   2   19 6 28.78                                    0.48            
 KNR13BZ  P   2   19 6 23.98                                    0.58            
 KNR13BZ  S   2   19 6 30.12                                    0.82            
 KNR14BH  P   2   19 6 23.28                                   -0.42            
 KNR14B1  S   2   19 6 29.80                                    -0.1            
 KNR17BH  P   2   19 6 24.34                                   -0.06            
 KNR17B2  S   3   19 6 31.34                                    0.24            
 KNR29    P   0   19 6 24.41                                   -0.19            
 KNR29    S   2   19 6 30.78                                   -0.62            
 KNR03BZ  P   2   19 6 25.54                                   -0.36            
 KNR03B2  S   3   19 6 32.66                                   -1.04            
 KNR15    S   2   19 6 33.71                                    0.21            
 KNR16BZ  P   2   19 6 25.36                                   -0.74            
 KNR04BZ  P   4   19 6 26.48                                    0.28            
 KNR04B2  S   4   19 6 34.94                                    0.64            
 KNR01BZ  P   3   19 6 29.40                                     0.9            
 KNR02BZ  P   3   19 6 28.50                                    -0.2            
 KNR02B2  S   3   19 6 38.34                                   -0.26            
                                                                                
