 2016 0803 1611 53.0 L  75.363  11.221  0.0  AWI 26                            1
 STAT SP IPHASW D HRMM SECON CODA AMPLIT PERI AZIMU VELO AIN AR TRES W  DIS CAZ7
 KNR01    P   0A  1612 22.74                                                    
 KNR02    P   0A  1612 21.32                                                    
 KNR03    P   0A  1612 20.96                                                    
 KNR04    P   0A  1612 19.21                                                    
 KNR05    P   0A  1612 18.43                                                    
 KNR06    P   0A  1612 17.03                                                    
 KNR07    P   0A  1612 16.05                                                    
 KNR08    P   0A  1612 14.18                                                    
 KNR09    P   0A  1612 14.08                                                    
 KNR10    P   0A  1612 12.18                                                    
 KNR11    P   0A  1612 12.61                                                    
 KNR12    P   0A  1612 10.49                                                    
 KNR13    P   0A  1612 11.48                                                    
 KNR14    P   0A  1612  8.99                                                    
 KNR15    P   0A  1612 10.43                                                    
 KNR16    P   0A  1612  7.75                                                    
 KNR17    P   0A  1612 18.83                                                    
 KNR18    P   0A  1612 18.16                                                    
 KNR19    P   0A  1612 14.00                                                    
 KNR20    P   0A  1612 14.84                                                    
 KNR21    P   0A  1612 16.26                                                    
 KNR22    P   0A  1612 16.78                                                    
 KNR23    P   0A  1612 15.85                                                    
 KNR28    P   0A  1612 17.03                                                    
 KNR29    P   0A  1612 17.83                                                    
 KNR30    P   0A  1612 15.82                                                    
 KNR01    S   0A  1612 45.30                                                    
 KNR02    S   0A  1612 42.82                                                    
 KNR03    S   0A  1612 42.18                                                    
 KNR04    S   0A  1612 39.10                                                    
 KNR05    S   0A  1612 37.74                                                    
 KNR06    S   0A  1612 35.27                                                    
 KNR07    S   0A  1612 33.56                                                    
 KNR08    S   0A  1612 30.27                                                    
 KNR09    S   0A  1612 30.09                                                    
 KNR10    S   0A  1612 26.76                                                    
 KNR11    S   0A  1612 27.51                                                    
 KNR12    S   0A  1612 23.79                                                    
 KNR13    S   0A  1612 25.53                                                    
 KNR14    S   0A  1612 21.16                                                    
 KNR15    S   0A  1612 23.69                                                    
 KNR16    S   0A  1612 18.98                                                    
 KNR17    S   0A  1612 38.43                                                    
 KNR18    S   0A  1612 37.26                                                    
 KNR19    S   0A  1612 29.95                                                    
 KNR20    S   0A  1612 31.42                                                    
 KNR21    S   0A  1612 33.93                                                    
 KNR22    S   0A  1612 34.84                                                    
 KNR23    S   0A  1612 33.21                                                    
 KNR28    S   0A  1612 35.28                                                    
 KNR29    S   0A  1612 36.68                                                    
 KNR30    S   0A  1612 33.15                                                    