 2016  910 19 6 15.7 L  76.329   7.020  6.9  AWI 26 0.5 6.8LAWI                1
                                                         ID:20160910190615     I
                           1.2     8.4  3.9                                    E
 2016-09-10_19-06-15.mseed                                                     6
 STAT SP IPHASW D HRMM SECON CODA AMPLIT PERI AZIMU VELO AIN AR TRES W  DIS CAZ7
 KNR19    P   0   19 6 16.88                                   -0.22            
 KNR19    AMP     19 6 17.80     3.8e+07 0.20                                   
 KNR19    S   2   19 6 17.75                                   -0.45            
 KNR19    AMP     19 6 20.88     2.7e+08 0.12                                   
 KNR09BH  P   0   19 6 18.00                                    -0.1            
 KNR09B2  S   0   19 6 20.40                                     0.4            
 KNR09    AMP     19 6 21.02     1.1e+08 0.20                                   
 KNR07BH  P   0   19 6 18.66                                    0.16            
 KNR07    AMP     19 6 20.12     6.4e+06 0.16                                   
 KNR07B2  S   0   19 6 19.82                                   -0.78            
 KNR07    AMP     19 6 24.10     7.2e+07 0.24                                   
 KNR10BH  P   0   19 6 18.66                                   -0.24            
 KNR10    AMP     19 6 20.26     1.2e+07 0.12                                   
 KNR10B1  S   0   19 6 21.38                                    0.08            
 KNR10    AMP     19 6 22.54     1.3e+08 0.20                                   
 KNR08BH  P   0   19 6 18.84                                   0.039            
 KNR08    AMP     19 6 20.62     4.0e+06 0.12                                   
 KNR08B2  S   3   19 6 20.48                                   -0.82            
 KNR08    AMP     19 6 26.22     2.1e+07 0.12                                   
 KNR23HZ  P   0   19 6 19.18                                   0.079            
 KNR23H1  S   3   19 6 21.80                                       0            
 KNR23    AMP     19 6 22.60     1.9e+07 0.16                                   
 KNR28    P   0   19 6 20.79                                    0.19            
 KNR28    S   2   19 6 24.68                                    0.38            
 KNR11BH  P   2   19 6 20.24                                   -0.26            
 KNR11    AMP     19 6 22.98     5.0e+05 0.08                                   
 KNR11B2  S   3   19 6 24.16                                   -0.04            
 KNR11    AMP     19 6 26.10     3.3e+06 0.16                                   
 KNR20    AMP     19 6 23.70     2.6e+07 0.24                                   
 KNR12BZ  P   0   19 6 20.94                                   -0.16            
 KNR12    AMP     19 6 24.42     1.9e+06 0.12                                   
 KNR12BZ  S   2   19 6 25.78                                    0.48            
 KNR12    AMP     19 6 25.92     1.3e+07 0.20                                   
 KNR30    P   0   19 6 21.48                                    0.38            
 KNR30    S   2   19 6 25.91                                    0.51            
 KNR18    P   0   19 6 21.45                                    0.15            
 KNR18    S   2   19 6 25.85                                    0.25            
 KNR18    AMP     19 6 26.74     1.9e+07 0.16                                   
 KNR22HZ  P   2   19 6 21.80                                       0            
 KNR22H2  S   2   19 6 26.36                                   -0.14            
 KNR22    AMP     19 6 27.50     3.4e+06 0.16                                   
 KNR05BZ  P   1   19 6 22.88                                   -0.02            
 KNR05    AMP     19 6 24.28     5.9e+05 0.12                                   
 KNR05B2  S   2   19 6 28.78                                    0.38            
 KNR05    AMP     19 6 29.56     1.3e+07 0.20                                   
 KNR13BZ  P   2   19 6 23.98                                    0.78            
 KNR13    AMP     19 6 25.94     4.0e+05 0.16                                   
 KNR13BZ  S   2   19 6 30.12                                    1.12            
 KNR13    AMP     19 6 30.52     4.1e+06 0.16                                   
 KNR06    AMP     19 6 29.74     1.3e+07 0.16                                   
 KNR14BH  P   2   19 6 23.28                                   -0.32            
 KNR14B1  S   2   19 6 29.80                                     0.1            
 KNR14    AMP     19 6 29.92     3.3e+06 0.20                                   
 KNR17BH  P   2   19 6 24.34                                   -0.06            
 KNR17B2  S   3   19 6 31.34                                    0.14            
 KNR17    AMP     19 6 31.84     1.6e+07 0.24                                   
 KNR29    P   0   19 6 24.73                                    0.13            
 KNR29    S   2   19 6 31.63                                    0.13            
 KNR15BH  S   3   19 6 32.32                                   -0.88            
 KNR03BZ  P   2   19 6 25.54                                   -0.36            
 KNR03    AMP     19 6 29.02     3.1e+05 0.12                                   
 KNR03B2  S   3   19 6 32.66                                   -1.14            
 KNR03    AMP     19 6 35.50     3.7e+06 0.16                                   
 KNR16BH  P   2   19 6 25.36                                   -0.64            
 KNR16    AMP     19 6 27.32     3.5e+05 0.16                                   
 KNR16BH  S   3   19 6 30.98                                   -2.92            
 KNR16    AMP     19 6 33.88     2.3e+06 0.20                                   
 KNR04BZ  P   2   19 6 26.48                                    0.18            
 KNR04    AMP     19 6 27.06     1.8e+05 0.12                                   
 KNR04B2  S   3   19 6 34.94                                    0.54            
 KNR04    AMP     19 6 35.78     2.3e+06 0.12                                   
 KNR01BZ  P   3   19 6 29.40                                     0.9            
 KNR01    AMP     19 6 40.58     2.6e+06 0.20                                   
 KNR02BZ  P   3   19 6 28.50                                    -0.2            
 KNR02    AMP     19 6 32.02     8.5e+04 0.12                                   
 KNR02B2  S   3   19 6 38.34                                   -0.36            
                                                                                
