 2016  910 2259 35.3 L  76.661   7.260 11.8  AWI 26 1.1 6.9LAWI                1
                                                         ID:20160910225936     I
                           3.0    23.1  8.1                                    E
 2016-09-10_22-59-36.mseed                                                     6
 STAT SP IPHASW D HRMM SECON CODA AMPLIT PERI AZIMU VELO AIN AR TRES W  DIS CAZ7
 KNR22HZ  P   0   2259 36.72                                   -0.68            
 KNR22    AMP     2259 38.62     4.1e+07 0.12                                   
 KNR22H1  S   0   2259 39.38                                    0.28            
 KNR22    AMP     2259 38.90     8.5e+07 0.28                                   
 KNR21    P   0   2259 38.04                                    0.24            
 KNR21    S   2   2259 39.74                                   -0.06            
 KNR05BZ  P   0   2259 37.40                                    -0.6            
 KNR05B2  S   0   2259 39.54                                   -0.56            
 KNR05    AMP     2259 42.20     8.4e+07 0.28                                   
 KNR30    P   0   2259 38.58                                    0.58            
 KNR30    S   2   2259 40.70                                     0.5            
 KNR28    P   0   2259 38.26                                    0.06            
 KNR28    S   2   2259 40.18                                   -0.22            
 KNR06BZ  P   2   2259 40.84                                    2.34            
 KNR06    AMP     2259 38.84     1.4e+07 0.08                                   
 KNR06B1  S   2   2259 42.90                                       2            
 KNR06    AMP     2259 40.92     1.1e+08 0.12                                   
 KNR23HH  P   0   2259 37.78                                   -0.92            
 KNR23    AMP     2259 40.52     4.4e+06 0.08                                   
 KNR23H1  S   3   2259 41.22                                   -0.08            
 KNR23    AMP     2259 41.56     1.8e+07 0.20                                   
 KNR18    P   0   2259 39.20                                     0.4            
 KNR18    S   2   2259 41.70                                     0.1            
 KNR18    AMP     2259 41.28     6.7e+07 0.16                                   
 KNR20    AMP     2259 38.64     5.5e+06 0.24                                   
 KNR20HH  S   3   2259 41.76                                   -0.04            
 KNR17BZ  P   0   2259 38.76                                   -0.24            
 KNR17    AMP     2259 39.00     1.5e+06 0.16                                   
 KNR17BZ  S   0   2259 42.22                                    0.32            
 KNR17    AMP     2259 42.40     2.6e+07 0.12                                   
 KNR29    P   0   2259 40.24                                    0.74            
 KNR29    S   2   2259 43.52                                    0.82            
 KNR08BH  P   0   2259 39.06                                   -0.84            
 KNR08BZ  S   0   2259 43.14                                   -0.36            
 KNR07BZ  P   0   2259 43.32                                    3.12            
 KNR07    AMP     2259 42.36     1.9e+06 0.16                                   
 KNR07BZ  S   0   2259 45.16                                    1.06            
 KNR07    AMP     2259 43.64     1.6e+07 0.16                                   
 KNR03BZ  P   0   2259 40.20                                    -0.5            
 KNR03B1  S   0   2259 44.34                                   -0.56            
 KNR03    AMP     2259 44.66     3.0e+07 0.12                                   
 KNR04BZ  P   3   2259 40.44                                   -0.36            
 KNR04BZ  S   3   2259 45.38                                    0.28            
 KNR04    AMP     2259 48.56     5.7e+06 0.20                                   
 KNR19BZ  P   2   2259 40.48                                   -0.72            
 KNR19    AMP     2259 44.72     5.0e+05 0.12                                   
 KNR19B1  S   3   2259 45.02                                   -0.78            
 KNR19    AMP     2259 48.48     7.4e+06 0.24                                   
 KNR10BH  P   0   2259 41.80                                    -0.9            
 KNR10    AMP     2259 47.66     6.5e+06 0.12                                   
 KNR10BZ  S   0   2259 47.58                                   -0.82            
 KNR10    AMP     2259 48.08     3.3e+07 0.12                                   
 KNR09BH  P   3   2259 45.36                                    2.56            
 KNR01BH  P   3   2259 42.76                                   -0.24            
 KNR01B1  S   3   2259 48.86                                   -0.14            
 KNR01    AMP     2259 49.24     3.8e+06 0.16                                   
 KNR02BH  P   3   2259 46.36                                    3.26            
 KNR02    AMP     2259 48.08     4.4e+05 0.08                                   
 KNR02B1  S   3   2259 49.46                                    0.36            
 KNR02    AMP     2259 49.76     4.9e+06 0.24                                   
 KNR11BH  P   3   2259 47.86                                    2.56            
 KNR11    AMP     2259 49.32     2.0e+05 0.12                                   
 KNR11    AMP     2259 55.88     9.3e+05 0.24                                   
 KNR12BZ  P   3   2259 44.68                                   -0.82            
 KNR12B1  S   3   2259 52.28                                   -1.02            
 KNR12    AMP     2259 53.08     6.0e+06 0.12                                   
 KNR13BZ  P   3   2259 49.76                                    1.76            
 KNR13    AMP     2259 44.18     2.2e+05 0.20                                   
 KNR13    AMP     2259 58.86     2.1e+06 0.16                                   
 KNR14B1  S   3   2259 56.12                                   -1.68            
 KNR14    AMP     2259 56.84     2.0e+06 0.20                                   
 KNR15BH  S   4   2259 57.36                                   -4.54            
 KNR16B1  S   3   23 0  0.18                                   -1.82            
 KNR16    AMP     23 0  1.00     8.7e+05 0.16                                   
                                                                                
