 2016  910 2114 42.8 L  76.287   7.225 10.9  AWI 26 0.7 6.7LAWI                1
                                                         ID:20160910211442     I
                           2.1    13.2  5.2                                    E
 2016-09-10_21-14-42.mseed                                                     6
 STAT SP IPHASW D HRMM SECON CODA AMPLIT PERI AZIMU VELO AIN AR TRES W  DIS CAZ7
 KNR19BZ  P   0   2114 44.68                                   -0.12            
 KNR19    AMP     2114 45.64     1.5e+07 0.16                                   
 KNR19B2  S   2   2114 49.82                                    3.52            
 KNR19    AMP     2114 48.30     3.2e+07 0.12                                   
 KNR10BH  P   0   2114 45.46                                   0.060            
 KNR10    AMP     2114 46.70     2.7e+07 0.12                                   
 KNR10B1  S   0   2114 46.60                                    -0.8            
 KNR10    AMP     2114 48.66     1.2e+08 0.20                                   
 KNR09BH  P   0   2114 45.14                                   -0.46            
 KNR09B1  S   0   2114 47.54                                   -0.26            
 KNR09    AMP     2114 47.64     2.9e+08 0.12                                   
 KNR08BH  P   0   2114 46.38                                    0.18            
 KNR08    AMP     2114 48.36     2.1e+06 0.20                                   
 KNR08BZ  S   3   2114 49.94                                    1.04            
 KNR08    AMP     2114 50.18     1.2e+07 0.12                                   
 KNR07BZ  P   0   2114 46.50                                    -0.2            
 KNR07    AMP     2114 48.90     1.7e+06 0.12                                   
 KNR07B1  S   0   2114 49.86                                    0.16            
 KNR07    AMP     2114 50.08     3.2e+07 0.12                                   
 KNR23HH  P   0   2114 46.88                                   -0.12            
 KNR11BH  P   1   2114 46.96                                   -0.34            
 KNR11    AMP     2114 50.08     8.9e+05 0.16                                   
 KNR11B1  S   3   2114 50.78                                   -0.02            
 KNR11    AMP     2114 51.78     5.4e+06 0.16                                   
 KNR12BZ  P   0   2114 47.58                                    0.18            
 KNR12    AMP     2114 50.14     1.2e+06 0.12                                   
 KNR12B1  S   2   2114 52.94                                    1.94            
 KNR12    AMP     2114 53.14     1.7e+07 0.16                                   
 KNR28    P   0   2114 48.59                                    0.09            
 KNR28    S   2   2114 53.01                                    0.11            
 KNR30    P   0   2114 48.95                                    0.25            
 KNR30    S   2   2114 53.64                                    0.44            
 KNR18    P   0   2114 49.37                                    0.07            
 KNR18    S   2   2114 54.38                                    0.08            
 KNR18    AMP     2114 54.76     9.2e+06 0.16                                   
 KNR22HZ  P   2   2114 49.22                                   -0.18            
 KNR22    AMP     2114 58.34     1.1e+06 0.20                                   
 KNR13BH  P   2   2114 50.64                                    0.84            
 KNR13    AMP     2114 52.50     7.3e+05 0.12                                   
 KNR13BZ  S   2   2114 56.52                                    1.32            
 KNR13    AMP     2114 56.74     4.8e+06 0.16                                   
 KNR14BH  P   2   2114 49.86                                   -0.04            
 KNR14B1  S   2   2114 55.56                                    0.16            
 KNR14    AMP     2114 56.02     2.5e+06 0.24                                   
 KNR05BZ  P   2   2114 50.54                                   -0.16            
 KNR05    AMP     2114 57.98     2.4e+06 0.24                                   
 KNR06    AMP     2114 56.96     1.7e+07 0.16                                   
 KNR29    P   0   2114 52.22                                    0.12            
 KNR29    S   2   2114 59.41                                    0.11            
 KNR15BH  P   3   2114 51.56                                   -0.54            
 KNR17BZ  P   2   2114 51.92                                   -0.18            
 KNR17B2  S   3   2114 59.38                                    0.08            
 KNR17    AMP     2115  0.28     3.6e+06 0.24                                   
 KNR16BH  P   3   2114 51.82                                   -0.38            
 KNR16    AMP     2114 53.62     3.0e+05 0.20                                   
 KNR16BZ  S   3   2114 59.16                                   -0.34            
 KNR16    AMP     2114 59.86     2.4e+06 0.16                                   
 KNR03BZ  P   3   2114 53.16                                   -0.54            
 KNR03    AMP     2114 57.18     1.5e+05 0.16                                   
 KNR03    AMP     2115  6.64     9.2e+05 0.20                                   
 KNR04BH  P   3   2114 54.06                                    0.26            
 KNR04BZ  S   2   2115  2.28                                   0.079            
 KNR04    AMP     2115  3.38     3.5e+06 0.12                                   
 KNR01    AMP     2114 57.82     2.5e+05 0.20                                   
 KNR01    AMP     2115  8.36     7.0e+05 0.16                                   
 KNR02BZ  S   3   2115  6.62                                    0.02            
 KNR02    AMP     2115  8.22     2.9e+05 0.16                                   
                                                                                
