 2016  911  359 51.0 L  76.612   7.264  5.9  AWI 26 0.7 6.8LAWI                1
                                                         ID:20160911035951     I
                           2.1    12.8  6.2                                    E
 2016-09-11_03-59-51.mseed                                                     6
 STAT SP IPHASW D HRMM SECON CODA AMPLIT PERI AZIMU VELO AIN AR TRES W  DIS CAZ7
 KNR21    P   0    359 52.20                                    -0.2            
 KNR21    S   2    359 53.00                                    -0.6            
 KNR22HH  P   0    359 52.14                                   -0.56            
 KNR22    AMP      359 53.70     4.1e+07 0.16                                   
 KNR22H2  S   0    359 53.62                                   -0.48            
 KNR22    AMP      359 54.42     9.0e+07 0.24                                   
 KNR30    P   0    359 53.24                                    0.24            
 KNR30    S   2    359 54.93                                    0.43            
 KNR28    P   0    359 53.09                                   -0.01            
 KNR28    S   2    359 54.63                                   -0.07            
 KNR23HZ  P   0    359 53.22                                   -0.18            
 KNR23    AMP      359 53.84     2.7e+06 0.12                                   
 KNR23H1  S   0    359 55.82                                    0.52            
 KNR23    AMP      359 56.14     3.1e+07 0.16                                   
 KNR05BH  P   0    359 53.92                                    0.02            
 KNR05BH  S   3    359 56.08                                   -0.12            
 KNR05    AMP      4 0  0.44     2.5e+07 0.20                                   
 KNR20    AMP      359 58.88     5.3e+07 0.24                                   
 KNR18    P   0    359 54.47                                    0.27            
 KNR18    S   2    359 57.02                                    0.32            
 KNR18    AMP      359 58.24     2.8e+07 0.16                                   
 KNR06BZ  P   0    359 56.10                                     1.8            
 KNR06    AMP      359 56.32     1.3e+08 0.12                                   
 KNR06B2  S   0    359 57.38                                    0.48            
 KNR06    AMP      359 56.62     1.7e+08 0.12                                   
 KNR08BH  P   0    359 54.10                                    -0.6            
 KNR07BZ  P   0    359 55.14                                   -0.06            
 KNR07    AMP      359 56.58     1.1e+06 0.12                                   
 KNR07B1  S   1    359 59.34                                    0.94            
 KNR07    AMP      4 0  0.68     1.8e+07 0.16                                   
 KNR17BH  P   0    359 54.90                                    -0.3            
 KNR17    AMP      359 57.66     1.5e+06 0.20                                   
 KNR17B1  S   2    359 58.60                                     0.1            
 KNR17    AMP      359 59.04     1.9e+07 0.24                                   
 KNR29    P   0    359 55.82                                    0.22            
 KNR29    S   2    359 59.40                                     0.2            
 KNR19BZ  P   2    359 56.04                                   -0.06            
 KNR19    AMP      359 57.92     5.7e+05 0.12                                   
 KNR19B2  S   2    359 59.96                                   -0.03            
 KNR19    AMP      4 0  3.48     1.2e+07 0.28                                   
 KNR03BZ  P   0    359 56.72                                   -0.28            
 KNR03B1  S   3    4 0  1.50                                    -0.2            
 KNR03    AMP      4 0  1.70     5.2e+06 0.16                                   
 KNR04BZ  P   3    359 57.40                                     0.3            
 KNR04    AMP      4 0  0.84     5.3e+05 0.12                                   
 KNR04B1  S   0    4 0  1.58                                   -0.22            
 KNR04    AMP      4 0  4.02     1.9e+07 0.20                                   
 KNR10BH  P   2    359 56.96                                   -0.64            
 KNR10    AMP      4 0  2.56     4.0e+06 0.12                                   
 KNR10B1  S   3    4 0  2.18                                   -0.52            
 KNR10    AMP      4 0  4.72     8.4e+06 0.20                                   
 KNR09BH  P   2    359 57.32                                   -0.48            
 KNR09B1  S   3    4 0  3.02                                    0.02            
 KNR09    AMP      4 0  3.22     1.5e+07 0.16                                   
 KNR01BZ  P   2    359 59.28                                   -0.12            
 KNR01B2  S   3    4 0  2.56                                   -3.44            
 KNR01    AMP      4 0  7.16     3.5e+06 0.20                                   
 KNR02BZ  P   3    359 59.44                                   -0.06            
 KNR02    AMP      4 0  3.06     1.9e+05 0.12                                   
 KNR02BH  S   3    4 0  4.94                                   -1.16            
 KNR11    AMP      4 0  4.52     1.4e+05 0.08                                   
 KNR11    AMP      4 0 12.48     1.2e+06 0.16                                   
 KNR12BZ  P   1    359 59.64                                   -0.76            
 KNR12    AMP      4 0  4.62     5.0e+05 0.16                                   
 KNR12BZ  S   3    4 0  7.12                                   -0.58            
 KNR12    AMP      4 0  8.24     2.8e+06 0.16                                   
 KNR13    AMP      4 0  5.54     2.2e+05 0.20                                   
 KNR13BZ  S   3    4 0 13.46                                    1.26            
 KNR14    AMP      4 0 11.42     1.1e+06 0.24                                   
 KNR15BH  S   3    4 0 14.98                                   -1.42            
 KNR16B1  S   4    4 0 11.98                                   -4.52            
 KNR16    AMP      4 0 17.92     1.1e+06 0.20                                   
                                                                                
