 2016  911 1511 49.8 L  76.853   6.931 30.7  AWI 26 1.3 5.7LAWI                1
                                                         ID:20160911151150     I
                           8.7    48.6 15.5                                    E
 2016-09-11_15-11-50.mseed                                                     6
 STAT SP IPHASW D HRMM SECON CODA AMPLIT PERI AZIMU VELO AIN AR TRES W  DIS CAZ7
 KNR03BH  P   4   1511 49.44                                   -5.36            
 KNR03    AMP     1511 50.34     7.8e+06 0.08                                   
 KNR03    AMP     1511 56.14     2.8e+05 0.32                                   
 KNR17    AMP     1511 51.48     1.8e+05 0.56                                   
 KNR17    AMP     1512  3.24     5.4e+05 0.48                                   
 KNR05    AMP     1512  2.62     9.4e+05 0.28                                   
 KNR29    P   0   1511 55.58                                   -0.02            
 KNR29    S   2   1511 59.60                                    -0.5            
 KNR04    AMP     1511 51.24     1.3e+05 0.28                                   
 KNR04B1  S   3   1512  1.16                                    0.96            
 KNR04    AMP     1511 57.18     2.6e+05 0.36                                   
 KNR06    AMP     1511 58.48     1.2e+06 0.24                                   
 KNR06B1  S   3   1511 58.60                                    -1.6            
 KNR06    AMP     1511 58.28     8.9e+05 0.36                                   
 KNR22HZ  S   3   1512  3.60                                     3.6            
 KNR22    AMP     1512  4.34     9.9e+04 0.12                                   
 KNR01    AMP     1511 54.80     9.3e+04 0.44                                   
 KNR01BZ  S   3   1511 59.40                                    -1.2            
 KNR01    AMP     1511 58.46     8.6e+04 0.72                                   
 KNR18    P   0   1511 55.89                                   -0.00            
 KNR18    S   2   1512  0.13                                   -0.47            
 KNR18    AMP     1512  3.14     1.6e+05 0.72                                   
 KNR28    P   0   1511 56.40                                     0.2            
 KNR28    S   2   1512  1.03                                   -0.07            
 KNR21HZ  P   3   1511 53.50                                    -2.8            
 KNR21HZ  S   3   1512  1.48                                    0.18            
 KNR30    P   0   1511 57.00                                     0.6            
 KNR30    S   2   1512  2.09                                    0.59            
 KNR02    AMP     1511 56.54     6.9e+04 0.36                                   
 KNR02BH  S   3   1511 59.96                                   -1.94            
 KNR02    AMP     1512  3.76     9.5e+04 0.32                                   
 KNR23HZ  P   3   1511 59.28                                    2.38            
 KNR23    AMP     1511 55.26     5.4e+05 0.44                                   
 KNR23    AMP     1512  2.62     1.8e+06 0.24                                   
 KNR07    AMP     1512  0.38     6.1e+04 1.00                                   
 KNR07    AMP     1512  0.38     6.1e+04 1.00                                   
 KNR08BZ  P   3   1511 58.38                                    0.18            
 KNR08    AMP     1511 55.14     1.5e+05 0.32                                   
 KNR08B2  S   3   1512  2.20                                    -2.5            
 KNR08    AMP     1512  8.74     2.1e+05 0.20                                   
 KNR19    AMP     1512  8.50     8.7e+05 0.24                                   
 KNR09BH  S   3   1512  9.36                                    0.66            
 KNR10    AMP     1512  5.66     9.6e+04 0.24                                   
 KNR11B2  S   3   1512  9.58                                   -3.32            
 KNR11    AMP     1512 16.44     1.6e+05 0.68                                   
 KNR12    AMP     1511 58.78     1.3e+05 0.76                                   
 KNR12B2  S   3   1512 11.04                                   -2.46            
 KNR12    AMP     1512 16.24     1.1e+05 0.72                                   
 KNR13    AMP     1512  9.08     1.0e+05 0.08                                   
 KNR13    AMP     1512 14.46     1.1e+05 0.20                                   
 KNR15BH  S   3   1512 23.04                                    1.84            
 KNR16    AMP     1512  9.84     9.0e+04 0.16                                   
 KNR16BZ  S   3   1512 19.44                                   -2.16            
 KNR16    AMP     1512 23.38     9.1e+04 0.20                                   
                                                                                
