 2016  911 1511 14.1 L  75.657   5.766 30.1  AWI 26 1.4 6.2LAWI                1
                                                         ID:20160911151113     I
                          14.5    96.4 31.1                                    E
 2016-09-11_15-11-13.mseed                                                     6
 STAT SP IPHASW D HRMM SECON CODA AMPLIT PERI AZIMU VELO AIN AR TRES W  DIS CAZ7
 KNR15BH  S   3   1511 22.76                                   -3.14            
 KNR13    AMP     1511 19.22     1.1e+05 0.16                                   
 KNR13    AMP     1511 25.40     9.7e+04 0.08                                   
 KNR16    AMP     1511 24.50     9.1e+04 0.60                                   
 KNR16    AMP     1511 31.38     2.2e+05 0.44                                   
 KNR14B1  S   3   1511 34.12                                    3.22            
 KNR14    AMP     1511 34.02     6.2e+04 0.92                                   
 KNR12    AMP     1511 24.16     9.5e+04 0.60                                   
 KNR12B2  S   3   1511 34.22                                    1.62            
 KNR12    AMP     1511 35.12     3.8e+05 0.92                                   
 KNR10    AMP     1511 29.02     1.1e+05 0.24                                   
 KNR10    AMP     1511 40.78     1.7e+04 0.32                                   
 KNR19BH  S   3   1511 33.86                                   -2.24            
 KNR19    AMP     1511 37.18     8.0e+05 0.20                                   
 KNR07B2  S   3   1511 40.96                                    3.06            
 KNR07    AMP     1511 33.70     2.4e+05 0.48                                   
 KNR08BZ  P   3   1511 30.52                                    2.02            
 KNR08BH  S   3   1511 38.56                                   -1.14            
 KNR08    AMP     1511 35.00     6.7e+05 0.32                                   
 KNR23    AMP     1511 28.26     3.6e+05 0.40                                   
 KNR23    AMP     1511 42.78     3.5e+05 0.28                                   
 KNR28    P   0   1511 30.03                                    0.13            
 KNR28    S   2   1511 42.43                                    0.33            
 KNR18    P   0   1511 30.14                                    0.14            
 KNR18    S   2   1511 42.63                                    0.33            
 KNR18    AMP     1511 43.98     4.9e+04 0.24                                   
 KNR30    P   0   1511 30.99                                    0.19            
 KNR30    S   2   1511 44.12                                    0.42            
 KNR22HZ  P   3   1511 28.76                                   -2.54            
 KNR22    AMP     1511 32.96     6.2e+04 0.28                                   
 KNR22    AMP     1511 46.92     1.8e+05 0.32                                   
 KNR06B2  S   3   1511 43.82                                   -3.38            
 KNR06    AMP     1511 43.84     4.8e+06 0.08                                   
 KNR17    AMP     1511 36.54     1.6e+05 0.68                                   
 KNR17B1  S   4   1511 44.42                                   -4.38            
 KNR17    AMP     1511 46.96     2.1e+05 0.80                                   
 KNR29    P   0   1511 34.10                                     0.1            
 KNR29    S   2   1511 49.59                                    0.19            
 KNR03B2  S   3   1511 50.18                                   -0.22            
 KNR03    AMP     1511 50.44     1.2e+07 0.12                                   
 KNR04    AMP     1511 38.54     1.2e+05 0.28                                   
 KNR04    AMP     1511 50.46     1.5e+05 0.28                                   
 KNR01    AMP     1511 55.96     2.3e+05 0.60                                   
 KNR02B2  S   3   1511 54.32                                   -1.48            
 KNR02    AMP     1511 56.54     6.9e+04 0.36                                   
                                                                                
