 2016  911 1840  3.3 L  77.167   6.540 16.5  AWI 26 1.0 6.5LAWI                1
                                                         ID:20160911184003     I
                           8.5    45.0 12.4                                    E
 2016-09-11_18-40-03.mseed                                                     6
 STAT SP IPHASW D HRMM SECON CODA AMPLIT PERI AZIMU VELO AIN AR TRES W  DIS CAZ7
 KNR01BZ  P   0   1840  6.60                                    -0.1            
 KNR01    AMP     1840  8.72     6.2e+06 0.12                                   
 KNR01B2  S   3   1840  8.78                                   -0.62            
 KNR01    AMP     1840  9.16     7.3e+06 0.20                                   
 KNR03BH  P   0   1840  8.38                                   -0.12            
 KNR03    AMP     1840 11.08     1.3e+06 0.20                                   
 KNR02BZ  P   1   1840  8.34                                   -0.66            
 KNR04BZ  P   2   1840 10.30                                     0.1            
 KNR04B2  S   3   1840 14.54                                   -1.06            
 KNR04    AMP     1840 17.52     7.0e+05 0.24                                   
 KNR17BH  P   0   1840 10.50                                     0.3            
 KNR17    AMP     1840 13.62     1.1e+06 0.16                                   
 KNR05BZ  P   1   1840 11.12                                   -0.07            
 KNR05    AMP     1840 13.26     1.0e+06 0.16                                   
 KNR05BH  S   3   1840 14.30                                      -3            
 KNR05    AMP     1840 17.48     5.6e+06 0.24                                   
 KNR29    P   0   1840 11.71                                    0.31            
 KNR29    S   2   1840 18.27                                    0.57            
 KNR06BZ  P   3   1840 13.40                                     1.2            
 KNR06    AMP     1840 17.20     7.7e+05 0.12                                   
 KNR06    AMP     1840 17.04     1.7e+06 0.16                                   
 KNR22HH  P   1   1840 12.74                                    0.24            
 KNR22    AMP     1840 14.12     3.4e+05 0.12                                   
 KNR22HH  S   3   1840 17.18                                   -2.52            
 KNR22    AMP     1840 24.64     7.9e+05 0.20                                   
 KNR18    P   0   1840 13.06                                    0.36            
 KNR18    S   2   1840 20.64                                    0.74            
 KNR18    AMP     1840 19.70     1.7e+06 0.16                                   
 KNR28    P   0   1840 13.62                                    0.32            
 KNR28    S   2   1840 21.63                                    0.53            
 KNR21HZ  P   3   1840 15.22                                    1.62            
 KNR30    P   0   1840 14.00                                     0.3            
 KNR30    S   2   1840 22.30                                     0.6            
 KNR23HZ  P   1   1840 14.44                                    0.04            
 KNR23    AMP     1840 15.32     1.3e+06 0.16                                   
 KNR23    AMP     1840 24.92     2.7e+06 0.40                                   
 KNR07BZ  P   1   1840 14.40                                      -1            
 KNR07BH  S   3   1840 24.56                                   -0.24            
 KNR08BZ  P   1   1840 16.36                                    0.36            
 KNR08    AMP     1840 19.42     6.8e+05 0.16                                   
 KNR08BH  S   4   1840 30.36                                    4.66            
 KNR19BZ  P   3   1840 17.52                                    0.42            
 KNR19BH  S   3   1840 28.32                                    0.62            
 KNR09BH  P   3   1840 20.46                                    2.06            
 KNR10BH  P   0   1840 18.30                                    -0.4            
 KNR10    AMP     1840 20.70     1.3e+06 0.12                                   
 KNR11BZ  P   2   1840 19.52                                   -1.38            
 KNR11    AMP     1840 22.62     1.8e+05 0.12                                   
 KNR11B2  S   3   1840 33.66                                   -0.84            
 KNR12BH  P   2   1840 21.08                                   -0.32            
 KNR12    AMP     1840 23.76     2.8e+05 0.16                                   
 KNR12B2  S   4   1840 30.74                                   -4.66            
 KNR12    AMP     1840 30.74     3.0e+05 0.20                                   
 KNR13BH  P   3   1840 22.88                                   -0.62            
 KNR13    AMP     1840 36.44     8.7e+05 0.24                                   
 KNR14BH  P   3   1840 22.36                                   -1.54            
 KNR14B2  S   3   1840 36.88                                   -2.92            
 KNR15BH  P   3   1840 28.20                                     2.4            
 KNR16BH  P   3   1840 29.08                                    2.88            
 KNR16    AMP     1840 29.70     1.2e+05 0.20                                   
 KNR16BH  S   3   1840 40.28                                   -3.52            
 KNR16    AMP     1840 41.22     2.5e+05 0.44                                   
                                                                                
