 2016  912  5 6 19.7 L  75.786   7.695 15.0  AWI 26 0.6 7.5LAWI                1
                                                         ID:20160912050620     I
                           3.4    16.8  4.4                                    E
 2016-09-12_05-06-20.mseed                                                     6
 STAT SP IPHASW D HRMM SECON CODA AMPLIT PERI AZIMU VELO AIN AR TRES W  DIS CAZ7
 KNR16    P   0    5 6 22.56                                    0.26            
 KNR16    S   2    5 6 24.30                                    -0.1            
 KNR14BH  P   0    5 6 23.08                                    0.18            
 KNR14B2  S   0    5 6 24.38                                   -1.02            
 KNR14    AMP      5 6 28.04     3.6e+08 0.16                                   
 KNR15BH  P   0    5 6 23.28                                   -0.52            
 KNR15BH  S   3    5 6 26.60                                    -0.4            
 KNR13BH  P   0    5 6 25.08                                    0.68            
 KNR13B2  S   0    5 6 28.44                                    0.34            
 KNR13    AMP      5 6 30.66     4.1e+08 0.20                                   
 KNR12BZ  P   0    5 6 25.32                                    0.32            
 KNR12B2  S   2    5 6 30.30                                     1.2            
 KNR12    AMP      5 6 32.12     1.1e+08 0.20                                   
 KNR11BZ  P   0    5 6 25.90                                    -0.2            
 KNR11    AMP      5 6 31.04     1.4e+07 0.12                                   
 KNR11B2  S   0    5 6 31.04                                   -0.06            
 KNR11    AMP      5 6 32.10     8.9e+07 0.20                                   
 KNR10BZ  P   0    5 6 28.06                                    0.36            
 KNR10    AMP      5 6 30.62     1.3e+07 0.16                                   
 KNR10B2  S   1    5 6 34.66                                    0.76            
 KNR10    AMP      5 6 36.54     1.8e+08 0.24                                   
 KNR09BH  P   0    5 6 28.18                                   -0.22            
 KNR09B2  S   3    5 6 35.04                                   -0.06            
 KNR09    AMP      5 6 38.52     6.4e+07 0.20                                   
 KNR19BZ  P   0    5 6 29.34                                    0.34            
 KNR19    AMP      5 6 32.00     1.3e+06 0.12                                   
 KNR19B1  S   3    5 6 40.06                                    3.76            
 KNR19    AMP      5 6 40.86     1.7e+07 0.24                                   
 KNR08BZ  P   0    5 6 30.68                                    0.18            
 KNR08B2  S   1    5 6 39.30                                     0.4            
 KNR08    AMP      5 6 43.48     2.3e+07 0.20                                   
 KNR07BZ  P   0    5 6 30.80                                    -0.4            
 KNR07    AMP      5 6 33.06     1.2e+06 0.12                                   
 KNR07B2  S   3    5 6 39.60                                    -0.4            
 KNR07    AMP      5 6 43.78     1.7e+07 0.24                                   
 KNR23HZ  P   0    5 6 31.50                                    -0.2            
 KNR23    AMP      5 6 35.40     1.5e+06 0.12                                   
 KNR23H1  S   3    5 6 41.08                                    0.08            
 KNR23    AMP      5 6 42.44     4.4e+06 0.20                                   
 KNR30    P   0    5 6 33.34                                    0.34            
 KNR30    S   2    5 6 43.18                                   -0.22            
 KNR28    P   0    5 6 33.29                                    0.09            
 KNR28    S   2    5 6 43.10                                    -0.6            
 KNR18    P   0    5 6 33.98                                   -0.02            
 KNR18    S   2    5 6 44.31                                   -0.69            
 KNR18    AMP      5 6 45.80     7.3e+06 0.16                                   
 KNR22HH  P   2    5 6 33.68                                   -0.22            
 KNR22H1  S   2    5 6 43.36                                   -1.54            
 KNR22    AMP      5 6 47.36     5.7e+06 0.20                                   
 KNR06BZ  P   3    5 6 37.62                                    2.62            
 KNR06    AMP      5 6 39.44     3.3e+06 0.16                                   
 KNR06    AMP      5 6 50.80     1.3e+07 0.16                                   
 KNR05BZ  P   2    5 6 35.50                                     0.1            
 KNR05    AMP      5 6 37.58     4.2e+05 0.16                                   
 KNR05B1  S   3    5 6 47.32                                   -0.07            
 KNR05    AMP      5 6 48.12     7.9e+06 0.20                                   
 KNR29    P   0    5 6 36.47                                    0.17            
 KNR29    S   2    5 6 48.67                                   -0.53            
 KNR17BZ  P   2    5 6 36.30                                    -0.3            
 KNR17    AMP      5 6 39.80     5.3e+05 0.12                                   
 KNR17B2  S   3    5 6 48.48                                   -1.12            
 KNR17    AMP      5 6 53.56     1.2e+07 0.28                                   
 KNR04BH  P   3    5 6 38.22                                    0.22            
 KNR04    AMP      5 6 53.30     4.5e+06 0.24                                   
 KNR03BZ  P   3    5 6 36.74                                   -1.66            
 KNR03    AMP      5 6 53.72     1.7e+06 0.24                                   
 KNR02BZ  P   3    5 6 40.82                                    0.32            
 KNR02BH  S   4    5 6 51.78                                   -4.72            
 KNR01BZ  P   3    5 6 40.56                                   -0.24            
 KNR01    AMP      5 6 45.68     2.9e+05 0.16                                   
 KNR01    AMP      5 6 57.16     2.8e+06 0.24                                   
                                                                                
