 2016  914 1734 20.4 L  77.218   7.869 15.5  AWI 26 0.9 7.2LAWI                1
                                                         ID:20160914173418     I
                           6.4    33.8  6.6                                    E
 2016-09-14_17-34-18.mseed                                                     6
 STAT SP IPHASW D HRMM SECON CODA AMPLIT PERI AZIMU VELO AIN AR TRES W  DIS CAZ7
 KNR02BZ  P   0   1734 23.90                                     0.2            
 KNR02B2  S   0   1734 26.28                                   -0.02            
 KNR02    AMP     1734 27.26     7.1e+08 0.28                                   
 KNR01BH  P   0   1734 25.30                                     0.2            
 KNR01    AMP     1734 27.80     2.0e+07 0.12                                   
 KNR01B2  S   2   1734 28.60                                    -0.1            
 KNR01    AMP     1734 29.06     1.2e+08 0.12                                   
 KNR04BZ  P   0   1734 26.18                                    0.18            
 KNR04B2  S   0   1734 30.02                                   -0.28            
 KNR04    AMP     1734 30.38     7.6e+07 0.24                                   
 KNR03BZ  P   0   1734 27.04                                   -0.26            
 KNR03    AMP     1734 32.20     1.7e+07 0.12                                   
 KNR03B2  S   2   1734 31.62                                   -1.08            
 KNR03    AMP     1734 31.98     3.5e+07 0.16                                   
 KNR17BZ  P   0   1734 27.30                                       0            
 KNR17    AMP     1734 32.26     1.2e+07 0.16                                   
 KNR17B1  S   2   1734 31.90                                    -0.7            
 KNR17    AMP     1734 34.26     5.8e+07 0.24                                   
 KNR29    P   0   1734 27.66                                    0.06            
 KNR29    S   2   1734 34.85                                    1.65            
 KNR06    AMP     1734 31.94     2.4e+07 0.16                                   
 KNR06B1  S   3   1734 34.38                                   -1.12            
 KNR06    AMP     1734 34.62     7.0e+07 0.12                                   
 KNR05BZ  P   0   1734 29.26                                   -0.04            
 KNR05B1  S   3   1734 35.74                                   -0.46            
 KNR05    AMP     1734 37.10     1.1e+07 0.16                                   
 KNR22HZ  P   0   1734 29.76                                   -0.14            
 KNR22H2  S   3   1734 35.88                                   -1.32            
 KNR22    AMP     1734 39.10     7.6e+06 0.28                                   
 KNR30    P   0   1734 30.86                                   -0.03            
 KNR30    S   2   1734 40.46                                    1.56            
 KNR28    P   0   1734 31.63                                   0.029            
 KNR28    S   2   1734 41.81                                    1.61            
 KNR18    P   0   1734 31.69                                    0.19            
 KNR18    S   2   1734 41.91                                    1.81            
 KNR18    AMP     1734 43.76     3.0e+06 0.20                                   
 KNR23HH  P   2   1734 32.30                                    -0.1            
 KNR08BH  P   3   1734 32.98                                   -0.42            
 KNR08    AMP     1734 42.66     6.1e+06 0.12                                   
 KNR07BZ  P   3   1734 34.38                                    0.38            
 KNR07    AMP     1734 44.34     1.4e+06 0.20                                   
 KNR19    AMP     1734 38.92     2.1e+05 0.28                                   
 KNR19    AMP     1734 51.06     1.3e+06 0.32                                   
 KNR10BH  P   2   1734 35.88                                   -0.32            
 KNR10    AMP     1734 38.28     1.0e+06 0.16                                   
 KNR10B1  S   3   1734 46.64                                   -1.76            
 KNR10    AMP     1734 47.88     2.0e+05 0.12                                   
 KNR09B1  S   3   1734 47.00                                    -2.2            
 KNR09    AMP     1734 49.36     1.3e+06 0.16                                   
 KNR12BZ  P   3   1734 38.66                                   -0.34            
 KNR12BZ  S   3   1734 49.96                                   -3.34            
 KNR12    AMP     1734 52.38     3.1e+06 0.16                                   
 KNR11BH  S   3   1734 55.00                                     1.4            
 KNR14    AMP     1734 58.72     2.0e+05 0.20                                   
 KNR13BZ  S   3   1734 55.00                                    -3.1            
 KNR13    AMP     1734 59.22     3.9e+05 0.20                                   
 KNR16    AMP     1734 42.90     1.1e+05 0.20                                   
 KNR16    AMP     1735  1.80     2.5e+05 0.24                                   
                                                                                
