 2016  915 1617 27.2 L  77.218   7.770 17.7  AWI 26 0.8 7.5LAWI                1
                                                         ID:20160915161725     I
                           6.7    27.9  7.4                                    E
 2016-09-15_16-17-25.mseed                                                     6
 STAT SP IPHASW D HRMM SECON CODA AMPLIT PERI AZIMU VELO AIN AR TRES W  DIS CAZ7
 KNR02    P   0   1617 30.61                                   -0.19            
 KNR02    S   2   1617 34.79                                    1.29            
 KNR02    AMP     1617 33.96     1.0e+09 0.28                                   
 KNR01BH  P   0   1617 32.18                                    0.38            
 KNR01B1  S   0   1617 35.44                                    0.04            
 KNR01    AMP     1617 35.86     1.0e+08 0.20                                   
 KNR04BZ  P   0   1617 33.02                                    0.12            
 KNR04    AMP     1617 36.20     7.2e+06 0.12                                   
 KNR04B1  S   0   1617 36.86                                   -0.44            
 KNR04    AMP     1617 37.34     1.1e+08 0.20                                   
 KNR03BH  P   0   1617 33.90                                    -0.1            
 KNR03    AMP     1617 38.62     1.5e+07 0.16                                   
 KNR03B1  S   1   1617 38.14                                   -1.16            
 KNR03    AMP     1617 39.40     7.2e+07 0.16                                   
 KNR17BH  P   0   1617 34.12                                    0.02            
 KNR17    AMP     1617 39.10     1.2e+07 0.20                                   
 KNR17B1  S   2   1617 38.68                                   -0.82            
 KNR17    AMP     1617 41.80     6.8e+07 0.24                                   
 KNR29    P   0   1617 34.54                                    0.04            
 KNR29    S   2   1617 41.73                                    1.63            
 KNR06B2  S   2   1617 41.28                                   -1.02            
 KNR06    AMP     1617 41.62     1.0e+08 0.16                                   
 KNR05BZ  P   0   1617 36.00                                       0            
 KNR05    AMP     1617 40.66     3.4e+06 0.12                                   
 KNR05B2  S   3   1617 40.66                                   -2.24            
 KNR05    AMP     1617 43.92     1.5e+07 0.20                                   
 KNR22HH  P   0   1617 36.60                                    -0.1            
 KNR22    AMP     1617 45.32     2.5e+07 0.24                                   
 KNR30    P   0   1617 37.74                                    0.04            
 KNR30    S   2   1617 47.34                                    1.64            
 KNR21    AMP     1617 34.42     2.2e+09 0.28                                   
 KNR21    AMP     1617 45.18     2.8e+09 0.24                                   
 KNR18    P   0   1617 38.57                                    0.37            
 KNR18    S   2   1617 48.79                                    2.09            
 KNR18    AMP     1617 46.90     3.3e+06 0.12                                   
 KNR28    P   0   1617 38.51                                    0.21            
 KNR28    S   2   1617 48.69                                    1.79            
 KNR20    AMP     1617 36.08     3.5e+07 0.20                                   
 KNR20    AMP     1617 49.72     4.5e+07 0.24                                   
 KNR23HH  P   2   1617 39.10                                    -0.1            
 KNR08BZ  P   1   1617 39.92                                   -0.28            
 KNR08    AMP     1617 42.76     9.8e+05 0.12                                   
 KNR08BZ  S   3   1617 49.00                                    -1.2            
 KNR08    AMP     1617 49.70     5.3e+06 0.12                                   
 KNR07BZ  P   3   1617 40.46                                   -0.14            
 KNR07    AMP     1617 42.20     4.8e+05 0.16                                   
 KNR07B1  S   3   1617 51.54                                    0.54            
 KNR07    AMP     1617 52.26     2.8e+06 0.20                                   
 KNR19BZ  P   3   1617 42.80                                     1.1            
 KNR19    AMP     1617 44.64     3.3e+05 0.16                                   
 KNR19    AMP     1617 55.44     2.0e+06 0.28                                   
 KNR10BH  P   1   1617 42.68                                   -0.32            
 KNR10    AMP     1617 45.12     1.2e+06 0.16                                   
 KNR10    AMP     1617 57.78     2.7e+06 0.16                                   
 KNR09BH  P   3   1617 43.18                                   -0.22            
 KNR12BZ  P   2   1617 45.24                                   -0.46            
 KNR12    AMP     1617 59.44     3.6e+06 0.16                                   
 KNR11BH  S   3   1617 58.72                                   -1.48            
 KNR14    AMP     1618  7.82     2.8e+05 0.16                                   
 KNR13BH  S   3   1618  2.70                                      -2            
 KNR16    AMP     1617 54.60     1.2e+05 0.12                                   
 KNR16BH  S   3   1618  9.82                                    1.52            
 KNR16    AMP     1618  9.44     9.2e+05 0.16                                   
                                                                                
