 2016  916  714  2.0 L  76.876   7.352  7.3  AWI 26 0.5 7.3LAWI                1
                                                         ID:20160916071402     I
                           1.3     8.0  4.6                                    E
 2016-09-16_07-14-02.mseed                                                     6
 STAT SP IPHASW D HRMM SECON CODA AMPLIT PERI AZIMU VELO AIN AR TRES W  DIS CAZ7
 KNR17    P   0    714  3.31                                   -0.29            
 KNR17    S   2    714  4.17                                   -0.73            
 KNR04    P   0    714  4.97                                    0.17            
 KNR04    S   2    714  7.16                                    0.16            
 KNR04    AMP      714  7.18     4.2e+08 0.20                                   
 KNR03BZ  P   0    714  5.00                                       0            
 KNR03BH  S   0    714  7.12                                   -0.18            
 KNR03    AMP      714  9.78     3.2e+08 0.16                                   
 KNR29    P   0    714  5.13                                    0.23            
 KNR29    S   2    714  7.41                                    0.31            
 KNR05BZ  P   0    714  5.34                                    0.04            
 KNR05    AMP      714  6.98     5.4e+06 0.12                                   
 KNR05B2  S   0    714  8.20                                     0.4            
 KNR05    AMP      714 12.46     1.6e+08 0.28                                   
 KNR06BZ  P   3    714  8.24                                    2.74            
 KNR06    AMP      714  6.54     1.0e+08 0.16                                   
 KNR06B1  S   3    714  9.58                                    1.38            
 KNR06    AMP      714  9.02     4.0e+08 0.12                                   
 KNR22    P   0    714  6.46                                    0.46            
 KNR22    S   2    714  9.74                                    0.54            
 KNR22    AMP      714  9.56     5.7e+07 0.24                                   
 KNR01    P   0    714  6.84                                    0.34            
 KNR01    S   2    714 10.41                                    0.41            
 KNR01    AMP      714 11.10     2.5e+08 0.20                                   
 KNR02BZ  P   0    714  6.26                                   -0.24            
 KNR02    AMP      714  9.26     3.2e+06 0.24                                   
 KNR02B1  S   0    714 10.18                                   0.079            
 KNR02    AMP      714 10.72     4.7e+07 0.24                                   
 KNR30    P   0    714  7.43                                    0.23            
 KNR30    S   2    714 11.45                                    0.25            
 KNR21    P   0    714  7.67                                    0.27            
 KNR21    S   2    714 11.87                                    0.27            
 KNR28    P   0    714  7.80                                     0.2            
 KNR28    S   2    714 12.10                                     0.2            
 KNR18    P   0    714  7.93                                    0.33            
 KNR18    S   2    714 12.33                                    0.33            
 KNR18    AMP      714 13.42     2.5e+07 0.16                                   
 KNR20    AMP      714  7.70     8.8e+06 0.28                                   
 KNR20H1  S   2    714 12.78                                   -0.02            
 KNR20    AMP      714 13.24     7.6e+07 0.16                                   
 KNR23HZ  P   0    714  8.38                                   -0.12            
 KNR23    AMP      714 11.74     3.3e+06 0.12                                   
 KNR23H2  S   3    714 13.86                                    0.36            
 KNR23    AMP      714 15.14     3.5e+07 0.20                                   
 KNR08BZ  P   0    714  9.28                                   -0.42            
 KNR08    AMP      714 14.62     2.8e+06 0.08                                   
 KNR08B2  S   2    714 15.34                                   -0.36            
 KNR08    AMP      714 16.26     1.4e+07 0.24                                   
 KNR07BZ  P   0    714  9.98                                   -0.02            
 KNR07    AMP      714 14.30     1.8e+06 0.16                                   
 KNR07B1  S   2    714 16.40                                     0.2            
 KNR07    AMP      714 16.76     1.6e+07 0.20                                   
 KNR19BZ  P   3    714 11.22                                   0.020            
 KNR19    AMP      714 13.20     5.0e+05 0.20                                   
 KNR19B2  S   3    714 18.62                                    0.32            
 KNR19    AMP      714 21.96     7.1e+06 0.24                                   
 KNR10BH  P   0    714 12.12                                   -0.48            
 KNR10    AMP      714 13.86     5.2e+06 0.20                                   
 KNR10B2  S   3    714 20.40                                    -0.4            
 KNR10    AMP      714 23.00     1.3e+07 0.12                                   
 KNR09BH  P   3    714 12.70                                    -0.1            
 KNR09    AMP      714 24.74     6.3e+06 0.16                                   
 KNR12BZ  P   0    714 14.92                                   -0.58            
 KNR12    AMP      714 17.46     8.1e+05 0.16                                   
 KNR12B2  S   2    714 25.38                                   -0.52            
 KNR12    AMP      714 25.92     1.1e+07 0.16                                   
 KNR14BH  S   3    714 32.60                                     2.2            
 KNR13BH  S   3    714 29.64                                   -0.76            
 KNR16BZ  P   3    714 21.42                                    1.02            
 KNR16    AMP      714 23.92     1.6e+05 0.16                                   
 KNR16    AMP      714 35.38     2.4e+06 0.16                                   
 KNR15BH  S   4    714 29.18                                   -5.42            
                                                                                
