 2016  916 2026 58.3 L  76.290   7.368  6.0  AWI 26 0.6 6.9LAWI                1
                                                         ID:20160916202658     I
                           1.4    10.1  8.3                                    E
 2016-09-16_20-26-58.mseed                                                     6
 STAT SP IPHASW D HRMM SECON CODA AMPLIT PERI AZIMU VELO AIN AR TRES W  DIS CAZ7
 KNR10    P   0   2026 59.96                                   -0.14            
 KNR10    AMP     2027  0.96     5.4e+07 0.08                                   
 KNR10    S   2   2027  1.32                                   -0.28            
 KNR10    AMP     2027  3.88     4.0e+08 0.20                                   
 KNR19    P   0   2026 59.87                                   -0.13            
 KNR19    AMP     2027  0.50     2.6e+07 0.08                                   
 KNR19    S   2   2027  1.16                                   -0.14            
 KNR19    AMP     2027  3.56     4.0e+08 0.20                                   
 KNR09    P   0   2027  1.21                                   -0.09            
 KNR09    S   2   2027  3.53                                   -0.07            
 KNR09    AMP     2027  4.38     4.3e+08 0.20                                   
 KNR08BH  P   0   2027  1.90                                     0.6            
 KNR08BZ  S   2   2027  5.48                                    1.88            
 KNR08    AMP     2027  6.46     1.4e+07 0.20                                   
 KNR07BZ  P   0   2027  2.40                                     0.1            
 KNR07    AMP     2027  4.52     5.2e+06 0.12                                   
 KNR07B2  S   0   2027  5.80                                     0.3            
 KNR07    AMP     2027  6.52     2.9e+07 0.20                                   
 KNR23HH  P   0   2027  2.48                                   0.079            
 KNR23H1  S   3   2027  4.98                                   -0.62            
 KNR23    AMP     2027  6.50     1.4e+07 0.20                                   
 KNR12BH  P   0   2027  3.10                                     0.4            
 KNR12    AMP     2027  5.36     3.9e+06 0.40                                   
 KNR12BZ  S   2   2027  4.92                                   -1.18            
 KNR12    AMP     2027  9.98     1.6e+07 0.16                                   
 KNR11BZ  P   1   2027  2.82                                   -0.08            
 KNR11B2  S   1   2027  6.74                                    0.14            
 KNR11    AMP     2027  9.64     9.1e+06 0.16                                   
 KNR20HZ  P   3   2027  2.96                                   -0.54            
 KNR20    AMP     2027  4.46     2.9e+06 0.20                                   
 KNR21HZ  S   3   2027 10.68                                    2.98            
 KNR30    P   0   2027  4.00                                     0.1            
 KNR30    S   2   2027  8.46                                    0.16            
 KNR28    P   0   2027  3.94                                   -0.06            
 KNR28    S   2   2027  8.34                                   -0.06            
 KNR22HH  P   2   2027  4.80                                     0.1            
 KNR22H1  S   1   2027  9.04                                   -0.66            
 KNR22    AMP     2027  9.84     3.5e+06 0.20                                   
 KNR18    P   0   2027  4.84                                   -0.06            
 KNR18    S   2   2027  9.94                                   -0.16            
 KNR18    AMP     2027 10.70     1.8e+07 0.16                                   
 KNR14BH  P   0   2027  5.50                                     0.2            
 KNR14B2  S   2   2027 11.36                                    0.66            
 KNR14    AMP     2027 12.02     6.9e+06 0.24                                   
 KNR13BH  P   2   2027  6.68                                    1.28            
 KNR06    AMP     2027 14.26     5.7e+07 0.16                                   
 KNR05BZ  P   2   2027  6.34                                    0.14            
 KNR05    AMP     2027  7.98     5.0e+05 0.12                                   
 KNR05B2  S   2   2027 12.00                                    -0.2            
 KNR05    AMP     2027 14.38     8.4e+06 0.24                                   
 KNR29    P   0   2027  7.27                                   -0.13            
 KNR29    S   2   2027 14.23                                   -0.27            
 KNR17BZ  P   2   2027  7.44                                   -0.06            
 KNR17    AMP     2027 10.32     4.5e+05 0.12                                   
 KNR17B1  S   2   2027 14.38                                   -0.22            
 KNR17    AMP     2027 14.96     9.2e+06 0.24                                   
 KNR16BH  P   3   2027  7.58                                   -0.12            
 KNR16    AMP     2027  9.90     4.2e+05 0.12                                   
 KNR16B2  S   3   2027 13.14                                   -1.76            
 KNR16    AMP     2027 18.14     5.2e+06 0.20                                   
 KNR04BZ  P   3   2027  9.56                                    0.36            
 KNR04    AMP     2027 13.52     1.7e+05 0.12                                   
 KNR04B1  S   3   2027 17.22                                   -0.28            
 KNR04    AMP     2027 18.76     3.8e+06 0.12                                   
 KNR03BZ  P   3   2027  9.12                                   -0.18            
 KNR03    AMP     2027 11.70     1.3e+05 0.12                                   
 KNR03BH  S   4   2027 13.62                                   -4.18            
 KNR03    AMP     2027 17.44     3.6e+06 0.16                                   
 KNR02BZ  P   3   2027 11.74                                   0.039            
 KNR02    AMP     2027 14.46     1.4e+05 0.28                                   
 KNR01    AMP     2027 15.92     2.2e+05 0.20                                   
                                                                                
