 2016  8 3 1611 53.3 L  75.436  11.105 41.4  AWI 26 0.2 6.8LAWI                1
                                                         ID:20160803161153     I
                           3.1    18.9 38.8                                    E
 2016-08-03_16-11-53.mseed                                                     6
 STAT SP IPHASW D HRMM SECON CODA AMPLIT PERI AZIMU VELO AIN AR TRES W  DIS CAZ7
 KNR14    AMP     1612 21.18     8.2e+04 0.28                                   
 KNR12    AMP     1612 11.72     5.2e+04 0.28                                   
 KNR12    AMP     1612 27.76     1.6e+05 0.36                                   
 KNR13    AMP     1612  9.38     4.9e+04 0.24                                   
 KNR13B2  S   3   1612 27.24                                    1.34            
 KNR13    AMP     1612 22.02     1.5e+05 0.36                                   
 KNR10    P   0   1612 12.18                                   -0.02            
 KNR10    S   2   1612 26.76                                   -0.04            
 KNR19    P   0   1612 14.00                                     0.2            
 KNR19    S   2   1612 29.95                                    0.25            
 KNR08    P   0   1612 14.18                                    0.08            
 KNR08    S   2   1612 30.27                                    0.07            
 KNR09    P   0   1612 14.08                                   -0.02            
 KNR09    S   2   1612 30.09                                   -0.11            
 KNR20    P   0   1612 14.84                                   0.039            
 KNR20    S   2   1612 31.42                                    0.12            
 KNR23    P   0   1612 15.85                                    0.15            
 KNR23    S   2   1612 33.21                                    0.31            
 KNR30    P   0   1612 15.82                                    0.12            
 KNR30    S   2   1612 33.15                                    0.15            
 KNR07    P   0   1612 16.05                                    0.05            
 KNR07    S   2   1612 33.56                                    0.06            
 KNR21    P   0   1612 16.26                                   0.060            
 KNR21    S   2   1612 33.93                                    0.13            
 KNR22    P   0   1612 16.78                                    0.18            
 KNR22    S   2   1612 34.84                                    0.34            
 KNR06    P   0   1612 17.03                                    0.13            
 KNR06    S   2   1612 35.27                                    0.07            
 KNR28    P   0   1612 17.03                                   0.029            
 KNR28    S   2   1612 35.28                                   -0.02            
 KNR29    P   0   1612 17.83                                    0.13            
 KNR29    S   2   1612 36.68                                    0.08            
 KNR18    P   0   1612 18.16                                   0.060            
 KNR18    S   2   1612 37.26                                    0.06            
 KNR05    P   0   1612 18.43                                   0.029            
 KNR05    S   2   1612 37.74                                    0.04            
 KNR17    P   0   1612 18.83                                    0.23            
 KNR17    S   2   1612 38.43                                    0.33            
 KNR04    P   0   1612 19.21                                    0.11            
 KNR04    S   2   1612 39.10                                     0.1            
 KNR03    P   0   1612 20.96                                   -0.04            
 KNR03    S   2   1612 42.18                                   -0.12            
 KNR03    AMP     1612 41.58     1.5e+08 0.16                                   
 KNR02BZ  S   3   1612 40.70                                    -1.9            
 KNR02    AMP     1612 40.72     1.3e+05 0.12                                   
 KNR01    P   0   1612 22.74                                    0.14            
 KNR01    AMP     1612 26.24     1.6e+05 0.16                                   
 KNR01    S   2   1612 45.30                                     0.2            
 KNR01    AMP     1612 44.68     1.5e+08 0.20                                   
                                                                                
