 2017  3 1  425 15.2 L  76.374   7.003  9.5  AWI 26 1.0 6.7LAWI                1
                                                         ID:20170301042515     I
                           3.5    23.4 10.6                                    E
 2017-03-01_04-25-15.mseed                                                     6
 STAT SP IPHASW D HRMM SECON CODA AMPLIT PERI AZIMU VELO AIN AR TRES W  DIS CAZ7
 KNR19    P   0    425 17.05                                   -0.05            
 KNR19    S   2    425 18.25                                   -0.35            
 KNR07BH  P   0    425 17.68                                   0.079            
 KNR07    AMP      425 19.10     4.3e+06 0.24                                   
 KNR07BZ  S   0    425 20.42                                    0.92            
 KNR07    AMP      425 20.48     3.5e+07 0.12                                   
 KNR08BH  P   0    425 18.48                                    0.38            
 KNR08    AMP      425 19.94     4.6e+06 0.08                                   
 KNR08B2  S   0    425 19.90                                    -0.5            
 KNR08    AMP      425 21.76     4.4e+07 0.20                                   
 KNR23HZ  P   0    425 15.30                                    -2.8            
 KNR23    AMP      425 18.36     9.1e+06 0.12                                   
 KNR23    AMP      425 18.56     1.9e+07 0.16                                   
 KNR09BH  P   2    425 18.12                                   -0.18            
 KNR09B1  S   3    425 20.80                                     0.1            
 KNR09    AMP      425 23.18     2.6e+07 0.20                                   
 KNR10BH  P   0    425 19.08                                    0.18            
 KNR10    AMP      425 21.14     4.9e+06 0.12                                   
 KNR10B2  S   0    425 22.38                                    0.58            
 KNR10    AMP      425 22.84     6.2e+07 0.20                                   
 KNR28HZ  P   0    425 19.46                                    0.06            
 KNR28    AMP      425 20.88     2.0e+06 0.16                                   
 KNR28HZ  S   0    425 22.88                                    0.18            
 KNR28    AMP      425 23.14     3.4e+07 0.20                                   
 KNR21HZ  P   0    425 17.78                                   -1.62            
 KNR21    AMP      425 21.48     2.3e+08 0.12                                   
 KNR21H1  S   1    425 21.38                                   -1.22            
 KNR21    AMP      425 22.76     4.1e+08 0.16                                   
 KNR20HZ  P   0    425 19.82                                   -0.28            
 KNR20    AMP      425 20.06     3.0e+05 0.12                                   
 KNR20H1  S   3    425 24.12                                    0.22            
 KNR20    AMP      425 24.08     5.4e+06 0.16                                   
 KNR18    P   0    425 20.45                                    0.35            
 KNR18    S   2    425 24.27                                    0.37            
 KNR18    AMP      425 25.16     1.3e+07 0.12                                   
 KNR30HZ  P   0    425 23.38                                    3.28            
 KNR30    AMP      425 22.74     1.4e+06 0.16                                   
 KNR30HZ  S   3    425 25.38                                    1.48            
 KNR30    AMP      425 24.66     1.1e+07 0.16                                   
 KNR11BZ  P   3    425 20.32                                   -0.38            
 KNR11    AMP      425 28.34     5.7e+05 0.08                                   
 KNR22HH  P   1    425 20.38                                   -0.32            
 KNR22H1  S   3    425 24.76                                   -0.14            
 KNR22    AMP      425 26.30     2.6e+06 0.24                                   
 KNR12BH  P   1    425 21.30                                       0            
 KNR12    AMP      425 24.12     4.9e+05 0.32                                   
 KNR12B1  S   3    425 26.54                                    0.44            
 KNR12    AMP      425 27.50     5.5e+06 0.24                                   
 KNR05BH  P   2    425 22.10                                     0.4            
 KNR05B2  S   3    425 25.36                                   -1.34            
 KNR05    AMP      425 28.28     1.8e+07 0.28                                   
 KNR06BZ  P   0    425 22.38                                    0.18            
 KNR06    AMP      425 24.02     8.4e+05 0.08                                   
 KNR06B1  S   3    425 27.66                                    0.06            
 KNR06    AMP      425 29.40     1.2e+07 0.12                                   
 KNR17BZ  P   1    425 23.36                                    0.06            
 KNR17    AMP      425 27.82     2.8e+05 0.20                                   
 KNR17B2  S   0    425 29.94                                    0.44            
 KNR17    AMP      425 30.38     1.4e+07 0.24                                   
 KNR13    AMP      425 28.34     6.3e+04 0.24                                   
 KNR13B2  S   4    425 34.34                                    4.64            
 KNR13    AMP      425 34.64     1.7e+06 0.24                                   
 KNR29HZ  P   2    425 23.64                                    0.14            
 KNR29    AMP      425 27.48     6.9e+05 0.28                                   
 KNR29HZ  S   3    425 29.78                                   -0.12            
 KNR29    AMP      425 31.84     2.9e+06 0.12                                   
 KNR14BH  P   2    425 23.28                                   -0.52            
 KNR14B1  S   3    425 29.76                                   -0.64            
 KNR14    AMP      425 30.76     1.5e+06 0.20                                   
 KNR03BZ  P   3    425 24.68                                   -0.02            
 KNR03BH  S   3    425 30.00                                      -2            
 KNR03    AMP      425 35.26     9.5e+05 0.20                                   
 KNR04BZ  P   2    425 25.76                                    0.66            
 KNR04    AMP      425 27.66     1.7e+05 0.12                                   
 KNR04B1  S   3    425 32.80                                       0            
 KNR04    AMP      425 33.98     2.9e+06 0.20                                   
 KNR15    P   0    425 25.75                                   -0.05            
 KNR15    S   2    425 33.60                                    -0.4            
 KNR01    AMP      425 30.42     1.1e+05 0.12                                   
 KNR01B1  S   3    425 36.64                                    0.04            
 KNR01    AMP      425 37.40     8.2e+05 0.12                                   
 KNR02BH  S   3    425 34.76                                   -2.24            
                                                                                
