 2017  3 1 14 7  3.9 L  76.739   8.567 18.0  AWI 26 1.0 6.5LAWI                1
                                                         ID:20170301140704     I
                           5.0    47.8 15.5                                    E
 2017-03-01_14-07-04.mseed                                                     6
 STAT SP IPHASW D HRMM SECON CODA AMPLIT PERI AZIMU VELO AIN AR TRES W  DIS CAZ7
 KNR29HZ  P   3   14 7  8.54                                    0.44            
 KNR29    AMP     14 7  9.88     2.8e+06 0.12                                   
 KNR29HZ  S   3   14 7 11.84                                    0.44            
 KNR29    AMP     14 7 13.20     6.5e+06 0.16                                   
 KNR06BH  P   0   14 7  8.56                                    0.26            
 KNR06    AMP     14 7  9.86     1.5e+06 0.08                                   
 KNR06B2  S   3   14 7 12.38                                    0.68            
 KNR06    AMP     14 7 13.46     8.7e+06 0.12                                   
 KNR04BZ  P   0   14 7  9.06                                    0.06            
 KNR04    AMP     14 7  9.12     2.0e+06 0.08                                   
 KNR04B1  S   3   14 7 13.50                                     0.5            
 KNR04    AMP     14 7 13.74     5.8e+06 0.24                                   
 KNR20HZ  P   0   14 7  9.22                                    0.12            
 KNR20    AMP     14 7  9.58     1.8e+05 0.20                                   
 KNR20H1  S   3   14 7 14.20                                     1.1            
 KNR20    AMP     14 7 15.24     5.7e+06 0.16                                   
 KNR30HZ  P   0   14 7  8.86                                   -0.34            
 KNR30    AMP     14 7  9.96     2.9e+06 0.12                                   
 KNR30HZ  S   2   14 7 13.94                                    0.64            
 KNR30    AMP     14 7 15.08     7.0e+06 0.12                                   
 KNR22HH  P   2   14 7  9.08                                   -0.02            
 KNR22    AMP     14 7  9.44     2.0e+05 0.12                                   
 KNR22HZ  S   3   14 7 13.68                                    0.48            
 KNR22    AMP     14 7 13.74     1.7e+06 0.20                                   
 KNR17BZ  P   0   14 7  9.30                                     0.1            
 KNR17B2  S   3   14 7 14.00                                     0.6            
 KNR17    AMP     14 7 14.84     1.2e+07 0.24                                   
 KNR21HZ  P   2   14 7  8.74                                   -1.46            
 KNR21    AMP     14 7 14.02     5.7e+07 0.16                                   
 KNR21HZ  S   3   14 7 12.86                                   -2.24            
 KNR21    AMP     14 7 16.78     8.2e+07 0.16                                   
 KNR05BH  P   3   14 7 10.96                                    0.56            
 KNR02BH  P   1   14 7 10.86                                   -0.04            
 KNR02    AMP     14 7 16.90     3.2e+06 0.28                                   
 KNR28HZ  P   0   14 7 11.28                                    0.08            
 KNR28    AMP     14 7 12.12     7.7e+05 0.12                                   
 KNR28H2  S   3   14 7 17.46                                    0.56            
 KNR28    AMP     14 7 18.06     4.6e+06 0.16                                   
 KNR23HZ  P   1   14 7  9.36                                   -1.84            
 KNR23    AMP     14 7 15.04     8.1e+05 0.12                                   
 KNR23HZ  S   3   14 7 14.74                                   -2.06            
 KNR03BH  P   3   14 7 11.94                                    0.14            
 KNR03BH  S   3   14 7 15.30                                    -2.7            
 KNR03    AMP     14 7 16.64     9.7e+05 0.20                                   
 KNR18    P   0   14 7 12.89                                    0.69            
 KNR18    S   2   14 7 19.57                                    0.97            
 KNR01BZ  P   2   14 7 12.92                                    0.22            
 KNR01    AMP     14 7 14.78     5.0e+05 0.16                                   
 KNR01B1  S   3   14 7 20.22                                    0.72            
 KNR01    AMP     14 7 21.42     2.6e+06 0.16                                   
 KNR07BZ  P   3   14 7 14.30                                     1.3            
 KNR19BH  P   2   14 7 15.66                                    2.86            
 KNR19    AMP     14 7 23.02     3.0e+05 0.24                                   
 KNR10BZ  P   3   14 7 14.80                                     1.5            
 KNR10    AMP     14 7 16.50     6.0e+04 0.16                                   
 KNR10BZ  S   3   14 7 21.70                                     1.1            
 KNR10    AMP     14 7 21.84     1.2e+06 0.12                                   
 KNR09    AMP     14 7 25.78     1.0e+07 0.24                                   
 KNR12    AMP     14 7 20.04     7.9e+04 0.12                                   
 KNR12BZ  S   3   14 7 25.26                                    0.26            
 KNR12    AMP     14 7 26.28     1.6e+06 0.16                                   
 KNR11    AMP     14 7 14.56     2.3e+04 0.20                                   
 KNR11    AMP     14 7 27.52     1.8e+05 0.20                                   
 KNR14    AMP     14 7 31.10     1.8e+07 0.24                                   
 KNR13BH  S   3   14 7 30.36                                   -0.34            
 KNR15BH  P   0   14 7 21.38                                    0.28            
 KNR15BH  S   3   14 7 32.02                                   -2.28            
                                                                                
