 2017  3 1 21 7 28.0 L  76.388   7.313  3.8  AWI 26 1.0 7.0LAWI                1
                                                         ID:20170301210727     I
                           2.7    23.3  8.2                                    E
 2017-03-01_21-07-27.mseed                                                     6
 STAT SP IPHASW D HRMM SECON CODA AMPLIT PERI AZIMU VELO AIN AR TRES W  DIS CAZ7
 KNR08BH  P   0   21 7 30.60                                     0.9            
 KNR08B2  S   0   21 7 31.78                                    0.78            
 KNR08    AMP     21 7 34.48     1.1e+08 0.20                                   
 KNR19    P   0   21 7 29.50                                    -0.2            
 KNR19    S   2   21 7 30.80                                    -0.3            
 KNR23HZ  P   2   21 7 28.60                                      -2            
 KNR23    AMP     21 7 30.78     1.7e+07 0.16                                   
 KNR23HH  S   3   21 7 34.30                                     1.6            
 KNR07BH  P   0   21 7 30.74                                   -0.36            
 KNR07    AMP     21 7 32.70     5.6e+06 0.16                                   
 KNR07BZ  S   1   21 7 33.68                                    0.28            
 KNR07    AMP     21 7 33.88     4.6e+07 0.16                                   
 KNR10BH  P   0   21 7 31.08                                   -0.12            
 KNR10    AMP     21 7 32.80     2.5e+07 0.16                                   
 KNR10B2  S   0   21 7 32.20                                    -1.4            
 KNR10    AMP     21 7 35.98     8.4e+07 0.20                                   
 KNR09BH  P   0   21 7 30.88                                   -0.82            
 KNR09B1  S   2   21 7 34.14                                   -0.46            
 KNR09    AMP     21 7 34.26     5.0e+07 0.20                                   
 KNR21HZ  P   0   21 7 30.22                                   -1.48            
 KNR21    AMP     21 7 33.82     2.3e+08 0.12                                   
 KNR21H1  S   0   21 7 33.68                                   -1.02            
 KNR21    AMP     21 7 36.46     6.6e+08 0.20                                   
 KNR20HZ  P   0   21 7 32.02                                    0.12            
 KNR20    AMP     21 7 33.98     4.7e+05 0.08                                   
 KNR20H1  S   2   21 7 35.82                                    0.82            
 KNR20    AMP     21 7 36.58     1.6e+07 0.12                                   
 KNR28    P   0   21 7 32.55                                    0.35            
 KNR28    AMP     21 7 34.78     3.6e+06 0.12                                   
 KNR28    S   2   21 7 36.20                                     0.7            
 KNR28    AMP     21 7 36.52     8.6e+07 0.12                                   
 KNR30HZ  P   1   21 7 31.64                                   -0.56            
 KNR30    AMP     21 7 34.80     3.6e+06 0.12                                   
 KNR30HZ  S   2   21 7 35.48                                   -0.02            
 KNR30    AMP     21 7 35.66     2.5e+07 0.16                                   
 KNR22HH  P   0   21 7 32.80                                    -0.2            
 KNR22    AMP     21 7 35.92     1.0e+06 0.12                                   
 KNR22H1  S   1   21 7 36.72                                   -0.07            
 KNR22    AMP     21 7 39.14     6.9e+06 0.24                                   
 KNR18    P   0   21 7 33.57                                    0.37            
 KNR18    S   2   21 7 38.00                                     0.7            
 KNR18    AMP     21 7 38.26     2.5e+07 0.16                                   
 KNR11BZ  P   2   21 7 33.00                                      -1            
 KNR11B1  S   3   21 7 37.70                                    -0.9            
 KNR11    AMP     21 7 43.50     2.9e+06 0.16                                   
 KNR12BH  P   0   21 7 33.46                                   -0.54            
 KNR12B2  S   0   21 7 38.50                                    -0.1            
 KNR12    AMP     21 7 39.20     2.9e+07 0.24                                   
 KNR05BH  P   0   21 7 34.70                                     0.4            
 KNR05B1  S   3   21 7 39.88                                    0.58            
 KNR05    AMP     21 7 42.70     1.0e+07 0.20                                   
 KNR06BH  P   0   21 7 34.74                                    0.34            
 KNR06B1  S   2   21 7 39.92                                    0.62            
 KNR06    AMP     21 7 40.40     2.5e+07 0.12                                   
 KNR29HZ  P   2   21 7 35.98                                    0.28            
 KNR29    AMP     21 7 40.16     1.4e+06 0.12                                   
 KNR29HZ  S   3   21 7 40.14                                   -1.56            
 KNR29    AMP     21 7 43.96     4.1e+06 0.12                                   
 KNR17BZ  P   0   21 7 35.56                                   -0.14            
 KNR17    AMP     21 7 40.42     7.0e+05 0.16                                   
 KNR17B2  S   2   21 7 41.84                                    0.14            
 KNR17    AMP     21 7 42.28     1.3e+07 0.20                                   
 KNR14BH  P   3   21 7 35.68                                   -0.92            
 KNR14BH  S   4   21 7 38.82                                   -4.38            
 KNR14    AMP     21 7 42.62     4.6e+06 0.24                                   
 KNR13BZ  P   3   21 7 34.50                                    -2.1            
 KNR13    AMP     21 7 41.48     1.1e+05 0.08                                   
 KNR13BZ  S   0   21 7 46.98                                    3.68            
 KNR13    AMP     21 7 48.12     4.6e+06 0.12                                   
 KNR03BZ  P   2   21 7 37.30                                    -0.2            
 KNR03BZ  S   3   21 7 44.58                                   -0.22            
 KNR03    AMP     21 7 45.10     3.1e+06 0.12                                   
 KNR04BZ  P   2   21 7 38.08                                    0.68            
 KNR04    AMP     21 7 41.46     3.3e+05 0.12                                   
 KNR04BZ  S   3   21 7 45.70                                       1            
 KNR04    AMP     21 7 46.10     5.7e+06 0.20                                   
 KNR16    AMP     21 7 48.58     2.8e+06 0.20                                   
 KNR02    AMP     21 7 38.42     1.4e+05 0.20                                   
 KNR02B2  S   3   21 7 48.98                                   -0.22            
 KNR02    AMP     21 7 50.40     1.9e+06 0.28                                   
 KNR01BZ  P   2   21 7 41.96                                    1.96            
 KNR01    AMP     21 7 44.16     1.7e+05 0.12                                   
 KNR01B2  S   3   21 7 49.76                                    0.56            
 KNR01    AMP     21 7 53.38     2.6e+06 0.20                                   
                                                                                
