 2017  3 2  455 28.3 L  76.562   7.221  0.3  AWI 26 0.8 6.2LAWI                1
                                                         ID:20170302045529     I
                           2.1     8.1  2.1                                    E
 2017-03-02_04-55-29.mseed                                                     6
 STAT SP IPHASW D HRMM SECON CODA AMPLIT PERI AZIMU VELO AIN AR TRES W  DIS CAZ7
 KNR21HZ  P   0    455 28.02                                   -0.88            
 KNR21    AMP      455 28.20     1.6e+08 0.12                                   
 KNR21H2  S   0    455 30.16                                    0.76            
 KNR21    AMP      455 30.22     9.7e+08 0.16                                   
 KNR23HH  P   3    455 30.42                                    0.52            
 KNR23    AMP      455 27.98     1.2e+07 0.12                                   
 KNR28HZ  P   0    455 29.86                                   -0.24            
 KNR28    AMP      455 30.84     4.4e+06 0.12                                   
 KNR28H1  S   0    455 31.48                                   -0.02            
 KNR28    AMP      455 32.22     4.7e+07 0.24                                   
 KNR30HZ  P   1    455 31.06                                    0.36            
 KNR30    AMP      455 31.64     8.8e+05 0.16                                   
 KNR30H1  S   3    455 33.04                                    0.54            
 KNR30    AMP      455 35.96     6.2e+06 0.24                                   
 KNR22HZ  P   0    455 31.02                                   -0.08            
 KNR22    AMP      455 31.38     2.2e+05 0.08                                   
 KNR22H1  S   0    455 33.42                                    0.22            
 KNR22    AMP      455 33.98     3.0e+06 0.20                                   
 KNR20HZ  P   2    455 31.46                                   -0.24            
 KNR20    AMP      455 33.78     1.3e+05 0.08                                   
 KNR20H1  S   3    455 34.72                                    0.42            
 KNR20    AMP      455 35.02     4.6e+06 0.12                                   
 KNR08BH  P   0    455 31.78                                   -0.02            
 KNR08    AMP      455 33.50     1.8e+06 0.12                                   
 KNR08B2  S   3    455 34.80                                     0.3            
 KNR08    AMP      455 35.72     7.5e+06 0.24                                   
 KNR18    P   0    455 32.26                                    0.26            
 KNR18    S   2    455 34.76                                   -0.04            
 KNR18    AMP      455 34.70     9.7e+06 0.16                                   
 KNR07BZ  P   0    455 33.22                                    1.02            
 KNR07    AMP      455 34.58     3.0e+06 0.16                                   
 KNR07BZ  S   2    455 34.88                                   -0.42            
 KNR07    AMP      455 36.70     3.5e+06 0.12                                   
 KNR05BZ  P   1    455 32.36                                   0.060            
 KNR05    AMP      455 34.24     3.1e+05 0.16                                   
 KNR05B2  S   3    455 36.14                                    0.64            
 KNR05    AMP      455 38.46     4.3e+06 0.24                                   
 KNR06BZ  P   2    455 31.60                                    -1.2            
 KNR06BH  S   3    455 36.30                                     0.1            
 KNR06    AMP      455 37.16     6.4e+06 0.12                                   
 KNR19BH  P   3    455 33.94                                    0.94            
 KNR19    AMP      455 35.34     1.4e+05 0.20                                   
 KNR19    AMP      455 39.68     1.4e+06 0.28                                   
 KNR17BH  P   3    455 33.30                                    -0.5            
 KNR17    AMP      455 33.86     2.1e+05 0.32                                   
 KNR17B1  S   3    455 38.36                                    0.26            
 KNR17    AMP      455 40.40     2.4e+06 0.20                                   
 KNR10BZ  P   2    455 34.28                                   -0.32            
 KNR10    AMP      455 38.52     5.0e+05 0.12                                   
 KNR10BZ  S   0    455 39.18                                   -0.32            
 KNR10    AMP      455 39.68     5.3e+06 0.12                                   
 KNR09BH  P   3    455 37.32                                    2.62            
 KNR03BZ  P   2    455 35.12                                   -0.38            
 KNR03BZ  S   3    455 40.84                                   -0.26            
 KNR03    AMP      455 41.16     1.6e+06 0.16                                   
 KNR04BZ  P   1    455 34.56                                   -1.14            
 KNR04    AMP      455 34.70     2.3e+05 0.12                                   
 KNR04    AMP      455 46.16     2.0e+05 0.12                                   
 KNR11    AMP      455 47.04     2.1e+05 0.16                                   
 KNR12BH  P   3    455 40.10                                     2.6            
 KNR12    AMP      455 42.28     1.7e+05 0.12                                   
 KNR12B1  S   3    455 43.98                                   -0.62            
 KNR12    AMP      455 44.60     2.4e+06 0.16                                   
 KNR01BZ  P   2    455 38.42                                    0.42            
 KNR01    AMP      455 40.98     8.6e+04 0.12                                   
 KNR01BZ  S   3    455 45.48                                   -0.02            
 KNR01    AMP      455 46.86     1.9e+06 0.20                                   
 KNR02BZ  P   3    455 37.68                                   -0.42            
 KNR02B2  S   3    455 47.48                                    1.78            
 KNR02    AMP      455 48.28     2.6e+05 0.28                                   
 KNR13    AMP      455 52.56     3.3e+05 0.12                                   
 KNR14BH  S   3    455 47.14                                   -1.96            
 KNR15BH  S   3    455 52.54                                   -0.66            
 KNR16B1  S   3    455 56.56                                    3.16            
                                                                                
