 2017  3 2  431 23.4 L  76.536   7.108  0.0  AWI 26 0.8 6.8LAWI                1
                                                         ID:20170302043123     I
                           2.0    11.7  2.9                                    E
 2017-03-02_04-31-23.mseed                                                     6
 STAT SP IPHASW D HRMM SECON CODA AMPLIT PERI AZIMU VELO AIN AR TRES W  DIS CAZ7
 KNR23HZ  P   0    431 22.08                                   -2.12            
 KNR23    AMP      431 23.98     2.8e+07 0.12                                   
 KNR23HH  S   3    431 26.44                                    1.64            
 KNR23    AMP      431 24.34     3.6e+07 0.16                                   
 KNR21HZ  P   0    431 23.92                                   -0.98            
 KNR21    AMP      431 25.76     3.6e+09 0.16                                   
 KNR21HZ  S   0    431 25.90                                    -0.1            
 KNR21    AMP      431 26.04     6.4e+09 0.16                                   
 KNR28HZ  P   0    431 25.72                                    0.72            
 KNR28    AMP      431 25.78     1.1e+07 0.20                                   
 KNR28H1  S   0    431 27.28                                    0.98            
 KNR28    AMP      431 29.20     1.4e+08 0.16                                   
 KNR30HZ  P   0    431 26.12                                   -0.48            
 KNR30    AMP      431 28.36     7.5e+06 0.16                                   
 KNR30H1  S   1    431 27.32                                   -1.78            
 KNR30    AMP      431 31.78     4.1e+07 0.28                                   
 KNR07BH  P   0    431 26.96                                    0.16            
 KNR07    AMP      431 28.78     2.6e+06 0.08                                   
 KNR07B1  S   0    431 28.08                                   -1.32            
 KNR07    AMP      431 30.54     3.1e+07 0.12                                   
 KNR08BH  P   0    431 27.66                                    0.86            
 KNR08B2  S   0    431 30.80                                     1.3            
 KNR08    AMP      431 31.56     7.2e+07 0.28                                   
 KNR18    P   0    431 26.95                                    0.05            
 KNR18    S   2    431 29.49                                   -0.21            
 KNR18    AMP      431 30.42     2.1e+07 0.20                                   
 KNR22HH  P   0    431 26.82                                   -0.08            
 KNR22    AMP      431 28.96     1.4e+06 0.12                                   
 KNR22H1  S   0    431 29.42                                   -0.18            
 KNR22    AMP      431 29.72     2.5e+07 0.24                                   
 KNR20HZ  P   0    431 27.30                                       0            
 KNR20    AMP      431 29.48     9.1e+05 0.12                                   
 KNR20H1  S   2    431 30.58                                    0.28            
 KNR20    AMP      431 30.76     1.7e+07 0.12                                   
 KNR05BH  P   0    431 28.14                                    0.34            
 KNR05    AMP      431 29.04     1.2e+06 0.12                                   
 KNR05B2  S   2    431 31.70                                     0.4            
 KNR05    AMP      431 35.68     1.8e+07 0.20                                   
 KNR19BH  P   0    431 28.76                                    0.96            
 KNR19    AMP      431 30.42     3.9e+05 0.16                                   
 KNR19B2  S   3    431 31.96                                    0.76            
 KNR19    AMP      431 32.42     2.4e+06 0.20                                   
 KNR06BH  P   0    431 28.86                                    0.36            
 KNR06B1  S   0    431 32.72                                    0.32            
 KNR06    AMP      431 33.06     5.2e+07 0.12                                   
 KNR09BH  P   3    431 29.44                                    0.04            
 KNR09    AMP      431 37.52     1.2e+07 0.24                                   
 KNR10BH  P   0    431 30.20                                     0.7            
 KNR10    AMP      431 33.14     1.5e+06 0.16                                   
 KNR10BZ  S   0    431 35.04                                    0.74            
 KNR10    AMP      431 35.38     2.0e+07 0.12                                   
 KNR17BH  P   0    431 29.36                                   -0.04            
 KNR17BZ  S   2    431 34.20                                     0.1            
 KNR17    AMP      431 34.52     5.2e+06 0.12                                   
 KNR29    AMP      431 37.06     9.5e+06 0.16                                   
 KNR03BZ  P   0    431 30.86                                   -0.14            
 KNR03B1  S   2    431 36.38                                   -0.42            
 KNR03    AMP      431 37.06     4.8e+06 0.12                                   
 KNR04BZ  P   3    431 31.68                                    0.28            
 KNR04    AMP      431 34.18     1.5e+05 0.12                                   
 KNR04B2  S   3    431 37.90                                     0.4            
 KNR04    AMP      431 39.82     4.2e+06 0.24                                   
 KNR11BZ  P   3    431 31.74                                   -0.26            
 KNR11    AMP      431 35.68     9.8e+04 0.12                                   
 KNR12BH  P   0    431 32.66                                    0.36            
 KNR12B1  S   2    431 39.54                                    0.34            
 KNR12    AMP      431 40.64     8.4e+06 0.20                                   
 KNR01BZ  P   2    431 34.08                                    0.58            
 KNR01    AMP      431 37.68     2.9e+05 0.28                                   
 KNR01B1  S   2    431 40.28                                   -1.02            
 KNR01    AMP      431 42.42     9.5e+06 0.20                                   
 KNR02BH  P   3    431 33.88                                    0.18            
 KNR02    AMP      431 42.48     1.6e+06 0.20                                   
 KNR13    AMP      431 39.36     1.1e+05 0.16                                   
 KNR13    AMP      431 48.30     2.5e+06 0.12                                   
 KNR15    P   0    431 36.40                                    -0.7            
 KNR15    S   2    431 46.14                                   -1.56            
                                                                                
