 2017  3 2  444 21.6 L  76.544   7.151  0.0  AWI 26 0.8 6.7LAWI                1
                                                         ID:20170302044422     I
                           1.7     8.7  2.3                                    E
 2017-03-02_04-44-22.mseed                                                     6
 STAT SP IPHASW D HRMM SECON CODA AMPLIT PERI AZIMU VELO AIN AR TRES W  DIS CAZ7
 KNR23HZ  P   0    444 20.64                                   -1.96            
 KNR23    AMP      444 21.64     4.6e+07 0.16                                   
 KNR23    AMP      444 23.14     5.5e+07 0.20                                   
 KNR21    P   0    444 22.82                                   0.020            
 KNR21    AMP      444 23.52     3.0e+09 0.12                                   
 KNR21    S   2    444 23.46                                   -0.24            
 KNR21    AMP      444 23.30     5.8e+09 0.16                                   
 KNR28HZ  P   0    444 23.64                                    0.34            
 KNR28    AMP      444 23.86     7.7e+06 0.08                                   
 KNR28H1  S   0    444 25.24                                    0.64            
 KNR28    AMP      444 25.98     1.4e+08 0.24                                   
 KNR30HZ  P   0    444 24.00                                    -0.5            
 KNR30    AMP      444 26.10     6.1e+06 0.16                                   
 KNR30H2  S   1    444 26.56                                   -0.24            
 KNR30    AMP      444 29.46     3.0e+07 0.20                                   
 KNR22HH  P   0    444 24.74                                   -0.16            
 KNR22    AMP      444 26.58     1.2e+06 0.08                                   
 KNR22H2  S   0    444 27.22                                   -0.18            
 KNR22    AMP      444 27.80     1.9e+07 0.20                                   
 KNR08BH  P   0    444 25.60                                     0.6            
 KNR08    AMP      444 26.88     1.9e+06 0.12                                   
 KNR08B2  S   1    444 28.50                                     0.8            
 KNR08    AMP      444 29.40     2.6e+07 0.24                                   
 KNR07BZ  P   2    444 24.98                                   -0.22            
 KNR07    AMP      444 27.44     2.1e+06 0.08                                   
 KNR07BZ  S   0    444 28.20                                     0.2            
 KNR07    AMP      444 28.96     1.1e+07 0.12                                   
 KNR18    P   0    444 25.34                                    0.14            
 KNR18    S   2    444 27.93                                   -0.07            
 KNR18    AMP      444 28.62     1.3e+07 0.20                                   
 KNR20HZ  P   0    444 25.16                                   -0.14            
 KNR20    AMP      444 27.54     6.5e+05 0.16                                   
 KNR20H1  S   2    444 28.32                                    0.12            
 KNR20    AMP      444 30.86     1.4e+07 0.12                                   
 KNR05BH  P   0    444 26.18                                    0.28            
 KNR05B2  S   2    444 29.60                                     0.3            
 KNR05    AMP      444 33.72     1.5e+07 0.24                                   
 KNR19BZ  P   3    444 26.70                                     0.6            
 KNR19    AMP      444 28.38     3.4e+05 0.20                                   
 KNR19B2  S   3    444 29.86                                    0.26            
 KNR19    AMP      444 31.04     2.8e+06 0.32                                   
 KNR06BH  P   0    444 26.72                                    0.22            
 KNR06B2  S   0    444 30.48                                    0.18            
 KNR06    AMP      444 30.78     5.0e+07 0.12                                   
 KNR17BH  P   1    444 27.28                                   -0.22            
 KNR17B1  S   2    444 32.02                                   0.020            
 KNR17    AMP      444 32.36     1.2e+07 0.24                                   
 KNR09BH  P   3    444 30.64                                    2.84            
 KNR09    AMP      444 30.32     1.4e+07 0.24                                   
 KNR10BH  P   2    444 28.14                                    0.34            
 KNR10    AMP      444 30.66     1.1e+06 0.12                                   
 KNR10BZ  S   1    444 33.00                                     0.4            
 KNR10    AMP      444 33.20     8.0e+06 0.16                                   
 KNR29HZ  P   3    444 25.46                                   -2.34            
 KNR03BZ  P   0    444 28.90                                    -0.2            
 KNR03    AMP      444 33.74     5.6e+05 0.08                                   
 KNR03B2  S   2    444 34.30                                    -0.6            
 KNR03    AMP      444 34.58     3.3e+06 0.16                                   
 KNR04BZ  P   3    444 29.76                                    0.36            
 KNR04    AMP      444 33.34     1.9e+05 0.12                                   
 KNR04B2  S   2    444 36.30                                     0.9            
 KNR04    AMP      444 37.70     4.4e+06 0.20                                   
 KNR11    AMP      444 40.90     4.8e+05 0.28                                   
 KNR12BZ  P   3    444 30.66                                   0.060            
 KNR12    AMP      444 34.06     1.1e+06 0.12                                   
 KNR12B1  S   2    444 37.64                                    0.04            
 KNR12    AMP      444 38.50     4.3e+06 0.20                                   
 KNR01BZ  P   3    444 31.58                                   -0.02            
 KNR01    AMP      444 27.06     4.0e+05 0.12                                   
 KNR01BZ  S   3    444 39.14                                   -0.16            
 KNR01    AMP      444 41.34     6.2e+06 0.20                                   
 KNR02    AMP      444 34.20     4.7e+05 0.56                                   
 KNR02    AMP      444 41.22     1.5e+06 0.20                                   
 KNR13BZ  P   3    444 33.66                                    0.66            
 KNR13    AMP      444 36.86     1.4e+05 0.12                                   
 KNR13BZ  S   3    444 45.70                                     3.8            
 KNR13    AMP      444 46.74     1.1e+06 0.12                                   
 KNR14    AMP      444 45.88     4.9e+07 0.24                                   
 KNR15BH  P   3    444 35.68                                    0.28            
 KNR15BH  S   3    444 44.10                                      -2            
 KNR16BH  P   3    444 37.54                                    1.94            
                                                                                
