 2017  3 2 19 8 44.4 L  76.270   7.089 15.0  AWI 26 0.9 6.8LAWI                1
                                                         ID:20170302190844     I
                           3.2    25.2  6.7                                    E
 2017-03-02_19-08-44.mseed                                                     6
 STAT SP IPHASW D HRMM SECON CODA AMPLIT PERI AZIMU VELO AIN AR TRES W  DIS CAZ7
 KNR19BH  P   0   19 8 47.64                                    0.64            
 KNR19    AMP     19 8 48.54     3.5e+06 0.16                                   
 KNR19B1  S   0   19 8 48.70                                    -0.3            
 KNR19    AMP     19 8 50.54     6.2e+07 0.20                                   
 KNR09BH  P   0   19 8 46.98                                   -0.22            
 KNR09B1  S   0   19 8 49.66                                    0.16            
 KNR09    AMP     19 8 49.82     3.9e+08 0.16                                   
 KNR10    P   0   19 8 47.55                                   -0.05            
 KNR10    S   2   19 8 49.76                                   -0.34            
 KNR10    AMP     19 8 50.82     7.2e+08 0.20                                   
 KNR07BH  P   0   19 8 48.74                                    0.24            
 KNR07    AMP     19 8 50.24     1.1e+07 0.12                                   
 KNR07B2  S   0   19 8 52.28                                    0.68            
 KNR07    AMP     19 8 52.68     5.1e+07 0.20                                   
 KNR08BZ  P   0   19 8 49.24                                    0.74            
 KNR08B2  S   0   19 8 52.96                                    1.26            
 KNR08    AMP     19 8 54.36     3.0e+07 0.24                                   
 KNR11BH  P   0   19 8 48.74                                    0.04            
 KNR11    AMP     19 8 51.34     6.5e+05 0.20                                   
 KNR11B2  S   2   19 8 50.16                                   -1.94            
 KNR11    AMP     19 8 55.30     7.6e+06 0.24                                   
 KNR23HZ  P   0   19 8 46.64                                   -2.36            
 KNR23    AMP     19 8 51.26     5.5e+06 0.12                                   
 KNR23H2  S   3   19 8 51.38                                   -1.22            
 KNR23    AMP     19 8 50.80     9.9e+06 0.12                                   
 KNR12BH  P   0   19 8 49.54                                    0.34            
 KNR12B2  S   3   19 8 51.22                                   -1.68            
 KNR12    AMP     19 8 55.44     1.9e+07 0.20                                   
 KNR21HZ  P   0   19 8 48.98                                   -1.22            
 KNR21    AMP     19 8 53.78     2.4e+08 0.16                                   
 KNR21HZ  S   0   19 8 53.30                                    -1.4            
 KNR21    AMP     19 8 53.84     2.6e+08 0.16                                   
 KNR28HZ  P   0   19 8 50.66                                    0.26            
 KNR28    AMP     19 8 53.90     2.0e+06 0.12                                   
 KNR28HZ  S   0   19 8 55.04                                    0.04            
 KNR28    AMP     19 8 55.38     1.9e+07 0.20                                   
 KNR20HZ  P   0   19 8 50.60                                     0.1            
 KNR20    AMP     19 8 54.20     4.4e+05 0.16                                   
 KNR20H1  S   2   19 8 55.32                                    0.02            
 KNR20    AMP     19 8 59.90     1.2e+07 0.12                                   
 KNR30HZ  P   3   19 8 50.18                                   -0.62            
 KNR30    AMP     19 8 54.32     1.9e+06 0.16                                   
 KNR30H2  S   3   19 8 55.14                                   -0.56            
 KNR30    AMP     19 9  0.14     6.2e+06 0.20                                   
 KNR18    P   0   19 8 51.79                                    0.69            
 KNR18    S   2   19 8 57.19                                    0.99            
 KNR18    AMP     19 8 57.18     3.2e+07 0.16                                   
 KNR13    AMP     19 8 54.18     4.4e+04 0.24                                   
 KNR13    AMP     19 9  0.26     6.8e+05 0.12                                   
 KNR14BH  P   1   19 8 51.62                                    0.12            
 KNR14B1  S   3   19 8 57.18                                    0.18            
 KNR14    AMP     19 8 57.56     8.9e+06 0.20                                   
 KNR22HH  P   2   19 8 51.46                                    0.06            
 KNR22    AMP     19 8 55.46     3.4e+05 0.08                                   
 KNR22H1  S   2   19 8 57.06                                    0.26            
 KNR22    AMP     19 8 58.38     1.8e+06 0.20                                   
 KNR05BZ  P   2   19 8 53.22                                    0.62            
 KNR05    AMP     19 8 54.48     1.9e+05 0.12                                   
 KNR05B1  S   3   19 8 59.90                                       1            
 KNR05    AMP     19 9  2.62     6.4e+06 0.20                                   
 KNR06BZ  P   0   19 8 53.36                                    0.56            
 KNR06    AMP     19 8 54.24     8.0e+05 0.08                                   
 KNR06B1  S   3   19 8 59.48                                    0.18            
 KNR06    AMP     19 9  0.06     1.1e+07 0.24                                   
 KNR15BH  P   3   19 8 55.56                                    2.16            
 KNR16BH  P   2   19 8 53.80                                     0.1            
 KNR16    AMP     19 9  4.14     4.0e+06 0.12                                   
 KNR29    AMP     19 8 54.64     1.6e+06 0.20                                   
 KNR29    AMP     19 9  2.12     3.7e+06 0.08                                   
 KNR17BZ  P   2   19 8 54.10                                     0.1            
 KNR17    AMP     19 8 58.80     2.6e+05 0.16                                   
 KNR17B2  S   3   19 9  1.66                                    0.16            
 KNR17    AMP     19 9  3.04     5.2e+06 0.24                                   
 KNR03BH  P   3   19 8 55.70                                     0.2            
 KNR03B1  S   3   19 9  3.86                                   -0.24            
 KNR03    AMP     19 9  4.36     7.2e+05 0.12                                   
 KNR04B1  S   3   19 9  4.78                                    0.28            
 KNR04    AMP     19 9  6.02     2.7e+06 0.20                                   
 KNR01BZ  P   3   19 9  0.24                                    2.24            
 KNR01    AMP     19 9  2.40     5.4e+04 0.16                                   
 KNR01    AMP     19 9 13.16     1.0e+06 0.16                                   
 KNR02BH  S   3   19 9  7.36                                   -1.34            
                                                                                
