 2017  3 2 18 4  8.1 L  76.553   7.102  0.1  AWI 26 0.9 6.5LAWI                1
                                                         ID:20170302180408     I
                           2.2    10.2  2.6                                    E
 2017-03-02_18-04-08.mseed                                                     6
 STAT SP IPHASW D HRMM SECON CODA AMPLIT PERI AZIMU VELO AIN AR TRES W  DIS CAZ7
 KNR21HZ  P   0   18 4  8.74                                   -0.56            
 KNR21    AMP     18 4  8.80     4.6e+08 0.08                                   
 KNR21H2  S   0   18 4 10.50                                     0.2            
 KNR21    AMP     18 4 11.88     1.8e+09 0.16                                   
 KNR23HZ  P   0   18 4  7.02                                   -2.28            
 KNR23    AMP     18 4  9.44     1.2e+07 0.12                                   
 KNR23HH  S   3   18 4 11.42                                    1.12            
 KNR23    AMP     18 4  9.66     1.2e+07 0.16                                   
 KNR28    P   0   18 4  9.98                                    0.58            
 KNR28    AMP     18 4 10.26     8.9e+05 0.08                                   
 KNR28    S   2   18 4 11.16                                    0.66            
 KNR28    AMP     18 4 11.84     8.0e+07 0.12                                   
 KNR30HZ  P   1   18 4 10.84                                   -0.26            
 KNR30    AMP     18 4 12.82     3.7e+06 0.20                                   
 KNR30HZ  S   2   18 4 13.50                                       0            
 KNR30    AMP     18 4 14.22     2.4e+07 0.20                                   
 KNR22HZ  P   0   18 4 11.10                                    -0.2            
 KNR22    AMP     18 4 12.28     5.3e+05 0.08                                   
 KNR22H1  S   0   18 4 13.68                                   -0.22            
 KNR22    AMP     18 4 14.10     8.8e+06 0.20                                   
 KNR18    P   0   18 4 11.67                                    0.27            
 KNR18    S   2   18 4 14.16                                    0.16            
 KNR18    AMP     18 4 14.68     1.2e+07 0.20                                   
 KNR07BZ  P   1   18 4 11.58                                   -0.12            
 KNR07    AMP     18 4 13.70     6.2e+05 0.24                                   
 KNR07BZ  S   2   18 4 14.72                                    0.22            
 KNR07    AMP     18 4 14.98     9.2e+06 0.12                                   
 KNR08BZ  P   0   18 4 12.44                                    0.74            
 KNR08    AMP     18 4 12.62     5.5e+05 0.12                                   
 KNR08BZ  S   3   18 4 14.02                                   -0.48            
 KNR08    AMP     18 4 18.66     3.7e+06 0.24                                   
 KNR20HZ  P   0   18 4 12.08                                    0.08            
 KNR20    AMP     18 4 12.14     8.8e+05 0.12                                   
 KNR20H1  S   0   18 4 15.40                                     0.4            
 KNR20    AMP     18 4 15.46     4.9e+07 0.12                                   
 KNR05BZ  P   0   18 4 12.40                                     0.1            
 KNR05    AMP     18 4 13.30     1.0e+06 0.12                                   
 KNR05B2  S   2   18 4 15.74                                    0.24            
 KNR05    AMP     18 4 19.98     1.3e+07 0.24                                   
 KNR19BH  P   0   18 4 13.44                                    0.74            
 KNR19B1  S   3   18 4 17.20                                     0.9            
 KNR19    AMP     18 4 19.62     2.9e+06 0.28                                   
 KNR06BZ  P   0   18 4 13.44                                    0.44            
 KNR06    AMP     18 4 15.38     1.2e+06 0.08                                   
 KNR06B2  S   2   18 4 17.02                                    0.22            
 KNR06    AMP     18 4 17.30     7.3e+06 0.12                                   
 KNR17BH  P   1   18 4 13.52                                   -0.38            
 KNR17B1  S   3   18 4 18.08                                   -0.22            
 KNR17    AMP     18 4 18.46     6.5e+06 0.20                                   
 KNR29HZ  S   3   18 4 17.26                                   -1.84            
 KNR29    AMP     18 4 18.56     6.6e+06 0.28                                   
 KNR09BH  P   3   18 4 13.96                                   -0.34            
 KNR10BH  P   0   18 4 14.92                                    0.42            
 KNR10    AMP     18 4 16.86     1.5e+06 0.16                                   
 KNR10BZ  S   2   18 4 19.98                                    0.58            
 KNR10    AMP     18 4 20.38     1.2e+07 0.12                                   
 KNR03BZ  P   0   18 4 15.04                                   -0.36            
 KNR03B1  S   3   18 4 20.16                                   -0.84            
 KNR03    AMP     18 4 20.46     1.3e+06 0.24                                   
 KNR11BH  P   3   18 4 19.44                                    2.54            
 KNR11    AMP     18 4 19.36     5.5e+04 0.40                                   
 KNR11BH  S   3   18 4 25.30                                     1.5            
 KNR11    AMP     18 4 23.44     2.9e+05 0.20                                   
 KNR12BH  P   3   18 4 17.46                                    0.16            
 KNR12B2  S   3   18 4 21.30                                      -3            
 KNR01BZ  P   3   18 4 17.68                                   -0.22            
 KNR01BZ  S   3   18 4 24.96                                   -0.54            
 KNR01    AMP     18 4 26.48     4.3e+05 0.12                                   
 KNR13    AMP     18 4 33.10     5.8e+05 0.12                                   
 KNR14BH  S   3   18 4 32.44                                    3.54            
                                                                                
