 2017  3 3  4 6 33.9 L  76.575   7.196  0.8  AWI 26 0.8 6.3LAWI                1
                                                         ID:20170303040634     I
                           2.6     9.1  2.1                                    E
 2017-03-03_04-06-34.mseed                                                     6
 STAT SP IPHASW D HRMM SECON CODA AMPLIT PERI AZIMU VELO AIN AR TRES W  DIS CAZ7
 KNR21HZ  P   0    4 6 34.12                                   -0.38            
 KNR21    AMP      4 6 34.86     9.3e+07 0.08                                   
 KNR21H1  S   0    4 6 35.52                                    0.52            
 KNR21    AMP      4 6 36.30     1.0e+09 0.20                                   
 KNR28HZ  P   0    4 6 35.96                                    0.46            
 KNR28    AMP      4 6 36.54     6.6e+06 0.12                                   
 KNR28H1  S   0    4 6 37.40                                     0.6            
 KNR28    AMP      4 6 38.60     3.8e+07 0.20                                   
 KNR23HZ  P   0    4 6 33.46                                   -2.24            
 KNR23    AMP      4 6 36.34     2.9e+06 0.12                                   
 KNR23H1  S   1    4 6 37.54                                    0.44            
 KNR23    AMP      4 6 36.10     4.5e+06 0.12                                   
 KNR30HZ  P   0    4 6 36.18                                   -0.02            
 KNR30    AMP      4 6 37.66     2.6e+06 0.12                                   
 KNR30HZ  S   2    4 6 37.12                                   -0.98            
 KNR30    AMP      4 6 39.42     2.7e+07 0.12                                   
 KNR22HZ  P   0    4 6 36.42                                   0.020            
 KNR22    AMP      4 6 37.22     1.7e+06 0.12                                   
 KNR22H2  S   0    4 6 38.38                                   -0.02            
 KNR22    AMP      4 6 38.64     1.6e+07 0.24                                   
 KNR20HZ  P   2    4 6 37.62                                    0.32            
 KNR20    AMP      4 6 37.66     2.2e+05 0.28                                   
 KNR20H1  S   2    4 6 40.62                                    0.62            
 KNR20    AMP      4 6 41.86     6.9e+06 0.12                                   
 KNR18    P   0    4 6 37.26                                   -0.04            
 KNR18    S   2    4 6 39.73                                   -0.27            
 KNR18    AMP      4 6 44.54     7.2e+06 0.16                                   
 KNR08BH  P   0    4 6 38.60                                     1.1            
 KNR08    AMP      4 6 38.80     3.8e+05 0.16                                   
 KNR08BZ  S   2    4 6 40.16                                   -0.14            
 KNR08    AMP      4 6 42.96     5.4e+06 0.12                                   
 KNR05BZ  P   0    4 6 37.60                                       0            
 KNR05    AMP      4 6 38.50     6.9e+05 0.12                                   
 KNR05B1  S   2    4 6 40.48                                   -0.02            
 KNR05    AMP      4 6 41.22     1.1e+07 0.16                                   
 KNR07BH  P   2    4 6 38.22                                    0.42            
 KNR07    AMP      4 6 42.68     2.7e+06 0.20                                   
 KNR06BH  P   0    4 6 38.40                                     0.2            
 KNR06B1  S   3    4 6 41.64                                    0.14            
 KNR06    AMP      4 6 41.70     7.4e+06 0.12                                   
 KNR19BZ  P   3    4 6 40.80                                     2.1            
 KNR19    AMP      4 6 44.82     4.7e+05 0.20                                   
 KNR17BH  P   2    4 6 38.70                                    -0.4            
 KNR10BH  P   2    4 6 41.24                                    0.84            
 KNR10    AMP      4 6 43.66     7.2e+05 0.12                                   
 KNR10BZ  S   3    4 6 46.62                                    1.22            
 KNR10    AMP      4 6 47.02     2.9e+06 0.12                                   
 KNR09B1  S   3    4 6 46.00                                     0.5            
 KNR09    AMP      4 6 47.08     1.2e+06 0.20                                   
 KNR03BZ  P   2    4 6 40.26                                   -0.54            
 KNR03BZ  S   2    4 6 44.96                                   -1.14            
 KNR03    AMP      4 6 45.32     1.7e+06 0.12                                   
 KNR11BH  S   3    4 6 51.32                                    1.32            
 KNR12BH  P   3    4 6 43.52                                    0.32            
 KNR01BZ  P   3    4 6 40.32                                   -2.98            
 KNR01    AMP      4 6 43.04     1.4e+05 0.20                                   
 KNR01BZ  S   3    4 6 49.96                                   -0.54            
 KNR01    AMP      4 6 51.00     7.8e+05 0.12                                   
 KNR02BH  P   3    4 6 44.58                                    1.18            
 KNR02    AMP      4 6 46.22     9.7e+06 0.20                                   
 KNR13    AMP      4 6 43.94     6.0e+04 0.16                                   
 KNR13BZ  S   3    4 6 54.16                                   -0.64            
 KNR13    AMP      4 6 59.80     5.7e+04 0.12                                   
 KNR16B1  S   3    4 6 59.84                                    0.64            
 KNR16    AMP      4 6 55.80     1.0e+06 0.20                                   
                                                                                
