 2017  3 3  546 13.6 L  76.586   7.197  1.0  AWI 26 1.0 6.2LAWI                1
                                                         ID:20170303054614     I
                           2.8     9.7  2.4                                    E
 2017-03-03_05-46-14.mseed                                                     6
 STAT SP IPHASW D HRMM SECON CODA AMPLIT PERI AZIMU VELO AIN AR TRES W  DIS CAZ7
 KNR21HZ  P   0    546 13.60                                    -0.6            
 KNR21    AMP      546 14.46     1.2e+08 0.20                                   
 KNR21H2  S   1    546 15.74                                    0.94            
 KNR21    AMP      546 15.02     4.4e+08 0.16                                   
 KNR28HZ  P   0    546 15.42                                    0.22            
 KNR28    AMP      546 16.00     5.2e+06 0.12                                   
 KNR28H1  S   1    546 17.14                                    0.74            
 KNR28    AMP      546 17.50     1.4e+07 0.24                                   
 KNR23HZ  P   1    546 12.88                                   -2.72            
 KNR23    AMP      546 15.50     1.4e+06 0.12                                   
 KNR23H2  S   2    546 16.68                                   -0.52            
 KNR23    AMP      546 16.10     2.7e+06 0.12                                   
 KNR30HZ  P   0    546 15.64                                   -0.26            
 KNR30    AMP      546 17.28     2.8e+06 0.08                                   
 KNR30HZ  S   1    546 18.12                                    0.42            
 KNR30    AMP      546 18.56     1.6e+07 0.12                                   
 KNR22HZ  P   0    546 15.88                                   -0.02            
 KNR22    AMP      546 16.60     1.2e+06 0.20                                   
 KNR22H1  S   0    546 17.76                                    0.06            
 KNR22    AMP      546 18.08     1.2e+07 0.20                                   
 KNR18    P   0    546 17.22                                    0.32            
 KNR18    S   2    546 19.67                                    0.17            
 KNR18    AMP      546 20.10     1.8e+06 0.16                                   
 KNR20HZ  P   3    546 16.96                                   -0.04            
 KNR20    AMP      546 19.00     2.2e+05 0.12                                   
 KNR20H1  S   3    546 19.98                                    0.28            
 KNR20    AMP      546 20.10     4.8e+06 0.12                                   
 KNR05BZ  P   0    546 17.02                                   -0.07            
 KNR05    AMP      546 19.12     3.3e+05 0.12                                   
 KNR05B1  S   3    546 20.02                                    0.12            
 KNR05    AMP      546 22.82     4.7e+06 0.24                                   
 KNR08BZ  P   0    546 18.04                                    0.74            
 KNR08    AMP      546 19.62     4.7e+05 0.12                                   
 KNR08BZ  S   2    546 21.78                                    1.58            
 KNR08    AMP      546 21.98     3.2e+06 0.12                                   
 KNR07BZ  P   3    546 18.60                                       1            
 KNR07    AMP      546 20.16     3.1e+05 0.28                                   
 KNR07BZ  S   3    546 21.24                                    0.44            
 KNR07    AMP      546 21.76     1.1e+06 0.16                                   
 KNR06BZ  P   0    546 17.82                                    0.12            
 KNR06    AMP      546 20.24     6.4e+05 0.16                                   
 KNR06BZ  S   3    546 21.08                                    0.18            
 KNR06    AMP      546 21.12     4.0e+06 0.08                                   
 KNR17BH  P   3    546 18.10                                    -0.5            
 KNR17    AMP      546 21.00     2.2e+05 0.12                                   
 KNR17    AMP      546 22.24     2.5e+06 0.20                                   
 KNR19BZ  P   3    546 18.90                                     0.3            
 KNR19    AMP      546 20.90     9.5e+04 0.28                                   
 KNR19    AMP      546 27.26     2.3e+05 0.12                                   
 KNR29    AMP      546 20.68     1.1e+07 0.24                                   
 KNR29HZ  S   3    546 21.72                                   -1.48            
 KNR29    AMP      546 20.68     1.1e+07 0.24                                   
 KNR03BZ  P   3    546 19.80                                    -0.5            
 KNR03    AMP      546 24.76     1.1e+06 0.12                                   
 KNR03BZ  S   3    546 24.34                                   -1.16            
 KNR10BZ  P   2    546 20.70                                     0.5            
 KNR10BZ  S   3    546 26.06                                    0.76            
 KNR10    AMP      546 26.34     1.4e+06 0.12                                   
 KNR09BH  S   3    546 26.96                                    1.56            
 KNR09    AMP      546 28.64     2.9e+06 0.24                                   
 KNR04    AMP      546 30.40     9.3e+05 0.28                                   
 KNR01BZ  P   3    546 24.84                                    2.04            
 KNR01    AMP      546 18.98     1.6e+05 0.24                                   
 KNR01B2  S   3    546 28.38                                   -1.52            
 KNR01    AMP      546 30.60     6.0e+05 0.20                                   
 KNR11    AMP      546 22.60     1.8e+05 0.36                                   
 KNR11BH  S   3    546 31.62                                    1.62            
 KNR02    AMP      546 23.10     3.2e+06 0.20                                   
 KNR12    AMP      546 32.72     1.9e+06 0.24                                   
 KNR13BZ  S   3    546 31.46                                   -3.24            
 KNR13    AMP      546 39.34     8.6e+04 0.24                                   
 KNR16BH  S   3    546 41.80                                     2.7            
 KNR16    AMP      546 39.30     1.2e+06 0.24                                   
                                                                                
