 2017  3 3  453  0.3 L  76.583   7.229  1.0  AWI 26 0.8 6.3LAWI                1
                                                         ID:20170303045300     I
                           2.6     8.4  1.9                                    E
 2017-03-03_04-53-00.mseed                                                     6
 STAT SP IPHASW D HRMM SECON CODA AMPLIT PERI AZIMU VELO AIN AR TRES W  DIS CAZ7
 KNR21HZ  P   0    453  0.28                                   -0.52            
 KNR21    AMP      453  1.16     7.2e+07 0.12                                   
 KNR21H1  S   0    453  1.76                                    0.46            
 KNR21    AMP      453  3.50     7.9e+08 0.20                                   
 KNR28HZ  P   0    453  2.12                                    0.12            
 KNR28    AMP      453  2.72     5.4e+06 0.12                                   
 KNR28H1  S   0    453  3.70                                     0.3            
 KNR28    AMP      453  4.20     2.6e+07 0.24                                   
 KNR23HZ  P   2    452 59.70                                    -2.6            
 KNR23    AMP      453  2.52     1.9e+06 0.12                                   
 KNR23HZ  S   2    453  2.58                                   -1.32            
 KNR23    AMP      453  2.86     1.5e+06 0.12                                   
 KNR30HZ  P   1    453  2.36                                   -0.03            
 KNR30    AMP      453  3.72     2.4e+06 0.08                                   
 KNR30HZ  S   1    453  3.26                                   -0.84            
 KNR30    AMP      453  5.30     1.5e+07 0.12                                   
 KNR22HZ  P   0    453  2.60                                       0            
 KNR22    AMP      453  3.52     1.9e+06 0.12                                   
 KNR22H2  S   0    453  4.48                                    0.18            
 KNR22    AMP      453  4.80     1.4e+07 0.24                                   
 KNR20HZ  P   1    453  3.74                                    0.14            
 KNR20    AMP      453  3.80     2.8e+05 0.08                                   
 KNR20H1  S   3    453  6.70                                     0.5            
 KNR20    AMP      453  6.84     6.4e+06 0.12                                   
 KNR18    P   0    453  3.59                                   -0.21            
 KNR18    S   2    453  6.14                                   -0.36            
 KNR18    AMP      453  6.82     1.8e+06 0.16                                   
 KNR05BZ  P   0    453  3.78                                   -0.12            
 KNR05    AMP      453  4.92     6.1e+05 0.12                                   
 KNR05B2  S   3    453  6.82                                    0.12            
 KNR05    AMP      453  7.40     7.2e+06 0.20                                   
 KNR08BH  P   0    453  4.70                                     0.8            
 KNR08    AMP      453  4.92     3.8e+05 0.16                                   
 KNR08B2  S   3    453  8.42                                    1.62            
 KNR08    AMP      453  9.10     4.2e+06 0.12                                   
 KNR06BH  P   0    453  4.54                                    0.14            
 KNR06    AMP      453  5.38     7.9e+05 0.08                                   
 KNR06B1  S   3    453  7.80                                     0.3            
 KNR06    AMP      453  7.84     5.0e+06 0.28                                   
 KNR07BH  P   3    453  4.40                                       0            
 KNR07    AMP      453  8.82     2.9e+06 0.20                                   
 KNR19BH  P   3    453  6.14                                    0.94            
 KNR19BH  S   3    453  7.78                                   -1.32            
 KNR17BH  P   2    453  4.86                                   -0.44            
 KNR17    AMP      453  7.06     2.0e+05 0.56                                   
 KNR17    AMP      453  8.96     3.0e+06 0.16                                   
 KNR29    AMP      453  8.94     1.6e+07 0.32                                   
 KNR29HZ  S   3    453  8.04                                   -1.76            
 KNR29    AMP      453  9.34     1.6e+07 0.36                                   
 KNR10BH  P   2    453  7.40                                     0.6            
 KNR10BZ  S   3    453 12.88                                    0.98            
 KNR10    AMP      453 13.14     2.2e+06 0.12                                   
 KNR03BZ  P   3    453  6.54                                   -0.56            
 KNR03B2  S   3    453 11.20                                    -1.1            
 KNR03    AMP      453 11.54     1.1e+06 0.12                                   
 KNR04    AMP      453 17.24     9.4e+05 0.24                                   
 KNR01BZ  P   3    453 12.22                                    2.72            
 KNR01B1  S   3    453 16.02                                   -0.68            
 KNR01    AMP      453 18.20     9.8e+05 0.20                                   
 KNR12    AMP      453 12.34     2.7e+06 0.24                                   
 KNR12    AMP      453 19.42     7.7e+06 0.24                                   
 KNR15BH  S   3    453 28.10                                     2.5            
 KNR16    AMP      453 25.64     8.5e+05 0.40                                   
                                                                                
