 2017  3 3  445 14.2 L  76.573   7.150  2.0  AWI 26 1.0 6.5LAWI                1
                                                         ID:20170303044514     I
                           2.5    11.7  2.9                                    E
 2017-03-03_04-45-14.mseed                                                     6
 STAT SP IPHASW D HRMM SECON CODA AMPLIT PERI AZIMU VELO AIN AR TRES W  DIS CAZ7
 KNR21HZ  P   0    445 14.40                                    -0.8            
 KNR21    AMP      445 15.66     3.3e+08 0.16                                   
 KNR21H2  S   0    445 16.34                                    0.44            
 KNR21    AMP      445 16.56     1.7e+09 0.20                                   
 KNR28HZ  P   0    445 16.22                                    0.62            
 KNR28    AMP      445 16.28     9.7e+06 0.08                                   
 KNR28H2  S   0    445 17.72                                    0.92            
 KNR28    AMP      445 18.72     3.0e+07 0.16                                   
 KNR23HZ  P   0    445 13.62                                   -2.28            
 KNR23    AMP      445 16.62     6.7e+06 0.12                                   
 KNR23H1  S   0    445 15.98                                   -1.22            
 KNR23    AMP      445 17.60     6.8e+06 0.16                                   
 KNR30HZ  P   0    445 16.38                                   -0.32            
 KNR30    AMP      445 18.14     8.0e+06 0.12                                   
 KNR30HZ  S   1    445 18.94                                    0.34            
 KNR30    AMP      445 19.64     3.6e+07 0.12                                   
 KNR22HZ  P   0    445 16.72                                   -0.07            
 KNR22    AMP      445 17.54     2.8e+06 0.12                                   
 KNR22H1  S   0    445 18.54                                   -0.26            
 KNR22    AMP      445 18.92     2.2e+07 0.24                                   
 KNR18    P   0    445 17.35                                    0.05            
 KNR18    S   2    445 19.84                                    0.14            
 KNR18    AMP      445 22.28     5.4e+06 0.16                                   
 KNR20HZ  P   0    445 17.86                                    0.26            
 KNR20    AMP      445 17.92     4.0e+05 0.08                                   
 KNR20HH  S   4    445 24.44                                    4.14            
 KNR20    AMP      445 21.52     1.6e+06 0.16                                   
 KNR08BZ  P   0    445 18.84                                    1.14            
 KNR08    AMP      445 19.00     8.8e+05 0.32                                   
 KNR08B2  S   2    445 22.56                                    2.16            
 KNR08    AMP      445 23.00     1.2e+07 0.16                                   
 KNR05BZ  P   0    445 17.88                                    0.08            
 KNR05    AMP      445 19.02     1.0e+06 0.12                                   
 KNR05B1  S   1    445 20.76                                    0.26            
 KNR05    AMP      445 21.58     1.6e+07 0.20                                   
 KNR07BH  P   1    445 18.52                                    0.72            
 KNR07B1  S   3    445 22.16                                    1.56            
 KNR07    AMP      445 22.76     4.3e+06 0.16                                   
 KNR06BZ  P   0    445 18.68                                    0.28            
 KNR06    AMP      445 19.56     1.0e+06 0.20                                   
 KNR06B2  S   3    445 21.76                                    0.06            
 KNR06    AMP      445 22.22     6.1e+06 0.16                                   
 KNR19BH  P   1    445 20.22                                    1.42            
 KNR19BZ  S   3    445 24.78                                    2.38            
 KNR19    AMP      445 25.98     6.5e+05 0.12                                   
 KNR17BH  P   1    445 18.98                                   -0.32            
 KNR17    AMP      445 22.16     4.0e+05 0.20                                   
 KNR17BZ  S   3    445 23.04                                   -0.26            
 KNR17    AMP      445 23.12     2.3e+06 0.12                                   
 KNR29    AMP      445 28.46     1.5e+07 0.16                                   
 KNR09BH  P   3    445 21.02                                    0.52            
 KNR09BH  S   3    445 24.50                                    -0.8            
 KNR10BH  P   0    445 21.52                                    1.02            
 KNR10    AMP      445 23.94     1.2e+06 0.16                                   
 KNR10BZ  S   3    445 26.92                                    1.52            
 KNR10    AMP      445 27.28     5.4e+06 0.12                                   
 KNR03BZ  P   1    445 20.60                                    -0.3            
 KNR03B1  S   3    445 25.16                                   -0.94            
 KNR03    AMP      445 25.60     2.0e+06 0.12                                   
 KNR04    AMP      445 31.38     1.1e+06 0.20                                   
 KNR11B1  S   4    445 23.68                                   -6.22            
 KNR11    AMP      445 32.46     3.4e+05 0.20                                   
 KNR12BH  P   3    445 23.92                                    0.62            
 KNR12    AMP      445 27.84     3.0e+06 0.24                                   
 KNR12    AMP      445 31.74     3.0e+06 0.20                                   
 KNR01    AMP      445 19.56     2.5e+05 0.12                                   
 KNR01BZ  S   4    445 25.58                                   -5.02            
 KNR01    AMP      445 32.24     2.0e+06 0.20                                   
 KNR02BZ  P   3    445 21.28                                   -2.32            
 KNR02    AMP      445 22.44     1.1e+07 0.20                                   
 KNR02    AMP      445 33.32     5.1e+06 0.24                                   
 KNR13    AMP      445 29.18     4.5e+04 0.16                                   
 KNR13BZ  S   3    445 30.84                                   -3.86            
 KNR13    AMP      445 32.82     5.9e+04 0.20                                   
 KNR14BH  S   3    445 32.50                                    -2.4            
 KNR16    AMP      445 41.68     1.4e+06 0.20                                   
                                                                                
