 2017  3 3 1349 26.5 L  76.558   7.212  0.0  AWI 26 0.9 6.1LAWI                1
                                                         ID:20170303134927     I
                           2.6    11.5  3.0                                    E
 2017-03-03_13-49-27.mseed                                                     6
 STAT SP IPHASW D HRMM SECON CODA AMPLIT PERI AZIMU VELO AIN AR TRES W  DIS CAZ7
 KNR21HZ  P   0   1349 27.04                                   -0.16            
 KNR21    AMP     1349 27.10     3.9e+07 0.12                                   
 KNR21H1  S   2   1349 28.44                                    0.74            
 KNR21    AMP     1349 29.20     4.9e+08 0.20                                   
 KNR23HZ  P   0   1349 26.36                                   -1.64            
 KNR23    AMP     1349 28.78     7.4e+05 0.16                                   
 KNR23H1  S   3   1349 30.20                                       1            
 KNR23    AMP     1349 29.00     2.4e+06 0.12                                   
 KNR28HZ  P   0   1349 28.80                                     0.5            
 KNR28    AMP     1349 29.40     2.7e+06 0.20                                   
 KNR28H1  S   1   1349 30.30                                     0.6            
 KNR28    AMP     1349 31.60     2.4e+07 0.20                                   
 KNR30HZ  P   0   1349 29.08                                    0.08            
 KNR30    AMP     1349 30.52     1.2e+06 0.12                                   
 KNR30H1  S   2   1349 30.20                                    -0.7            
 KNR30    AMP     1349 32.02     1.3e+07 0.12                                   
 KNR22HZ  P   0   1349 29.36                                   -0.04            
 KNR22    AMP     1349 30.22     8.4e+05 0.12                                   
 KNR22H1  S   0   1349 31.22                                   -0.38            
 KNR22    AMP     1349 31.44     8.1e+06 0.20                                   
 KNR20HZ  P   3   1349 31.62                                    1.62            
 KNR08BZ  P   0   1349 31.52                                    1.52            
 KNR08BZ  S   3   1349 33.06                                    0.36            
 KNR08    AMP     1349 35.86     2.6e+06 0.12                                   
 KNR18    P   0   1349 30.30                                     0.1            
 KNR18    S   2   1349 32.77                                   -0.33            
 KNR18    AMP     1349 33.42     1.8e+06 0.12                                   
 KNR07BH  P   3   1349 31.12                                    0.72            
 KNR07    AMP     1349 29.08     1.1e+05 0.24                                   
 KNR07BZ  S   3   1349 34.92                                    1.42            
 KNR07    AMP     1349 35.28     9.1e+05 0.12                                   
 KNR05BZ  P   0   1349 30.56                                   -0.14            
 KNR05    AMP     1349 33.12     4.6e+05 0.12                                   
 KNR05B1  S   3   1349 33.38                                   -0.52            
 KNR05    AMP     1349 34.12     4.8e+06 0.16                                   
 KNR06BH  P   1   1349 31.32                                    0.22            
 KNR19BH  P   3   1349 32.86                                    1.66            
 KNR19    AMP     1349 34.12     9.0e+04 0.40                                   
 KNR19BZ  S   3   1349 34.78                                   -0.12            
 KNR19    AMP     1349 38.20     1.8e+05 0.16                                   
 KNR17BH  P   3   1349 31.54                                   -0.56            
 KNR17    AMP     1349 35.74     9.6e+05 0.12                                   
 KNR29    AMP     1349 35.46     6.3e+06 0.60                                   
 KNR29    AMP     1349 37.62     8.2e+06 0.24                                   
 KNR10BH  P   2   1349 34.20                                     1.4            
 KNR10    AMP     1349 36.56     3.5e+05 0.12                                   
 KNR10BZ  S   3   1349 39.48                                    1.78            
 KNR10    AMP     1349 39.92     1.5e+06 0.12                                   
 KNR09    AMP     1349 41.18     3.0e+05 0.20                                   
 KNR03BZ  P   3   1349 33.18                                   -0.62            
 KNR03    AMP     1349 38.22     7.0e+05 0.08                                   
 KNR11B2  S   4   1349 37.74                                   -4.66            
 KNR11    AMP     1349 44.42     4.3e+04 0.48                                   
 KNR12    AMP     1349 42.50     3.5e+06 0.20                                   
 KNR01BZ  P   3   1349 36.14                                   -0.16            
 KNR01    AMP     1349 36.58     7.4e+04 0.88                                   
 KNR01    AMP     1349 44.86     6.0e+05 0.20                                   
 KNR13    AMP     1349 42.72     8.8e+04 0.20                                   
 KNR13BZ  S   3   1349 48.62                                    1.42            
 KNR13    AMP     1349 42.72     8.8e+04 0.20                                   
 KNR14BH  P   3   1349 39.44                                    1.14            
 KNR15    P   0   1349 40.47                                   -0.13            
 KNR15    S   2   1349 50.67                                   -0.73            
 KNR16BH  S   3   1349 47.56                                   -4.04            
 KNR16    AMP     1349 54.08     3.5e+05 0.24                                   
                                                                                
