 2017  3 3 1012 20.8 L  76.690   7.354  9.4  AWI 26 0.8 6.1LAWI                1
                                                         ID:20170303101221     I
                           3.2    18.3  7.5                                    E
 2017-03-03_10-12-21.mseed                                                     6
 STAT SP IPHASW D HRMM SECON CODA AMPLIT PERI AZIMU VELO AIN AR TRES W  DIS CAZ7
 KNR22HH  P   0   1012 22.50                                    -0.1            
 KNR22    AMP     1012 22.80     9.7e+05 0.12                                   
 KNR22H2  S   2   1012 24.54                                    0.54            
 KNR22    AMP     1012 24.68     2.9e+06 0.24                                   
 KNR05BH  P   0   1012 23.10                                    -0.1            
 KNR05    AMP     1012 24.64     1.5e+06 0.12                                   
 KNR05B2  S   2   1012 25.18                                    0.08            
 KNR05    AMP     1012 25.22     9.1e+06 0.20                                   
 KNR06BZ  P   0   1012 23.78                                    0.38            
 KNR06    AMP     1012 24.96     1.6e+06 0.08                                   
 KNR06B1  S   2   1012 26.04                                    0.64            
 KNR06    AMP     1012 26.14     2.9e+07 0.12                                   
 KNR30HZ  P   1   1012 24.12                                    0.72            
 KNR30    AMP     1012 24.62     8.2e+05 0.12                                   
 KNR30H1  S   3   1012 25.80                                     0.3            
 KNR30    AMP     1012 26.24     4.6e+06 0.08                                   
 KNR21HZ  P   0   1012 22.16                                   -1.34            
 KNR21    AMP     1012 24.86     1.5e+08 0.16                                   
 KNR21HZ  S   2   1012 25.62                                   0.020            
 KNR21    AMP     1012 24.78     2.8e+08 0.20                                   
 KNR28HZ  P   2   1012 23.86                                   -0.14            
 KNR28    AMP     1012 24.24     3.9e+05 0.28                                   
 KNR28H2  S   3   1012 26.14                                   -0.26            
 KNR28    AMP     1012 27.88     2.5e+06 0.20                                   
 KNR17BZ  P   0   1012 23.54                                   -0.36            
 KNR17    AMP     1012 25.62     3.8e+05 0.12                                   
 KNR17B1  S   2   1012 26.04                                   -0.26            
 KNR17    AMP     1012 26.48     1.2e+07 0.24                                   
 KNR29    P   0   1012 24.70                                     0.4            
 KNR29    AMP     1012 26.24     5.8e+06 0.24                                   
 KNR29    S   2   1012 27.23                                    0.13            
 KNR29    AMP     1012 26.78     7.5e+06 0.36                                   
 KNR18    P   0   1012 25.47                                    0.87            
 KNR18    S   2   1012 28.60                                       1            
 KNR23HZ  P   2   1012 25.62                                    1.12            
 KNR23    AMP     1012 25.76     5.6e+05 0.12                                   
 KNR23    AMP     1012 25.64     1.1e+06 0.16                                   
 KNR04    AMP     1012 24.58     4.7e+05 0.32                                   
 KNR04    AMP     1012 28.42     1.4e+06 0.32                                   
 KNR08BZ  P   3   1012 26.48                                    0.78            
 KNR08    AMP     1012 24.56     5.9e+04 0.88                                   
 KNR08    AMP     1012 32.24     2.9e+05 0.12                                   
 KNR03BZ  P   1   1012 25.56                                   -0.34            
 KNR03    AMP     1012 28.14     3.4e+05 0.20                                   
 KNR03    AMP     1012 31.50     6.1e+05 0.20                                   
 KNR07BH  P   3   1012 26.40                                     0.2            
 KNR07    AMP     1012 28.22     2.0e+05 0.16                                   
 KNR07    AMP     1012 32.44     8.0e+05 0.12                                   
 KNR19BZ  P   2   1012 25.94                                   -1.16            
 KNR19    AMP     1012 28.74     3.5e+05 0.16                                   
 KNR19    AMP     1012 36.44     5.7e+05 0.32                                   
 KNR02    AMP     1012 23.28     8.7e+06 0.20                                   
 KNR01    AMP     1012 23.74     4.0e+05 0.16                                   
 KNR01    AMP     1012 33.74     9.9e+05 0.28                                   
 KNR10BZ  P   2   1012 29.90                                     1.3            
 KNR10    AMP     1012 30.14     1.8e+05 0.12                                   
 KNR10    AMP     1012 37.34     6.4e+05 0.20                                   
 KNR11    AMP     1012 29.58     5.2e+04 0.68                                   
 KNR14BH  S   3   1012 40.60                                    -3.5            
 KNR13    AMP     1012 39.30     5.0e+04 0.28                                   
 KNR16BZ  P   3   1012 35.14                                   -1.16            
 KNR16    AMP     1012 41.02     5.7e+04 0.52                                   
 KNR16B2  S   3   1012 47.82                                   -0.38            
 KNR16    AMP     1012 47.44     4.9e+04 0.36                                   
 KNR15    P   0   1012 36.83                                    0.53            
 KNR15    S   2   1012 48.57                                    0.27            
                                                                                
