 2017  3 3 2058 11.4 L  76.486   7.035  0.0  AWI 26 1.1 6.5LAWI                1
                                                         ID:20170303205812     I
                           2.8    20.0  4.3                                    E
 2017-03-03_20-58-12.mseed                                                     6
 STAT SP IPHASW D HRMM SECON CODA AMPLIT PERI AZIMU VELO AIN AR TRES W  DIS CAZ7
 KNR23HZ  P   0   2058  9.84                                   -2.16            
 KNR23    AMP     2058 11.82     2.4e+07 0.12                                   
 KNR23HH  S   3   2058 14.00                                     1.5            
 KNR23    AMP     2058 12.16     1.8e+07 0.16                                   
 KNR07BH  P   0   2058 13.56                                   -0.24            
 KNR07    AMP     2058 14.96     1.6e+06 0.12                                   
 KNR07B1  S   2   2058 16.04                                    0.44            
 KNR07    AMP     2058 16.22     2.3e+07 0.16                                   
 KNR28HZ  P   0   2058 14.10                                       0            
 KNR28    AMP     2058 15.00     1.5e+06 0.20                                   
 KNR28H2  S   0   2058 16.22                                    0.12            
 KNR28    AMP     2058 17.98     4.0e+07 0.24                                   
 KNR21HZ  P   0   2058 12.50                                    -1.7            
 KNR21    AMP     2058 14.90     2.6e+08 0.16                                   
 KNR21H2  S   2   2058 17.12                                    0.82            
 KNR21    AMP     2058 14.90     2.6e+08 0.16                                   
 KNR08BH  P   0   2058 14.84                                    0.34            
 KNR08    AMP     2058 15.08     5.5e+05 0.12                                   
 KNR08BZ  S   2   2058 17.34                                    0.54            
 KNR08    AMP     2058 18.34     7.0e+06 0.12                                   
 KNR19BH  P   2   2058 15.36                                    0.36            
 KNR19B2  S   3   2058 17.42                                   -0.38            
 KNR19    AMP     2058 21.80     3.5e+06 0.24                                   
 KNR18    P   0   2058 15.67                                    0.37            
 KNR18    S   2   2058 18.34                                    0.04            
 KNR18    AMP     2058 18.70     2.0e+07 0.16                                   
 KNR30HZ  P   1   2058 17.62                                    2.32            
 KNR30    AMP     2058 17.74     2.3e+06 0.16                                   
 KNR30H2  S   3   2058 18.92                                    0.52            
 KNR30    AMP     2058 23.32     4.1e+06 0.20                                   
 KNR20HZ  P   3   2058 18.68                                    2.98            
 KNR20H1  S   3   2058 21.28                                    2.18            
 KNR20    AMP     2058 21.42     1.1e+07 0.12                                   
 KNR22HZ  P   0   2058 15.42                                   -0.28            
 KNR22    AMP     2058 16.00     6.4e+05 0.12                                   
 KNR22H2  S   0   2058 18.50                                    -0.5            
 KNR22    AMP     2058 19.12     7.0e+06 0.20                                   
 KNR09BH  P   3   2058 17.70                                     1.1            
 KNR05BH  P   2   2058 16.72                                    0.12            
 KNR05B2  S   3   2058 20.80                                     0.1            
 KNR05    AMP     2058 23.02     6.0e+06 0.20                                   
 KNR10BH  P   1   2058 16.90                                       0            
 KNR10BZ  S   0   2058 21.34                                    0.14            
 KNR10    AMP     2058 21.60     6.7e+06 0.16                                   
 KNR06BH  P   0   2058 17.36                                    0.06            
 KNR06B2  S   3   2058 21.70                                    -0.2            
 KNR06    AMP     2058 22.20     7.0e+06 0.12                                   
 KNR17BZ  P   1   2058 17.86                                   -0.44            
 KNR17BZ  S   3   2058 23.32                                   -0.28            
 KNR17    AMP     2058 24.34     4.8e+06 0.20                                   
 KNR29HZ  P   3   2058 20.98                                    2.38            
 KNR29    AMP     2058 14.58     2.4e+06 0.24                                   
 KNR03BZ  P   3   2058 19.42                                   -0.28            
 KNR03    AMP     2058 22.02     1.2e+05 0.16                                   
 KNR03B1  S   3   2058 25.24                                   -0.86            
 KNR03    AMP     2058 27.48     2.4e+06 0.16                                   
 KNR12BH  P   3   2058 18.26                                   -1.34            
 KNR12    AMP     2058 27.34     1.2e+07 0.24                                   
 KNR04BZ  P   3   2058 20.84                                    0.64            
 KNR04    AMP     2058 25.10     8.6e+04 0.16                                   
 KNR04    AMP     2058 30.14     1.0e+06 0.28                                   
 KNR13    AMP     2058 31.78     2.6e+05 0.32                                   
 KNR14BH  S   3   2058 30.06                                   -0.44            
 KNR14    AMP     2058 30.06     2.0e+05 0.20                                   
 KNR01BZ  P   0   2058 24.68                                    2.38            
 KNR01    AMP     2058 17.38     4.8e+05 0.12                                   
 KNR01    AMP     2058 33.54     6.2e+05 0.20                                   
 KNR02BH  S   3   2058 32.22                                    1.02            
 KNR15    P   0   2058 24.33                                    0.03            
 KNR15    S   2   2058 33.59                                   -0.71            
 KNR16    AMP     2058 28.82     4.8e+06 0.16                                   
                                                                                
