 2017  3 3 2017 33.3 L  76.610   7.268  6.8  AWI 26 0.8 6.4LAWI                1
                                                         ID:20170303201733     I
                           2.3    12.5  6.3                                    E
 2017-03-03_20-17-33.mseed                                                     6
 STAT SP IPHASW D HRMM SECON CODA AMPLIT PERI AZIMU VELO AIN AR TRES W  DIS CAZ7
 KNR21HZ  P   0   2017 33.48                                   -1.32            
 KNR21    AMP     2017 35.04     1.2e+09 0.12                                   
 KNR21H1  S   0   2017 36.48                                    0.48            
 KNR21    AMP     2017 35.14     2.8e+09 0.20                                   
 KNR22HZ  P   0   2017 34.94                                   -0.16            
 KNR22    AMP     2017 35.66     3.2e+06 0.20                                   
 KNR22H2  S   0   2017 36.34                                   -0.16            
 KNR22    AMP     2017 36.60     5.5e+07 0.20                                   
 KNR30HZ  P   0   2017 34.88                                   -0.42            
 KNR30    AMP     2017 36.38     7.4e+06 0.12                                   
 KNR30H2  S   1   2017 37.06                                    0.16            
 KNR30    AMP     2017 37.08     6.3e+07 0.08                                   
 KNR28HZ  P   0   2017 35.66                                    0.26            
 KNR28    AMP     2017 35.72     1.9e+07 0.12                                   
 KNR28H1  S   2   2017 38.16                                    1.06            
 KNR28    AMP     2017 38.26     2.0e+07 0.20                                   
 KNR23HZ  P   2   2017 35.84                                    0.14            
 KNR23    AMP     2017 36.20     6.2e+06 0.12                                   
 KNR23H1  S   1   2017 37.58                                   -0.02            
 KNR23    AMP     2017 36.26     6.4e+06 0.16                                   
 KNR05BH  P   1   2017 36.64                                    0.34            
 KNR05BH  S   3   2017 38.46                                   -0.14            
 KNR20HZ  P   1   2017 37.86                                    1.56            
 KNR20    AMP     2017 37.96     1.9e+06 0.12                                   
 KNR20H1  S   2   2017 39.24                                    0.64            
 KNR20    AMP     2017 39.06     2.1e+07 0.12                                   
 KNR18    P   0   2017 36.76                                    0.26            
 KNR18    S   2   2017 39.23                                    0.13            
 KNR18    AMP     2017 43.40     7.6e+06 0.16                                   
 KNR06BH  P   0   2017 36.86                                    0.26            
 KNR06    AMP     2017 37.74     4.2e+06 0.16                                   
 KNR06B2  S   2   2017 39.50                                     0.3            
 KNR06    AMP     2017 39.86     2.3e+07 0.12                                   
 KNR08BH  P   2   2017 37.72                                    0.72            
 KNR08    AMP     2017 39.22     2.2e+05 0.12                                   
 KNR08B2  S   3   2017 41.10                                     1.3            
 KNR08    AMP     2017 42.28     2.9e+06 0.24                                   
 KNR07BH  P   1   2017 37.76                                    0.26            
 KNR07BZ  S   3   2017 42.00                                     1.3            
 KNR07    AMP     2017 42.20     3.7e+06 0.12                                   
 KNR17BH  P   0   2017 37.34                                   -0.26            
 KNR17    AMP     2017 37.44     1.2e+06 0.12                                   
 KNR17B1  S   1   2017 40.82                                   -0.08            
 KNR17    AMP     2017 41.30     1.1e+07 0.24                                   
 KNR29HZ  P   3   2017 38.06                                    0.16            
 KNR29    AMP     2017 38.42     4.2e+06 0.32                                   
 KNR19BH  P   2   2017 39.38                                    1.08            
 KNR19BH  S   3   2017 41.54                                   -0.66            
 KNR19    AMP     2017 45.88     6.3e+05 0.24                                   
 KNR03BH  P   2   2017 41.80                                     2.4            
 KNR03B2  S   3   2017 43.92                                   -0.07            
 KNR03    AMP     2017 44.00     4.3e+06 0.20                                   
 KNR04BZ  P   3   2017 39.30                                    -0.1            
 KNR04    AMP     2017 42.14     1.6e+05 0.20                                   
 KNR04    AMP     2017 48.34     5.7e+05 0.24                                   
 KNR10BH  P   2   2017 40.44                                    0.54            
 KNR10    AMP     2017 43.02     3.6e+05 0.16                                   
 KNR10    AMP     2017 47.70     1.4e+06 0.12                                   
 KNR09BH  P   2   2017 40.14                                    0.14            
 KNR09BH  S   3   2017 43.56                                   -1.74            
 KNR01BZ  P   3   2017 38.70                                    -3.1            
 KNR01    AMP     2017 46.70     1.3e+05 0.12                                   
 KNR01BZ  S   3   2017 48.30                                       0            
 KNR01    AMP     2017 50.16     2.1e+06 0.24                                   
 KNR02BH  P   3   2017 41.66                                   -0.14            
 KNR11BZ  P   3   2017 42.42                                   -0.18            
 KNR11    AMP     2017 40.36     1.2e+05 0.40                                   
 KNR11BZ  S   3   2017 51.34                                    1.54            
 KNR11    AMP     2017 54.42     3.3e+05 0.20                                   
 KNR12    AMP     2017 50.84     3.5e+06 0.24                                   
 KNR13    AMP     2017 46.22     4.4e+04 0.24                                   
 KNR13BH  S   3   2017 51.72                                   -2.78            
 KNR13    AMP     2017 59.48     8.4e+04 0.20                                   
 KNR14BH  S   3   2017 52.18                                   -2.32            
 KNR15    P   0   2017 47.87                                    0.27            
 KNR15    S   2   2017 58.77                                   0.070            
                                                                                
