 2017  3 3 23 4 20.9 L  76.532   7.040  0.1  AWI 26 0.7 7.5LAWI                1
                                                         ID:20170303230421     I
                           1.7    11.1  2.5                                    E
 2017-03-03_23-04-21.mseed                                                     6
 STAT SP IPHASW D HRMM SECON CODA AMPLIT PERI AZIMU VELO AIN AR TRES W  DIS CAZ7
 KNR23HH  P   0   23 4 19.48                                   -2.12            
 KNR23    AMP     23 4 21.18     5.4e+08 0.16                                   
 KNR23HH  S   3   23 4 23.80                                     1.5            
 KNR23    AMP     23 4 21.98     2.5e+08 0.16                                   
 KNR28    P   0   23 4 23.09                                    0.69            
 KNR28    AMP     23 4 23.22     9.4e+07 0.32                                   
 KNR28    S   2   23 4 24.63                                    0.93            
 KNR28    AMP     23 4 24.86     4.1e+08 0.12                                   
 KNR21    P   0   23 4 22.99                                    0.29            
 KNR21    AMP     23 4 23.66     1.6e+10 0.16                                   
 KNR21    S   2   23 4 24.43                                    0.23            
 KNR21    AMP     23 4 23.28     2.1e+10 0.20                                   
 KNR07BH  P   0   23 4 24.40                                     0.4            
 KNR07    AMP     23 4 25.90     1.0e+07 0.12                                   
 KNR07B1  S   0   23 4 25.46                                   -0.94            
 KNR07    AMP     23 4 28.76     1.0e+08 0.16                                   
 KNR18    P   0   23 4 24.52                                    0.32            
 KNR18    S   2   23 4 27.11                                    0.31            
 KNR18    AMP     23 4 27.94     1.3e+08 0.20                                   
 KNR30HZ  P   0   23 4 23.70                                    -0.7            
 KNR30    AMP     23 4 26.52     6.0e+07 0.12                                   
 KNR30HZ  S   0   23 4 26.52                                   -0.58            
 KNR30    AMP     23 4 26.62     9.4e+07 0.08                                   
 KNR08BZ  P   0   23 4 25.18                                    0.78            
 KNR08B2  S   0   23 4 28.62                                    1.42            
 KNR08    AMP     23 4 29.32     1.1e+08 0.20                                   
 KNR22HH  P   0   23 4 24.44                                   -0.06            
 KNR22    AMP     23 4 25.78     7.9e+06 0.08                                   
 KNR22H1  S   0   23 4 27.10                                    -0.3            
 KNR22    AMP     23 4 27.40     1.6e+08 0.20                                   
 KNR20HZ  P   0   23 4 24.88                                   -0.12            
 KNR20    AMP     23 4 27.30     2.9e+06 0.12                                   
 KNR20H1  S   0   23 4 28.20                                       0            
 KNR20    AMP     23 4 28.40     1.2e+08 0.12                                   
 KNR05BH  P   0   23 4 25.66                                    0.26            
 KNR05B2  S   2   23 4 29.06                                    0.16            
 KNR05    AMP     23 4 33.88     1.0e+08 0.20                                   
 KNR19BH  P   0   23 4 26.16                                    0.96            
 KNR19    AMP     23 4 27.72     2.2e+06 0.12                                   
 KNR19BH  S   3   23 4 29.00                                     0.5            
 KNR19    AMP     23 4 31.98     1.2e+07 0.24                                   
 KNR06BH  P   0   23 4 26.44                                    0.24            
 KNR06B2  S   0   23 4 30.28                                   -0.02            
 KNR06    AMP     23 4 30.66     2.0e+08 0.12                                   
 KNR09BH  P   0   23 4 26.82                                    0.02            
 KNR09B1  S   2   23 4 31.72                                    0.42            
 KNR09    AMP     23 4 33.96     3.4e+07 0.16                                   
 KNR10BH  P   0   23 4 27.66                                    0.66            
 KNR10    AMP     23 4 29.68     2.2e+07 0.16                                   
 KNR10B1  S   3   23 4 32.92                                    1.12            
 KNR10    AMP     23 4 32.98     7.8e+07 0.16                                   
 KNR17BH  P   0   23 4 26.88                                   -0.12            
 KNR17B1  S   0   23 4 31.64                                   -0.16            
 KNR17    AMP     23 4 31.90     7.9e+07 0.20                                   
 KNR29    AMP     23 4 24.68     9.9e+06 0.20                                   
 KNR29HZ  S   3   23 4 34.32                                    1.72            
 KNR29    AMP     23 4 34.38     2.2e+07 0.12                                   
 KNR03BZ  P   0   23 4 28.28                                   -0.22            
 KNR03    AMP     23 4 31.04     6.5e+06 0.12                                   
 KNR03B1  S   1   23 4 33.68                                   -0.62            
 KNR03    AMP     23 4 34.38     8.0e+07 0.12                                   
 KNR04BZ  P   0   23 4 29.00                                       0            
 KNR04    AMP     23 4 32.44     7.9e+05 0.12                                   
 KNR04B1  S   2   23 4 35.16                                   -0.14            
 KNR04    AMP     23 4 37.48     2.5e+07 0.24                                   
 KNR11BH  P   0   23 4 29.16                                   -0.24            
 KNR12BH  P   0   23 4 29.98                                    0.18            
 KNR12B1  S   2   23 4 37.32                                    0.62            
 KNR12    AMP     23 4 38.20     3.4e+07 0.20                                   
 KNR01BZ  P   0   23 4 31.14                                    0.04            
 KNR01    AMP     23 4 33.26     2.4e+06 0.12                                   
 KNR01B2  S   0   23 4 38.50                                    -0.4            
 KNR01    AMP     23 4 40.26     6.8e+07 0.20                                   
 KNR02BH  P   0   23 4 31.30                                    -0.1            
 KNR02B1  S   3   23 4 39.16                                   -0.24            
 KNR02    AMP     23 4 40.10     9.5e+06 0.24                                   
 KNR13BH  S   3   23 4 36.74                                   -3.96            
 KNR14BH  P   0   23 4 32.04                                   -0.36            
 KNR14B1  S   3   23 4 40.60                                    -0.6            
 KNR14    AMP     23 4 41.38     2.4e+06 0.16                                   
 KNR15BH  S   4   23 4 40.38                                   -4.62            
                                                                                
