 2017  3 3 2219 30.5 L  76.541   7.047  1.0  AWI 26 0.6 7.6LAWI                1
                                                         ID:20170303221930     I
                           1.3     8.6  2.9                                    E
 2017-03-03_22-19-30.mseed                                                     6
 STAT SP IPHASW D HRMM SECON CODA AMPLIT PERI AZIMU VELO AIN AR TRES W  DIS CAZ7
 KNR23    P   0   2219 31.58                                    0.08            
 KNR23    AMP     2219 30.60     1.0e+09 0.12                                   
 KNR23    S   2   2219 32.39                                   0.089            
 KNR23    AMP     2219 32.04     2.7e+08 0.16                                   
 KNR28    P   0   2219 32.24                                    0.34            
 KNR28    AMP     2219 32.62     5.5e+07 0.16                                   
 KNR28    S   2   2219 33.56                                    0.46            
 KNR28    AMP     2219 35.78     5.4e+08 0.16                                   
 KNR21    P   0   2219 31.76                                   -0.44            
 KNR21    AMP     2219 33.04     3.1e+10 0.20                                   
 KNR21    S   2   2219 32.72                                   -0.78            
 KNR21    AMP     2219 32.66     4.4e+10 0.20                                   
 KNR18    P   0   2219 33.83                                    0.23            
 KNR18    S   2   2219 36.37                                    0.27            
 KNR18    AMP     2219 37.36     3.3e+08 0.20                                   
 KNR07BH  P   0   2219 33.82                                    0.22            
 KNR07    AMP     2219 35.34     1.7e+07 0.12                                   
 KNR07B1  S   0   2219 34.96                                   -1.14            
 KNR07    AMP     2219 37.62     2.4e+08 0.16                                   
 KNR30HZ  P   0   2219 33.12                                   -0.58            
 KNR30    AMP     2219 35.48     2.2e+07 0.20                                   
 KNR30H1  S   0   2219 35.82                                   -0.38            
 KNR30    AMP     2219 36.48     2.3e+08 0.24                                   
 KNR08BZ  P   0   2219 34.60                                     0.7            
 KNR08BH  S   3   2219 38.26                                    1.66            
 KNR22HH  P   0   2219 33.80                                    -0.1            
 KNR22    AMP     2219 35.00     1.0e+07 0.12                                   
 KNR22H1  S   0   2219 36.50                                       0            
 KNR22    AMP     2219 36.78     3.0e+08 0.24                                   
 KNR20HZ  P   0   2219 34.26                                   -0.14            
 KNR20    AMP     2219 36.52     4.0e+06 0.08                                   
 KNR20H1  S   1   2219 37.62                                    0.12            
 KNR20    AMP     2219 37.82     1.2e+08 0.16                                   
 KNR05BH  P   0   2219 35.04                                    0.34            
 KNR05BH  S   2   2219 37.84                                   -0.06            
 KNR05    AMP     2219 40.54     2.0e+08 0.24                                   
 KNR19BH  P   0   2219 35.58                                    0.78            
 KNR19    AMP     2219 37.34     4.9e+06 0.12                                   
 KNR19B1  S   2   2219 39.28                                    1.18            
 KNR19    AMP     2219 41.42     3.1e+07 0.24                                   
 KNR06BH  P   0   2219 35.86                                    0.36            
 KNR06    AMP     2219 37.94     1.1e+07 0.12                                   
 KNR06B2  S   0   2219 39.66                                    0.26            
 KNR06    AMP     2219 40.12     3.2e+08 0.16                                   
 KNR09BH  P   0   2219 36.26                                   -0.04            
 KNR09B1  S   2   2219 41.14                                    0.24            
 KNR09    AMP     2219 43.40     6.9e+07 0.20                                   
 KNR17BH  P   0   2219 36.26                                   -0.04            
 KNR17B1  S   0   2219 41.12                                    0.22            
 KNR17    AMP     2219 41.30     1.6e+08 0.24                                   
 KNR10BZ  P   0   2219 37.08                                    0.48            
 KNR10    AMP     2219 39.12     4.2e+07 0.12                                   
 KNR10B1  S   3   2219 42.36                                    1.06            
 KNR10    AMP     2219 42.58     1.5e+08 0.16                                   
 KNR29HZ  S   3   2219 41.14                                   -0.56            
 KNR29    AMP     2219 42.68     3.9e+07 0.12                                   
 KNR03    P   0   2219 37.31                                   -0.49            
 KNR03    AMP     2219 40.46     4.9e+06 0.12                                   
 KNR03    S   2   2219 42.53                                   -0.87            
 KNR03    AMP     2219 43.74     9.3e+07 0.12                                   
 KNR04BZ  P   0   2219 38.46                                    0.16            
 KNR04    AMP     2219 43.26     1.2e+06 0.12                                   
 KNR04BZ  S   2   2219 44.60                                     0.3            
 KNR04    AMP     2219 46.88     5.1e+07 0.24                                   
 KNR11BH  P   0   2219 38.58                                   -0.42            
 KNR11B1  S   3   2219 45.18                                   -0.32            
 KNR11    AMP     2219 50.36     5.8e+06 0.16                                   
 KNR12BH  P   0   2219 39.40                                       0            
 KNR12B1  S   2   2219 46.82                                    0.62            
 KNR12    AMP     2219 47.48     6.5e+07 0.16                                   
 KNR01BZ  P   2   2219 42.20                                     1.9            
 KNR01    AMP     2219 43.00     2.7e+06 0.16                                   
 KNR01B1  S   0   2219 47.96                                   -0.04            
 KNR01    AMP     2219 49.48     1.4e+08 0.20                                   
 KNR02BH  P   0   2219 40.60                                    -0.1            
 KNR02B1  S   2   2219 48.56                                    0.06            
 KNR02    AMP     2219 49.50     2.1e+07 0.20                                   
 KNR13    AMP     2219 46.28     7.2e+05 0.08                                   
 KNR13    AMP     2219 55.20     1.8e+07 0.12                                   
 KNR14BH  P   0   2219 41.46                                   -0.44            
 KNR14B1  S   2   2219 50.04                                   -0.76            
 KNR14    AMP     2219 50.64     6.4e+06 0.20                                   
 KNR15BH  P   3   2219 45.08                                    0.98            
 KNR15BH  S   3   2219 57.86                                    3.26            
 KNR16BH  P   3   2219 43.76                                   -0.54            
 KNR16    AMP     2219 46.46     4.6e+06 0.20                                   
 KNR16    AMP     2219 55.02     1.0e+07 0.20                                   
                                                                                
