 2017  3 4  023 13.0 L  76.535   7.121  0.0  AWI 26 0.8 6.8LAWI                1
                                                         ID:20170304002313     I
                           1.9    10.6  2.5                                    E
 2017-03-04_00-23-13.mseed                                                     6
 STAT SP IPHASW D HRMM SECON CODA AMPLIT PERI AZIMU VELO AIN AR TRES W  DIS CAZ7
 KNR23HZ  P   0    023 11.60                                    -2.2            
 KNR23    AMP      023 13.30     9.5e+07 0.12                                   
 KNR23HH  S   3    023 15.94                                    1.54            
 KNR23    AMP      023 14.18     4.3e+07 0.12                                   
 KNR21HZ  P   0    023 13.56                                   -0.84            
 KNR21    AMP      023 15.32     2.9e+09 0.16                                   
 KNR21H2  S   0    023 15.60                                       0            
 KNR21    AMP      023 15.66     3.4e+09 0.16                                   
 KNR28HZ  P   0    023 15.24                                    0.54            
 KNR28    AMP      023 15.30     1.9e+07 0.08                                   
 KNR28HZ  S   0    023 16.00                                    -0.1            
 KNR28    AMP      023 18.44     6.2e+07 0.16                                   
 KNR30HZ  P   0    023 15.76                                   -0.34            
 KNR30    AMP      023 18.02     3.3e+06 0.16                                   
 KNR30HZ  S   2    023 18.56                                   -0.04            
 KNR30    AMP      023 19.62     1.5e+07 0.12                                   
 KNR08BH  P   0    023 17.28                                    0.98            
 KNR08    AMP      023 17.46     4.3e+06 0.16                                   
 KNR08BZ  S   1    023 18.92                                   -0.07            
 KNR08    AMP      023 21.28     2.2e+07 0.12                                   
 KNR07BH  P   0    023 16.58                                    0.18            
 KNR07    AMP      023 18.56     1.8e+06 0.12                                   
 KNR07B1  S   1    023 19.64                                    0.54            
 KNR07    AMP      023 20.04     1.6e+07 0.12                                   
 KNR22HH  P   0    023 16.48                                   -0.02            
 KNR22    AMP      023 18.46     1.1e+06 0.20                                   
 KNR22H1  S   0    023 19.16                                   -0.04            
 KNR22    AMP      023 19.50     1.9e+07 0.20                                   
 KNR18    P   0    023 16.71                                    0.11            
 KNR18    S   2    023 19.25                                   -0.15            
 KNR18    AMP      023 20.16     5.7e+07 0.16                                   
 KNR20HZ  P   2    023 16.96                                    0.16            
 KNR20    AMP      023 18.82     6.1e+05 0.12                                   
 KNR20H1  S   3    023 20.24                                    0.44            
 KNR20    AMP      023 20.32     1.1e+07 0.16                                   
 KNR05BH  P   0    023 17.78                                    0.28            
 KNR05B1  S   2    023 21.44                                    0.54            
 KNR05    AMP      023 25.86     1.8e+07 0.24                                   
 KNR19BH  P   2    023 18.32                                    1.02            
 KNR19B2  S   3    023 20.02                                   -0.68            
 KNR19    AMP      023 24.12     2.5e+06 0.20                                   
 KNR06BH  P   0    023 18.50                                     0.4            
 KNR06    AMP      023 20.52     1.9e+06 0.08                                   
 KNR06B1  S   0    023 22.54                                    0.54            
 KNR06    AMP      023 22.88     4.3e+07 0.12                                   
 KNR09BH  P   3    023 18.94                                   -0.06            
 KNR09    AMP      023 26.10     5.9e+06 0.20                                   
 KNR10BH  P   0    023 19.78                                    0.68            
 KNR10    AMP      023 21.80     3.2e+06 0.16                                   
 KNR10B1  S   3    023 25.04                                    1.24            
 KNR10    AMP      023 25.24     1.2e+07 0.12                                   
 KNR17BH  P   0    023 18.96                                   -0.03            
 KNR17B2  S   2    023 23.52                                   -0.18            
 KNR17    AMP      023 24.40     1.0e+07 0.28                                   
 KNR29    P   0    023 19.16                                   -0.24            
 KNR29    AMP      023 20.42     1.5e+07 0.12                                   
 KNR29    S   2    023 23.58                                   -0.82            
 KNR03BZ  P   0    023 20.48                                   -0.12            
 KNR03B1  S   2    023 25.80                                    -0.7            
 KNR03    AMP      023 26.34     7.4e+06 0.12                                   
 KNR04BZ  P   3    023 21.46                                    0.56            
 KNR04    AMP      023 25.28     1.7e+05 0.12                                   
 KNR04B2  S   3    023 28.82                                    1.72            
 KNR04    AMP      023 30.26     9.7e+05 0.12                                   
 KNR11BH  P   3    023 21.30                                    -0.3            
 KNR11    AMP      023 25.28     5.4e+05 0.32                                   
 KNR11BZ  S   3    023 24.50                                    -3.7            
 KNR12    AMP      023 31.88     1.7e+07 0.16                                   
 KNR01BZ  P   3    023 23.18                                   0.079            
 KNR01B1  S   2    023 30.72                                   -0.28            
 KNR01    AMP      023 32.32     1.1e+07 0.20                                   
 KNR02BH  P   3    023 23.44                                    0.14            
 KNR02    AMP      023 23.48     2.7e+06 0.24                                   
 KNR02    AMP      023 34.56     4.0e+06 0.20                                   
 KNR13BH  P   2    023 26.94                                    2.64            
 KNR13    AMP      023 37.84     9.4e+05 0.16                                   
 KNR14BH  P   3    023 24.26                                   -0.24            
                                                                                
