 2017  3 4  442 19.3 L  76.521   7.057  1.0  AWI 26 0.9 6.4LAWI                1
                                                         ID:20170304044219     I
                           2.3    16.9  2.9                                    E
 2017-03-04_04-42-19.mseed                                                     6
 STAT SP IPHASW D HRMM SECON CODA AMPLIT PERI AZIMU VELO AIN AR TRES W  DIS CAZ7
 KNR23HZ  P   0    442 18.50                                    -1.4            
 KNR23    AMP      442 19.02     4.0e+07 0.12                                   
 KNR23HH  S   3    442 21.64                                    1.34            
 KNR23    AMP      442 20.14     2.7e+07 0.16                                   
 KNR28HZ  P   0    442 21.00                                    -0.2            
 KNR28    AMP      442 22.12     8.6e+06 0.20                                   
 KNR28H2  S   2    442 22.54                                   -0.06            
 KNR28    AMP      442 22.64     1.9e+07 0.12                                   
 KNR21    P   0    442 21.52                                    0.32            
 KNR21    AMP      442 21.28     6.6e+08 0.12                                   
 KNR21    S   2    442 23.09                                    0.39            
 KNR21    AMP      442 21.78     1.4e+09 0.16                                   
 KNR07BZ  P   2    442 23.24                                    1.14            
 KNR07    AMP      442 23.64     7.1e+05 0.12                                   
 KNR07B1  S   3    442 25.26                                    0.86            
 KNR07    AMP      442 28.08     5.9e+06 0.16                                   
 KNR08BZ  P   0    442 22.94                                    0.44            
 KNR08    AMP      442 23.18     1.1e+06 0.08                                   
 KNR08BZ  S   3    442 24.66                                   -0.34            
 KNR08    AMP      442 26.94     3.1e+06 0.12                                   
 KNR30HZ  P   1    442 24.38                                    1.78            
 KNR30    AMP      442 24.68     3.3e+06 0.08                                   
 KNR30H1  S   3    442 25.62                                    0.32            
 KNR30    AMP      442 25.26     6.3e+06 0.20                                   
 KNR18    P   0    442 22.58                                   -0.12            
 KNR18    S   2    442 24.90                                    -0.4            
 KNR18    AMP      442 25.74     6.1e+06 0.20                                   
 KNR22HZ  P   0    442 22.40                                    -0.5            
 KNR22    AMP      442 25.10     1.3e+06 0.12                                   
 KNR22H1  S   0    442 25.00                                    -0.7            
 KNR22    AMP      442 25.28     6.4e+06 0.20                                   
 KNR20HZ  P   2    442 22.74                                   -0.46            
 KNR20    AMP      442 25.16     2.4e+05 0.12                                   
 KNR20H1  S   3    442 26.12                                   -0.18            
 KNR20    AMP      442 26.26     7.7e+06 0.12                                   
 KNR19BH  P   2    442 24.04                                    0.74            
 KNR19    AMP      442 25.54     1.5e+05 0.16                                   
 KNR19B2  S   3    442 25.70                                    -0.6            
 KNR19    AMP      442 31.08     1.0e+06 0.24                                   
 KNR05BH  P   2    442 23.60                                    -0.2            
 KNR05    AMP      442 26.56     5.5e+05 0.08                                   
 KNR05B1  S   3    442 27.20                                    -0.1            
 KNR05    AMP      442 27.82     1.9e+06 0.12                                   
 KNR06BZ  P   1    442 24.40                                    -0.1            
 KNR06B1  S   3    442 28.30                                    -0.3            
 KNR06    AMP      442 28.62     1.3e+07 0.12                                   
 KNR10BH  P   0    442 25.50                                     0.4            
 KNR10B1  S   3    442 30.78                                    1.18            
 KNR10    AMP      442 30.78     4.6e+06 0.20                                   
 KNR17BH  P   2    442 24.80                                    -0.6            
 KNR17    AMP      442 29.22     3.7e+05 0.16                                   
 KNR17    AMP      442 30.10     4.9e+06 0.28                                   
 KNR29HZ  P   3    442 26.22                                    0.42            
 KNR29    AMP      442 28.20     3.6e+06 0.36                                   
 KNR03BH  P   2    442 28.84                                    1.94            
 KNR03    AMP      442 31.88     2.0e+06 0.20                                   
 KNR03BZ  S   2    442 31.86                                   -0.94            
 KNR03    AMP      442 32.18     3.6e+06 0.12                                   
 KNR04B2  S   3    442 29.60                                      -4            
 KNR04    AMP      442 35.38     1.5e+06 0.28                                   
 KNR12    AMP      442 37.34     2.9e+06 0.20                                   
 KNR01BZ  P   3    442 29.52                                   0.020            
 KNR01    AMP      442 32.92     1.4e+05 0.08                                   
 KNR01    AMP      442 38.12     2.7e+06 0.20                                   
 KNR13BZ  P   3    442 28.80                                    -1.4            
 KNR13    AMP      442 34.66     6.9e+04 0.16                                   
 KNR13    AMP      442 43.48     3.0e+05 0.12                                   
 KNR14BH  S   3    442 38.14                                   -0.86            
 KNR16    P   0    442 32.41                                   -0.39            
 KNR16    S   2    442 42.21                                   -0.99            
                                                                                
