 2017  3 4  458 44.2 L  76.539   7.119  0.0  AWI 26 0.7 7.0LAWI                1
                                                         ID:20170304045844     I
                           1.8    10.6  2.6                                    E
 2017-03-04_04-58-44.mseed                                                     6
 STAT SP IPHASW D HRMM SECON CODA AMPLIT PERI AZIMU VELO AIN AR TRES W  DIS CAZ7
 KNR23HZ  P   0    458 42.64                                   -2.46            
 KNR23    AMP      458 44.36     2.1e+08 0.12                                   
 KNR23HH  S   3    458 47.00                                     1.3            
 KNR23    AMP      458 45.24     8.3e+07 0.12                                   
 KNR21    P   0    458 45.44                                   -0.16            
 KNR21    AMP      458 46.42     7.8e+09 0.16                                   
 KNR21    S   2    458 46.40                                    -0.3            
 KNR21    AMP      458 46.58     1.2e+10 0.12                                   
 KNR28HZ  P   0    458 46.28                                    0.48            
 KNR28    AMP      458 46.34     2.9e+07 0.08                                   
 KNR28H1  S   0    458 47.84                                    0.74            
 KNR28    AMP      458 48.66     1.2e+08 0.12                                   
 KNR30HZ  P   0    458 46.80                                    -0.5            
 KNR30    AMP      458 48.26     5.1e+06 0.12                                   
 KNR30H1  S   1    458 49.48                                   -0.22            
 KNR30    AMP      458 50.14     4.7e+07 0.24                                   
 KNR08BZ  P   0    458 48.32                                    0.72            
 KNR08    AMP      458 48.52     6.0e+06 0.20                                   
 KNR08B2  S   1    458 51.78                                    1.48            
 KNR08    AMP      458 52.38     3.7e+07 0.12                                   
 KNR07BH  P   0    458 47.62                                   -0.08            
 KNR07    AMP      458 49.56     4.5e+06 0.12                                   
 KNR07B1  S   0    458 50.82                                    0.52            
 KNR07    AMP      458 51.40     5.0e+07 0.16                                   
 KNR22HH  P   0    458 47.52                                   -0.08            
 KNR22    AMP      458 48.90     2.1e+06 0.20                                   
 KNR22H2  S   0    458 50.20                                    -0.1            
 KNR22    AMP      458 50.52     3.9e+07 0.20                                   
 KNR18    P   0    458 47.51                                   -0.29            
 KNR18    S   2    458 50.05                                   -0.45            
 KNR18    AMP      458 51.10     6.6e+07 0.20                                   
 KNR20HZ  P   0    458 47.98                                   -0.02            
 KNR20    AMP      458 50.16     8.0e+05 0.08                                   
 KNR20HH  S   3    458 51.44                                    0.44            
 KNR05BH  P   0    458 48.82                                    0.22            
 KNR05B2  S   2    458 52.32                                    0.32            
 KNR05    AMP      458 54.24     3.9e+07 0.20                                   
 KNR19BH  P   0    458 49.38                                    0.78            
 KNR19    AMP      458 51.10     8.2e+05 0.16                                   
 KNR19B2  S   3    458 53.04                                    1.04            
 KNR19    AMP      458 56.80     5.9e+06 0.20                                   
 KNR06BH  P   0    458 49.48                                    0.28            
 KNR06B2  S   0    458 53.38                                    0.28            
 KNR06    AMP      458 54.04     5.8e+07 0.12                                   
 KNR09BH  P   3    458 50.00                                    -0.3            
 KNR09    AMP      458 57.08     1.1e+07 0.16                                   
 KNR17BH  P   0    458 50.00                                    -0.2            
 KNR17    AMP      458 52.52     1.3e+06 0.12                                   
 KNR17BZ  S   2    458 54.88                                   0.079            
 KNR17    AMP      458 55.28     1.8e+07 0.24                                   
 KNR10BH  P   0    458 50.82                                    0.52            
 KNR10    AMP      458 52.86     5.8e+06 0.16                                   
 KNR10B1  S   2    458 56.10                                       1            
 KNR10    AMP      458 56.30     2.8e+07 0.12                                   
 KNR29    AMP      458 53.20     2.7e+06 0.16                                   
 KNR29HZ  S   3    458 54.88                                   -0.62            
 KNR29    AMP      458 57.96     6.6e+06 0.12                                   
 KNR03BZ  P   0    458 51.52                                   -0.18            
 KNR03B1  S   2    458 56.84                                   -0.76            
 KNR03    AMP      458 57.38     1.2e+07 0.12                                   
 KNR04B2  S   3    458 58.50                                     0.3            
 KNR04    AMP      459  0.56     6.6e+06 0.24                                   
 KNR11BZ  P   3    458 54.08                                    1.28            
 KNR11BH  S   3    458 57.64                                   -1.86            
 KNR11    AMP      458 59.38     1.1e+06 0.16                                   
 KNR12BH  P   2    458 53.24                                    0.14            
 KNR12    AMP      459  1.42     1.2e+07 0.16                                   
 KNR01BZ  P   3    458 55.66                                    1.36            
 KNR01    AMP      458 57.48     5.1e+05 0.12                                   
 KNR01B1  S   2    459  1.74                                   -0.36            
 KNR01    AMP      459  3.24     1.7e+07 0.20                                   
 KNR14BH  P   3    458 55.28                                   -0.42            
                                                                                
