 2017  3 4  449 11.0 L  76.537   7.094  0.0  AWI 26 0.9 7.0LAWI                1
                                                         ID:20170304044911     I
                           1.9    11.8  2.9                                    E
 2017-03-04_04-49-11.mseed                                                     6
 STAT SP IPHASW D HRMM SECON CODA AMPLIT PERI AZIMU VELO AIN AR TRES W  DIS CAZ7
 KNR23HZ  P   0    449  9.42                                   -2.38            
 KNR23    AMP      449 11.22     2.5e+08 0.12                                   
 KNR23HH  S   3    449 13.76                                    1.36            
 KNR23    AMP      449 11.96     1.8e+08 0.12                                   
 KNR21    P   0    449 12.40                                    -0.1            
 KNR21    AMP      449 13.38     5.9e+09 0.16                                   
 KNR21    S   2    449 13.36                                   -0.34            
 KNR21    AMP      449 13.64     6.4e+09 0.16                                   
 KNR28HZ  P   0    449 13.10                                     0.5            
 KNR28    AMP      449 13.16     2.7e+07 0.08                                   
 KNR28H1  S   0    449 14.68                                    0.88            
 KNR28    AMP      449 14.86     1.6e+08 0.12                                   
 KNR30HZ  P   0    449 13.68                                   -0.52            
 KNR30    AMP      449 16.16     6.9e+06 0.08                                   
 KNR30H1  S   1    449 16.50                                    -0.2            
 KNR30    AMP      449 17.42     2.6e+07 0.20                                   
 KNR07BH  P   0    449 14.34                                    0.04            
 KNR07    AMP      449 16.40     3.9e+06 0.20                                   
 KNR07B2  S   1    449 17.46                                    0.46            
 KNR07    AMP      449 17.96     4.1e+07 0.16                                   
 KNR08BZ  P   0    449 15.14                                    0.64            
 KNR08    AMP      449 15.30     6.5e+06 0.08                                   
 KNR08B2  S   0    449 18.58                                    1.38            
 KNR08    AMP      449 19.28     4.3e+07 0.20                                   
 KNR18    P   0    449 14.47                                   -0.03            
 KNR18    S   2    449 17.01                                   -0.19            
 KNR18    AMP      449 17.86     4.7e+07 0.20                                   
 KNR22HH  P   0    449 14.30                                    -0.2            
 KNR22    AMP      449 15.82     2.5e+06 0.20                                   
 KNR22H1  S   0    449 17.12                                   -0.08            
 KNR22    AMP      449 17.40     3.7e+07 0.20                                   
 KNR20HZ  P   0    449 14.86                                   -0.04            
 KNR20    AMP      449 17.28     1.3e+06 0.12                                   
 KNR20H1  S   0    449 18.24                                    0.24            
 KNR20    AMP      449 18.62     5.0e+07 0.12                                   
 KNR05BH  P   0    449 15.64                                    0.24            
 KNR05B1  S   2    449 19.34                                    0.44            
 KNR05    AMP      449 23.86     3.0e+07 0.20                                   
 KNR19BH  P   0    449 16.12                                    0.72            
 KNR19    AMP      449 17.90     1.1e+06 0.12                                   
 KNR19B1  S   3    449 19.74                                    0.94            
 KNR19    AMP      449 22.46     2.8e+06 0.16                                   
 KNR06BH  P   0    449 16.44                                    0.34            
 KNR06B2  S   0    449 20.32                                    0.22            
 KNR06    AMP      449 20.80     6.4e+07 0.12                                   
 KNR09BH  P   2    449 16.82                                   -0.18            
 KNR09    AMP      449 23.88     1.1e+07 0.20                                   
 KNR17BZ  P   0    449 16.88                                   -0.12            
 KNR17    AMP      449 18.54     1.6e+06 0.08                                   
 KNR17B2  S   0    449 21.50                                    -0.2            
 KNR17    AMP      449 22.34     2.9e+07 0.20                                   
 KNR10BH  P   0    449 17.60                                     0.5            
 KNR10    AMP      449 19.62     5.8e+06 0.16                                   
 KNR10BZ  S   3    449 22.66                                    0.76            
 KNR10    AMP      449 22.98     2.7e+07 0.16                                   
 KNR29    AMP      449 22.06     5.5e+06 0.20                                   
 KNR29    AMP      449 23.34     1.1e+07 0.12                                   
 KNR03    P   0    449 17.95                                   -0.55            
 KNR03    AMP      449 21.08     3.0e+06 0.12                                   
 KNR03    S   2    449 23.17                                   -1.23            
 KNR03    AMP      449 24.30     2.7e+07 0.12                                   
 KNR04    AMP      449 27.34     5.1e+06 0.24                                   
 KNR11BH  P   3    449 19.10                                    -0.5            
 KNR11B1  S   3    449 25.04                                   -1.16            
 KNR11    AMP      449 30.48     8.5e+05 0.16                                   
 KNR12BH  P   2    449 20.00                                     0.1            
 KNR12B2  S   3    449 27.72                                    0.82            
 KNR12    AMP      449 27.98     1.3e+07 0.20                                   
 KNR01BZ  P   1    449 21.10                                       0            
 KNR01    AMP      449 23.22     9.8e+05 0.12                                   
 KNR01B1  S   2    449 28.58                                   -0.32            
 KNR01    AMP      449 30.14     2.0e+07 0.20                                   
 KNR02BH  P   3    449 21.08                                   -0.22            
 KNR02BH  S   3    449 25.48                                   -3.82            
 KNR13BZ  P   2    449 24.60                                     2.3            
 KNR13    AMP      449 26.80     2.0e+05 0.16                                   
 KNR13BZ  S   3    449 32.94                                    1.94            
 KNR13    AMP      449 35.86     2.8e+06 0.12                                   
 KNR14BH  P   2    449 22.00                                    -0.5            
 KNR14BH  S   4    449 27.14                                   -4.26            
 KNR14    AMP      449 31.12     9.6e+05 0.20                                   
 KNR16    P   0    449 24.06                                   -0.84            
 KNR16    S   2    449 33.91                                   -1.79            
                                                                                
