 2017  3 4  540 48.6 L  76.750   7.227 10.7  AWI 26 0.7 6.6LAWI                1
                                                         ID:20170304054048     I
                           1.7    11.8  4.6                                    E
 2017-03-04_05-40-48.mseed                                                     6
 STAT SP IPHASW D HRMM SECON CODA AMPLIT PERI AZIMU VELO AIN AR TRES W  DIS CAZ7
 KNR05BH  P   0    540 50.92                                    0.12            
 KNR05    AMP      540 51.90     1.4e+06 0.20                                   
 KNR05B2  S   0    540 52.62                                    0.12            
 KNR05    AMP      540 53.98     2.5e+07 0.12                                   
 KNR17BZ  P   0    540 50.84                                   -0.36            
 KNR17    AMP      540 52.42     1.8e+06 0.12                                   
 KNR17B2  S   0    540 53.04                                   -0.16            
 KNR17    AMP      540 54.16     5.7e+07 0.28                                   
 KNR22HH  P   0    540 51.12                                   -0.07            
 KNR22    AMP      540 52.20     1.7e+06 0.12                                   
 KNR22H1  S   0    540 53.48                                    0.28            
 KNR22    AMP      540 54.42     1.9e+07 0.20                                   
 KNR06BH  P   0    540 51.86                                    0.36            
 KNR06    AMP      540 52.74     6.3e+06 0.16                                   
 KNR06B2  S   2    540 54.24                                    0.44            
 KNR06    AMP      540 55.16     2.6e+07 0.16                                   
 KNR29HZ  P   2    540 52.30                                     0.2            
 KNR29    AMP      540 53.72     4.4e+06 0.08                                   
 KNR29HZ  S   3    540 54.46                                   -0.24            
 KNR29    AMP      540 55.34     8.7e+06 0.12                                   
 KNR21HZ  P   2    540 51.00                                    -1.2            
 KNR21    AMP      540 54.04     2.2e+08 0.16                                   
 KNR21H1  S   0    540 54.82                                   -0.18            
 KNR21    AMP      540 55.04     1.3e+09 0.16                                   
 KNR30HZ  P   1    540 52.74                                    0.54            
 KNR30    AMP      540 53.66     2.2e+06 0.16                                   
 KNR30HZ  S   2    540 55.24                                    0.24            
 KNR30    AMP      540 56.50     1.8e+07 0.16                                   
 KNR28HZ  P   2    540 52.10                                    -0.2            
 KNR28    AMP      540 54.60     9.4e+05 0.12                                   
 KNR28HZ  S   2    540 54.72                                   -0.48            
 KNR28    AMP      540 58.84     1.2e+07 0.08                                   
 KNR03BZ  P   0    540 52.68                                   -0.02            
 KNR03    AMP      540 55.26     1.4e+06 0.16                                   
 KNR03B2  S   0    540 55.96                                    0.06            
 KNR03    AMP      540 57.24     1.8e+07 0.20                                   
 KNR18    P   0    540 53.17                                    0.57            
 KNR18    S   2    540 56.56                                    0.86            
 KNR18    AMP      540 57.46     4.0e+07 0.16                                   
 KNR04BZ  P   3    540 53.12                                    0.12            
 KNR04    AMP      540 55.44     5.6e+05 0.28                                   
 KNR04B1  S   3    540 56.64                                    0.14            
 KNR04    AMP      540 58.26     6.5e+06 0.24                                   
 KNR20HZ  P   2    540 53.32                                    0.12            
 KNR20    AMP      540 55.66     1.7e+05 0.20                                   
 KNR20H1  S   3    540 57.32                                    0.52            
 KNR20    AMP      540 58.42     9.7e+06 0.12                                   
 KNR23HZ  P   2    540 51.26                                   -1.94            
 KNR23    AMP      540 56.00     2.5e+06 0.12                                   
 KNR23H1  S   1    540 56.08                                   -0.62            
 KNR23    AMP      540 55.52     5.8e+06 0.16                                   
 KNR08BZ  P   3    540 55.98                                    1.48            
 KNR08    AMP      540 57.74     1.7e+05 0.08                                   
 KNR08    AMP      541  1.68     1.9e+06 0.16                                   
 KNR07BH  P   3    540 55.58                                    0.88            
 KNR07BH  S   3    540 58.22                                   -1.18            
 KNR07    AMP      541  1.12     2.3e+06 0.24                                   
 KNR01BZ  P   3    540 56.48                                    1.58            
 KNR01    AMP      540 58.62     2.2e+05 0.12                                   
 KNR01B1  S   3    541  0.34                                    0.54            
 KNR01    AMP      541  3.38     5.4e+06 0.16                                   
 KNR02BH  P   3    540 55.82                                    0.72            
 KNR02BH  S   3    540 59.02                                   -1.18            
 KNR02    AMP      541  1.68     7.9e+06 0.20                                   
 KNR19BH  P   3    540 57.44                                    1.64            
 KNR19    AMP      541  4.56     7.3e+05 0.24                                   
 KNR10BZ  P   3    540 58.78                                    1.48            
 KNR10B1  S   3    541  5.08                                    0.98            
 KNR10    AMP      541  6.04     1.8e+06 0.12                                   
 KNR11    AMP      541  3.24     4.5e+05 0.24                                   
 KNR11BH  S   3    541  7.44                                   -1.36            
 KNR12    AMP      541 10.12     5.9e+06 0.20                                   
 KNR13BZ  S   3    541 12.62                                   -0.88            
 KNR14BH  S   3    541 16.08                                    2.58            
 KNR16    AMP      541  5.06     4.5e+06 0.16                                   
                                                                                
