 2017  3 4  057 39.1 L  76.349   7.009  9.5  AWI 26 0.8 7.0LAWI                1
                                                         ID:20170304005739     I
                           2.4    20.0  7.9                                    E
 2017-03-04_00-57-39.mseed                                                     6
 STAT SP IPHASW D HRMM SECON CODA AMPLIT PERI AZIMU VELO AIN AR TRES W  DIS CAZ7
 KNR19    P   0    057 40.89                                   -0.00            
 KNR19    AMP      057 41.52     3.4e+07 0.08                                   
 KNR19    S   2    057 41.98                                   -0.22            
 KNR19    AMP      057 43.86     1.8e+08 0.16                                   
 KNR07BH  P   0    057 42.62                                    0.82            
 KNR07    AMP      057 42.72     1.4e+06 0.20                                   
 KNR07B1  S   2    057 43.70                                    -0.2            
 KNR07    AMP      057 46.84     2.1e+07 0.20                                   
 KNR09BH  P   0    057 42.38                                    0.48            
 KNR09B2  S   1    057 43.36                                   -0.74            
 KNR09    AMP      057 47.56     4.4e+07 0.16                                   
 KNR08BZ  P   0    057 42.68                                    0.48            
 KNR08    AMP      057 42.84     4.1e+06 0.08                                   
 KNR08B2  S   0    057 45.62                                    1.02            
 KNR08    AMP      057 45.90     4.7e+07 0.20                                   
 KNR23HZ  P   0    057 40.38                                   -1.92            
 KNR23    AMP      057 42.76     1.6e+07 0.12                                   
 KNR23HH  S   3    057 44.16                                   -0.64            
 KNR23    AMP      057 43.84     3.4e+07 0.16                                   
 KNR10    P   0    057 43.18                                    0.58            
 KNR10    S   2    057 46.02                                    0.72            
 KNR10    AMP      057 45.60     2.0e+08 0.12                                   
 KNR21HZ  P   0    057 42.30                                    -1.3            
 KNR21    AMP      057 46.06     4.5e+08 0.12                                   
 KNR21H2  S   1    057 45.98                                   -1.12            
 KNR21    AMP      057 46.48     8.3e+08 0.12                                   
 KNR28    P   0    057 44.23                                    0.53            
 KNR28    AMP      057 45.04     5.7e+06 0.20                                   
 KNR28    S   2    057 47.89                                    0.59            
 KNR28    AMP      057 48.26     6.5e+07 0.12                                   
 KNR20HZ  P   2    057 44.10                                    -0.2            
 KNR20    AMP      057 46.06     9.2e+05 0.08                                   
 KNR20H1  S   3    057 48.06                                   -0.24            
 KNR20    AMP      057 48.84     9.1e+06 0.12                                   
 KNR11BH  P   0    057 44.24                                   -0.06            
 KNR11    AMP      057 44.40     7.9e+05 0.24                                   
 KNR11BH  S   3    057 47.76                                   -0.54            
 KNR11    AMP      057 49.08     5.3e+06 0.24                                   
 KNR30HZ  P   1    057 43.72                                   -0.58            
 KNR30    AMP      057 46.68     4.3e+06 0.08                                   
 KNR30HZ  S   2    057 47.74                                   -0.66            
 KNR30    AMP      057 48.50     2.1e+07 0.20                                   
 KNR18    P   0    057 44.86                                    0.46            
 KNR18    S   2    057 48.99                                    0.49            
 KNR18    AMP      057 50.28     1.1e+08 0.16                                   
 KNR12BH  P   0    057 44.86                                   -0.03            
 KNR12BH  S   3    057 48.16                                   -1.14            
 KNR22HH  P   0    057 44.86                                   -0.03            
 KNR22    AMP      057 46.70     8.0e+05 0.20                                   
 KNR22H1  S   0    057 48.88                                   -0.52            
 KNR22    AMP      057 49.44     5.2e+06 0.20                                   
 KNR05BH  P   0    057 46.70                                     0.7            
 KNR05    AMP      057 48.08     1.2e+06 0.12                                   
 KNR05B2  S   2    057 52.84                                    1.54            
 KNR05    AMP      057 54.80     1.8e+07 0.24                                   
 KNR06BZ  P   0    057 46.74                                    0.34            
 KNR06    AMP      057 47.66     3.0e+06 0.08                                   
 KNR06BZ  S   1    057 52.12                                   0.020            
 KNR06    AMP      057 52.68     2.1e+07 0.24                                   
 KNR13B2  S   3    057 53.12                                    0.22            
 KNR14BH  P   0    057 46.90                                    -0.4            
 KNR14B1  S   3    057 53.06                                   -0.64            
 KNR14    AMP      057 53.82     3.4e+06 0.16                                   
 KNR17BH  P   0    057 47.60                                     0.1            
 KNR17B1  S   1    057 54.22                                    0.12            
 KNR17    AMP      057 54.48     1.3e+07 0.24                                   
 KNR29    AMP      057 58.24     9.0e+06 0.20                                   
 KNR03BZ  P   0    057 49.28                                    0.28            
 KNR03B1  S   3    057 56.86                                    0.26            
 KNR03    AMP      057 59.10     4.3e+06 0.16                                   
 KNR04BZ  P   1    057 49.86                                    0.46            
 KNR04    AMP      057 50.20     3.3e+05 0.12                                   
 KNR04B1  S   2    057 57.12                                   -0.18            
 KNR04    AMP      057 58.32     5.6e+06 0.20                                   
 KNR16BH  P   3    057 49.12                                   -0.58            
 KNR01BZ  P   3    057 53.78                                    2.28            
 KNR01    AMP      057 54.44     2.0e+05 0.12                                   
 KNR01    AMP      058  2.22     2.6e+06 0.24                                   
 KNR02BH  P   3    057 51.90                                     0.1            
 KNR02B2  S   3    058  4.56                                    3.06            
 KNR02    AMP      058  6.36     4.8e+06 0.28                                   
                                                                                
