 2017  3 4  358 19.5 L  76.528   7.092  0.0  AWI 26 0.7 6.6LAWI                1
                                                         ID:20170304035820     I
                           1.9    12.6  2.6                                    E
 2017-03-04_03-58-20.mseed                                                     6
 STAT SP IPHASW D HRMM SECON CODA AMPLIT PERI AZIMU VELO AIN AR TRES W  DIS CAZ7
 KNR23HZ  P   0    358 19.10                                      -1            
 KNR23    AMP      358 19.82     6.1e+07 0.12                                   
 KNR23HH  S   3    358 22.36                                    1.86            
 KNR23    AMP      358 20.22     9.0e+07 0.12                                   
 KNR21    P   0    358 21.28                                    0.08            
 KNR21    AMP      358 21.90     1.5e+09 0.12                                   
 KNR21    S   2    358 22.23                                   -0.27            
 KNR21    AMP      358 22.48     2.9e+09 0.12                                   
 KNR28HZ  P   0    358 21.70                                     0.4            
 KNR28    AMP      358 21.76     8.1e+06 0.08                                   
 KNR28HZ  S   0    358 22.52                                   -0.18            
 KNR28    AMP      358 25.00     3.4e+07 0.08                                   
 KNR07BH  P   2    358 22.94                                    0.24            
 KNR07    AMP      358 24.18     6.4e+05 0.16                                   
 KNR07BZ  S   2    358 26.14                                    0.94            
 KNR07    AMP      358 28.66     5.5e+06 0.12                                   
 KNR30HZ  P   2    358 22.32                                   -0.48            
 KNR30    AMP      358 24.76     1.8e+06 0.08                                   
 KNR30H1  S   3    358 25.04                                   -0.36            
 KNR30    AMP      358 26.08     9.9e+06 0.16                                   
 KNR08BZ  P   0    358 23.74                                    0.94            
 KNR08    AMP      358 23.92     1.7e+06 0.12                                   
 KNR08B2  S   2    358 25.12                                   -0.28            
 KNR08    AMP      358 27.54     8.8e+06 0.20                                   
 KNR18    P   0    358 23.35                                    0.25            
 KNR18    S   2    358 25.89                                   -0.01            
 KNR18    AMP      358 26.46     9.9e+06 0.20                                   
 KNR22HZ  P   0    358 23.16                                    0.06            
 KNR22    AMP      358 24.42     8.4e+05 0.08                                   
 KNR22H1  S   0    358 25.70                                    -0.2            
 KNR22    AMP      358 26.00     1.1e+07 0.20                                   
 KNR20HZ  P   3    358 23.52                                   0.020            
 KNR20    AMP      358 25.86     3.3e+05 0.16                                   
 KNR20H1  S   3    358 26.84                                    0.34            
 KNR20    AMP      358 27.24     1.1e+07 0.12                                   
 KNR19BZ  P   1    358 21.24                                   -2.46            
 KNR19B1  S   3    358 28.26                                    1.26            
 KNR19    AMP      358 30.42     8.1e+05 0.24                                   
 KNR05BH  P   2    358 24.28                                    0.18            
 KNR05B2  S   3    358 27.76                                    0.16            
 KNR05    AMP      358 29.20     2.8e+06 0.12                                   
 KNR06BZ  P   0    358 25.06                                    0.36            
 KNR06BZ  S   2    358 29.02                                    0.22            
 KNR06    AMP      358 29.34     2.1e+07 0.12                                   
 KNR09BH  S   3    358 28.90                                      -1            
 KNR10BH  P   0    358 26.24                                    0.74            
 KNR10    AMP      358 28.24     1.4e+06 0.12                                   
 KNR10BZ  S   2    358 31.24                                    1.04            
 KNR10    AMP      358 31.46     4.3e+06 0.20                                   
 KNR17BZ  P   0    358 25.44                                   -0.26            
 KNR17    AMP      358 27.14     3.9e+05 0.08                                   
 KNR17B2  S   3    358 30.14                                   -0.36            
 KNR17    AMP      358 30.94     7.2e+06 0.24                                   
 KNR29    AMP      358 24.68     2.4e+06 0.12                                   
 KNR29    AMP      358 35.82     3.5e+06 0.12                                   
 KNR03BZ  P   0    358 27.02                                   -0.18            
 KNR03    AMP      358 29.62     6.2e+05 0.12                                   
 KNR03BZ  S   2    358 32.38                                   -0.72            
 KNR03    AMP      358 32.52     7.2e+06 0.16                                   
 KNR11BZ  P   3    358 29.42                                    1.42            
 KNR11    AMP      358 30.82     2.1e+05 0.24                                   
 KNR12BH  P   3    358 28.62                                    0.32            
 KNR01BZ  P   2    358 29.78                                   0.079            
 KNR01    AMP      358 31.84     2.3e+05 0.16                                   
 KNR01BZ  S   3    358 37.14                                   -0.56            
 KNR01    AMP      358 38.74     4.9e+06 0.20                                   
 KNR02    AMP      358 38.04     1.3e+06 0.24                                   
 KNR13    AMP      358 44.28     5.0e+05 0.12                                   
                                                                                
