 2017  3 4  845  5.0 L  76.536   7.119  0.0  AWI 26 0.6 7.1LAWI                1
                                                         ID:20170304084505     I
                           1.6     9.0  2.1                                    E
 2017-03-04_08-45-05.mseed                                                     6
 STAT SP IPHASW D HRMM SECON CODA AMPLIT PERI AZIMU VELO AIN AR TRES W  DIS CAZ7
 KNR23HZ  P   0    845  3.62                                   -2.18            
 KNR23    AMP      845  5.44     2.6e+08 0.12                                   
 KNR23HH  S   3    845  7.96                                    1.56            
 KNR23    AMP      845  6.12     1.3e+08 0.16                                   
 KNR21HZ  P   0    845  5.60                                    -0.8            
 KNR21    AMP      845  7.36     6.3e+09 0.16                                   
 KNR21H2  S   0    845  7.58                                   -0.02            
 KNR21    AMP      845  7.72     8.1e+09 0.20                                   
 KNR28    P   0    845  7.12                                    0.42            
 KNR28    AMP      845  7.34     3.7e+07 0.12                                   
 KNR28    S   2    845  8.44                                    0.44            
 KNR28    AMP      845 10.46     1.9e+08 0.16                                   
 KNR30HZ  P   0    845  7.80                                    -0.3            
 KNR30    AMP      845 10.06     5.4e+06 0.16                                   
 KNR30HZ  S   0    845 10.56                                   -0.03            
 KNR30    AMP      845 11.16     5.3e+07 0.24                                   
 KNR08BH  P   0    845  9.30                                     0.9            
 KNR08    AMP      845  9.48     1.0e+07 0.16                                   
 KNR08BZ  S   1    845 10.90                                    -0.1            
 KNR08    AMP      845 13.04     4.5e+07 0.12                                   
 KNR07BZ  P   0    845  8.60                                     0.2            
 KNR07    AMP      845 10.04     4.9e+06 0.12                                   
 KNR07B1  S   0    845 11.54                                    0.44            
 KNR07    AMP      845 12.44     5.5e+07 0.20                                   
 KNR22HH  P   0    845  8.44                                    0.04            
 KNR22    AMP      845 10.54     2.9e+06 0.12                                   
 KNR22H1  S   0    845 11.20                                     0.1            
 KNR22    AMP      845 11.46     7.1e+07 0.24                                   
 KNR18    P   0    845  8.71                                    0.11            
 KNR18    S   2    845 11.25                                   -0.15            
 KNR18    AMP      845 12.06     7.4e+07 0.20                                   
 KNR20HZ  P   0    845  8.98                                    0.18            
 KNR20    AMP      845 11.16     1.4e+06 0.24                                   
 KNR20H1  S   2    845 12.28                                    0.48            
 KNR20    AMP      845 12.42     3.1e+07 0.12                                   
 KNR05BH  P   0    845  9.74                                    0.34            
 KNR05B2  S   2    845 13.34                                    0.44            
 KNR05    AMP      845 15.24     5.5e+07 0.20                                   
 KNR19BZ  P   2    845 10.36                                    0.96            
 KNR19    AMP      845 12.04     1.6e+06 0.12                                   
 KNR19B1  S   3    845 14.06                                    1.26            
 KNR19    AMP      845 16.12     6.6e+06 0.24                                   
 KNR06BH  P   0    845 10.58                                    0.48            
 KNR06    AMP      845 12.62     3.6e+06 0.16                                   
 KNR06B1  S   0    845 14.58                                    0.58            
 KNR06    AMP      845 14.92     1.1e+08 0.12                                   
 KNR09BH  P   3    845 11.02                                    0.02            
 KNR09B1  S   3    845 15.92                                    0.22            
 KNR09    AMP      845 18.10     1.8e+07 0.20                                   
 KNR10BH  P   0    845 11.80                                     0.7            
 KNR10    AMP      845 13.82     9.7e+06 0.12                                   
 KNR10B1  S   3    845 17.06                                    1.26            
 KNR10    AMP      845 17.06     2.9e+07 0.12                                   
 KNR17BZ  P   0    845 10.98                                   -0.02            
 KNR17B1  S   0    845 15.80                                     0.1            
 KNR17    AMP      845 15.98     4.4e+07 0.20                                   
 KNR29HZ  P   2    845 11.24                                   -0.16            
 KNR29    AMP      845 14.74     1.4e+06 0.12                                   
 KNR29HZ  S   3    845 15.52                                   -0.78            
 KNR29    AMP      845 18.46     9.4e+06 0.12                                   
 KNR03BZ  P   0    845 12.48                                   -0.12            
 KNR03BZ  S   0    845 17.96                                   -0.44            
 KNR03    AMP      845 18.42     2.6e+07 0.12                                   
 KNR04B2  S   3    845 19.50                                     0.4            
 KNR04    AMP      845 21.42     8.6e+06 0.24                                   
 KNR11    AMP      845 15.52     2.8e+06 0.24                                   
 KNR12BH  P   3    845 14.20                                     0.3            
 KNR12    AMP      845 22.18     2.0e+07 0.16                                   
 KNR01BZ  P   1    845 15.22                                    0.12            
 KNR01    AMP      845 17.00     7.1e+05 0.12                                   
 KNR01BZ  S   1    845 22.74                                   -0.26            
 KNR01    AMP      845 24.36     3.2e+07 0.16                                   
 KNR02BH  P   3    845 15.34                                    0.04            
 KNR02B1  S   3    845 23.24                                   -0.06            
 KNR02    AMP      845 24.18     5.6e+06 0.20                                   
 KNR13    AMP      845 21.00     2.2e+05 0.12                                   
 KNR13BZ  S   4    845 19.62                                   -5.38            
 KNR13    AMP      845 29.90     1.5e+06 0.28                                   
 KNR14BH  P   3    845 16.20                                    -0.3            
 KNR15BH  P   3    845 17.24                                   -1.46            
                                                                                
