 2017  3 4  8 8  2.1 L  76.537   7.121  0.0  AWI 26 0.7 7.4LAWI                1
                                                         ID:20170304080802     I
                           1.4     8.8  2.1                                    E
 2017-03-04_08-08-02.mseed                                                     6
 STAT SP IPHASW D HRMM SECON CODA AMPLIT PERI AZIMU VELO AIN AR TRES W  DIS CAZ7
 KNR23HZ  P   0    8 8  0.62                                   -2.28            
 KNR23    AMP      8 8  2.34     5.2e+08 0.16                                   
 KNR23HH  S   3    8 8  4.96                                    1.36            
 KNR23    AMP      8 8  3.16     3.0e+08 0.12                                   
 KNR21    P   0    8 8  3.68                                    0.18            
 KNR21    AMP      8 8  4.32     3.0e+10 0.16                                   
 KNR21    S   2    8 8  4.63                                    0.03            
 KNR21    AMP      8 8  4.56     4.9e+10 0.16                                   
 KNR28    P   0    8 8  4.16                                    0.36            
 KNR28    AMP      8 8  4.30     6.7e+07 0.08                                   
 KNR28    S   2    8 8  5.48                                    0.38            
 KNR28    AMP      8 8  7.48     3.8e+08 0.16                                   
 KNR30HZ  P   0    8 8  4.78                                   -0.42            
 KNR30    AMP      8 8  6.62     2.4e+07 0.16                                   
 KNR30HZ  S   0    8 8  7.54                                   -0.16            
 KNR30    AMP      8 8  9.86     1.6e+08 0.24                                   
 KNR08BH  P   0    8 8  6.30                                     0.8            
 KNR08    AMP      8 8  6.50     1.6e+07 0.12                                   
 KNR08BZ  S   0    8 8  7.96                                   -0.14            
 KNR08    AMP      8 8 10.38     7.7e+07 0.12                                   
 KNR07BZ  P   0    8 8  5.64                                    0.14            
 KNR07    AMP      8 8  7.62     9.0e+06 0.12                                   
 KNR07B1  S   0    8 8  8.98                                    0.78            
 KNR07    AMP      8 8  9.40     9.4e+07 0.16                                   
 KNR22    P   0    8 8  5.57                                   0.070            
 KNR22    AMP      8 8  6.86     9.4e+06 0.12                                   
 KNR22    S   2    8 8  7.98                                   -0.22            
 KNR22    AMP      8 8  8.50     2.4e+08 0.24                                   
 KNR18    P   0    8 8  5.75                                    0.05            
 KNR18    S   2    8 8  8.29                                   -0.21            
 KNR18    AMP      8 8  9.30     2.0e+08 0.16                                   
 KNR20HZ  P   0    8 8  5.96                                    0.06            
 KNR20    AMP      8 8  8.16     1.9e+06 0.20                                   
 KNR20H1  S   1    8 8  9.26                                    0.36            
 KNR20    AMP      8 8  9.88     6.6e+07 0.12                                   
 KNR05BH  P   0    8 8  6.72                                    0.22            
 KNR05B2  S   0    8 8 10.20                                     0.2            
 KNR05    AMP      8 8 12.20     1.4e+08 0.24                                   
 KNR19BZ  P   2    8 8  7.34                                    0.84            
 KNR19    AMP      8 8  9.14     2.0e+06 0.20                                   
 KNR19B2  S   3    8 8 10.90                                       1            
 KNR19    AMP      8 8 14.80     1.8e+07 0.24                                   
 KNR06BZ  P   0    8 8  7.46                                    0.26            
 KNR06B2  S   0    8 8 11.32                                    0.22            
 KNR06    AMP      8 8 11.70     2.7e+08 0.16                                   
 KNR09BH  P   3    8 8  8.14                                    0.04            
 KNR09B1  S   3    8 8 12.78                                   -0.02            
 KNR09    AMP      8 8 15.18     4.5e+07 0.20                                   
 KNR10BZ  P   0    8 8  8.88                                    0.68            
 KNR10    AMP      8 8 10.78     1.5e+07 0.12                                   
 KNR10B2  S   2    8 8 13.80                                     0.8            
 KNR10    AMP      8 8 14.30     5.9e+07 0.16                                   
 KNR17BZ  P   0    8 8  7.98                                   -0.12            
 KNR17B1  S   0    8 8 12.68                                   -0.12            
 KNR17    AMP      8 8 12.94     1.1e+08 0.20                                   
 KNR29HZ  P   2    8 8  9.12                                    0.62            
 KNR29    AMP      8 8 12.42     3.3e+06 0.20                                   
 KNR29HZ  S   3    8 8 12.60                                    -0.8            
 KNR29    AMP      8 8 15.94     2.7e+07 0.12                                   
 KNR03BZ  P   0    8 8  9.54                                   -0.16            
 KNR03    AMP      8 8 14.32     3.7e+06 0.16                                   
 KNR03B1  S   0    8 8 14.80                                    -0.7            
 KNR03    AMP      8 8 15.00     8.9e+07 0.16                                   
 KNR04BZ  P   3    8 8  9.90                                    -0.1            
 KNR04    AMP      8 8 14.58     1.2e+06 0.12                                   
 KNR04B2  S   2    8 8 16.18                                   -0.02            
 KNR04    AMP      8 8 18.54     3.0e+07 0.28                                   
 KNR11BH  P   3    8 8 10.30                                    -0.4            
 KNR11    AMP      8 8 13.76     1.9e+06 0.28                                   
 KNR11BZ  S   3    8 8 13.70                                    -3.7            
 KNR11    AMP      8 8 22.04     3.1e+06 0.24                                   
 KNR12BH  P   0    8 8 11.20                                     0.2            
 KNR12B1  S   3    8 8 18.64                                    0.74            
 KNR12    AMP      8 8 19.24     3.5e+07 0.20                                   
 KNR01BZ  P   2    8 8 12.30                                     0.1            
 KNR01    AMP      8 8 16.92     1.3e+06 0.12                                   
 KNR01B1  S   0    8 8 19.66                                   -0.34            
 KNR01    AMP      8 8 21.26     3.2e+07 0.16                                   
 KNR02BH  P   3    8 8 12.38                                   -0.02            
 KNR02B1  S   2    8 8 20.12                                   -0.28            
 KNR02    AMP      8 8 20.94     9.2e+06 0.24                                   
 KNR14BH  P   1    8 8 13.24                                   -0.36            
 KNR14B1  S   2    8 8 22.02                                   -0.48            
 KNR14    AMP      8 8 22.40     3.3e+06 0.24                                   
 KNR16BH  P   3    8 8 15.50                                    -0.5            
 KNR16B1  S   3    8 8 26.20                                    -0.5            
 KNR16    AMP      8 8 26.34     4.3e+06 0.20                                   
                                                                                
