 2017  3 4  416  7.8 L  76.534   7.116  0.0  AWI 26 0.8 6.7LAWI                1
                                                         ID:20170304041608     I
                           1.9    11.2  2.5                                    E
 2017-03-04_04-16-08.mseed                                                     6
 STAT SP IPHASW D HRMM SECON CODA AMPLIT PERI AZIMU VELO AIN AR TRES W  DIS CAZ7
 KNR23HZ  P   0    416  6.42                                   -2.08            
 KNR23    AMP      416  8.14     1.3e+08 0.12                                   
 KNR23HH  S   3    416 10.70                                     1.6            
 KNR23    AMP      416  8.68     1.8e+08 0.12                                   
 KNR21HZ  P   0    416  8.46                                   -0.84            
 KNR21    AMP      416 10.26     3.1e+09 0.16                                   
 KNR21H2  S   0    416 10.48                                   -0.02            
 KNR21    AMP      416 10.50     4.9e+09 0.16                                   
 KNR28HZ  P   0    416 10.06                                    0.56            
 KNR28    AMP      416 10.14     1.2e+07 0.12                                   
 KNR28HZ  S   0    416 10.88                                   -0.02            
 KNR28    AMP      416 11.82     5.4e+07 0.12                                   
 KNR30HZ  P   1    416 10.66                                   -0.34            
 KNR30    AMP      416 12.16     1.7e+06 0.08                                   
 KNR30HZ  S   2    416 13.60                                     0.2            
 KNR30    AMP      416 13.60     9.9e+06 0.08                                   
 KNR08BZ  P   0    416 12.12                                    1.02            
 KNR08    AMP      416 12.32     2.1e+06 0.24                                   
 KNR08B2  S   2    416 13.52                                   -0.28            
 KNR08    AMP      416 15.94     1.8e+07 0.20                                   
 KNR07BZ  P   0    416 12.44                                    1.24            
 KNR07    AMP      416 13.18     1.6e+06 0.20                                   
 KNR07B1  S   2    416 14.44                                    0.64            
 KNR07    AMP      416 17.14     1.3e+07 0.20                                   
 KNR18    P   0    416 11.51                                    0.11            
 KNR18    S   2    416 14.05                                   -0.15            
 KNR18    AMP      416 14.86     1.8e+07 0.20                                   
 KNR22HZ  P   0    416 11.38                                    0.08            
 KNR22    AMP      416 12.46     1.2e+06 0.12                                   
 KNR22H1  S   0    416 14.08                                   0.079            
 KNR22    AMP      416 14.36     2.0e+07 0.24                                   
 KNR20HZ  P   2    416 11.88                                    0.18            
 KNR20    AMP      416 14.02     2.1e+05 0.16                                   
 KNR20H1  S   1    416 15.22                                    0.52            
 KNR20    AMP      416 15.68     1.6e+07 0.12                                   
 KNR05BH  P   0    416 12.60                                     0.3            
 KNR05BZ  S   2    416 16.44                                    0.64            
 KNR05    AMP      416 16.90     4.6e+06 0.12                                   
 KNR19BH  P   2    416 13.10                                       1            
 KNR19BH  S   3    416 16.04                                    0.54            
 KNR06BZ  P   0    416 13.44                                    0.54            
 KNR06B2  S   2    416 17.22                                    0.32            
 KNR06    AMP      416 17.70     2.9e+07 0.16                                   
 KNR09BH  P   3    416 13.92                                    0.12            
 KNR09    AMP      416 21.20     1.1e+07 0.20                                   
 KNR10BH  P   0    416 14.62                                    0.72            
 KNR10    AMP      416 16.64     2.4e+06 0.12                                   
 KNR10BZ  S   2    416 19.62                                    1.02            
 KNR10    AMP      416 19.86     9.3e+06 0.12                                   
 KNR17BH  P   0    416 13.86                                   -0.04            
 KNR17B2  S   2    416 18.52                                   -0.08            
 KNR17    AMP      416 19.32     1.3e+07 0.24                                   
 KNR29HZ  P   3    416 14.44                                    0.24            
 KNR29    AMP      416 13.34     2.6e+06 0.16                                   
 KNR29HZ  S   3    416 20.34                                    1.14            
 KNR29    AMP      416 20.28     4.0e+06 0.16                                   
 KNR03BZ  P   1    416 15.36                                   -0.03            
 KNR03    AMP      416 18.00     9.0e+05 0.12                                   
 KNR03BZ  S   0    416 20.76                                   -0.54            
 KNR03    AMP      416 21.28     8.8e+06 0.12                                   
 KNR04    AMP      416 24.08     3.8e+06 0.24                                   
 KNR11    AMP      416 13.86     2.1e+05 0.32                                   
 KNR11B1  S   3    416 20.60                                    -2.4            
 KNR11    AMP      416 26.62     4.7e+05 0.16                                   
 KNR12BH  P   3    416 17.22                                    0.52            
 KNR01BZ  P   3    416 18.12                                    0.12            
 KNR01    AMP      416 21.12     2.5e+05 0.16                                   
 KNR01B2  S   3    416 25.54                                   -0.26            
 KNR01    AMP      416 26.66     4.9e+06 0.20                                   
 KNR02BH  S   4    416 21.98                                   -4.22            
 KNR13BH  P   3    416 21.42                                    2.32            
 KNR13BZ  S   3    416 29.94                                    2.14            
 KNR13    AMP      416 32.64     9.2e+05 0.12                                   
 KNR14BH  S   3    416 26.26                                   -1.84            
 KNR15    P   0    416 20.96                                   -0.54            
 KNR15    S   2    416 30.70                                    -1.3            
                                                                                
