 2017  3 4  622 13.2 L  76.525   7.104  0.0  AWI 26 1.0 6.4LAWI                1
                                                         ID:20170304062213     I
                           2.3    13.8  3.0                                    E
 2017-03-04_06-22-13.mseed                                                     6
 STAT SP IPHASW D HRMM SECON CODA AMPLIT PERI AZIMU VELO AIN AR TRES W  DIS CAZ7
 KNR23HH  P   0    622 11.78                                   -1.92            
 KNR23    AMP      622 13.54     3.3e+07 0.12                                   
 KNR23    AMP      622 13.78     4.7e+07 0.12                                   
 KNR21HZ  P   0    622 13.86                                   -1.04            
 KNR21    AMP      622 15.98     1.1e+09 0.16                                   
 KNR21H1  S   0    622 16.12                                   -0.18            
 KNR21    AMP      622 16.04     1.3e+09 0.16                                   
 KNR28HZ  P   0    622 15.48                                    0.38            
 KNR28    AMP      622 15.54     6.5e+06 0.20                                   
 KNR28HZ  S   0    622 17.04                                    0.54            
 KNR28    AMP      622 17.18     3.4e+07 0.12                                   
 KNR07BH  P   2    622 16.70                                     0.3            
 KNR07    AMP      622 21.02     6.3e+06 0.12                                   
 KNR08BZ  P   0    622 17.48                                    0.98            
 KNR08    AMP      622 17.64     1.7e+06 0.16                                   
 KNR08B2  S   2    622 20.84                                    1.84            
 KNR08    AMP      622 21.58     1.1e+07 0.20                                   
 KNR30HZ  P   2    622 16.08                                   -0.42            
 KNR30    AMP      622 18.18     1.5e+06 0.08                                   
 KNR30HZ  S   3    622 18.90                                    -0.2            
 KNR30    AMP      622 20.64     5.8e+06 0.08                                   
 KNR18    P   0    622 16.95                                    0.15            
 KNR18    S   2    622 19.49                                   -0.21            
 KNR18    AMP      622 20.36     9.1e+06 0.16                                   
 KNR22HH  P   1    622 16.78                                   -0.02            
 KNR22    AMP      622 18.46     3.8e+05 0.20                                   
 KNR22H1  S   0    622 19.52                                   -0.18            
 KNR22    AMP      622 19.76     4.4e+06 0.20                                   
 KNR20HZ  P   0    622 17.22                                    0.12            
 KNR20    AMP      622 18.70     3.0e+05 0.08                                   
 KNR20H1  S   3    622 20.54                                    0.34            
 KNR20    AMP      622 20.72     1.4e+06 0.16                                   
 KNR19BZ  P   3    622 18.44                                    1.04            
 KNR19    AMP      622 19.90     1.8e+05 0.16                                   
 KNR19    AMP      622 23.86     6.2e+05 0.24                                   
 KNR05BZ  P   2    622 19.06                                    1.26            
 KNR05    AMP      622 19.14     2.9e+05 0.08                                   
 KNR05B1  S   3    622 21.68                                    0.28            
 KNR05    AMP      622 23.72     3.7e+06 0.20                                   
 KNR06BZ  P   0    622 18.84                                    0.44            
 KNR06    AMP      622 19.72     1.0e+06 0.16                                   
 KNR06B1  S   3    622 22.84                                    0.34            
 KNR06    AMP      622 23.16     2.0e+07 0.12                                   
 KNR09BH  S   3    622 22.74                                   -0.76            
 KNR10BH  P   0    622 19.94                                    0.74            
 KNR10    AMP      622 21.88     7.5e+05 0.12                                   
 KNR10B2  S   3    622 24.96                                    1.16            
 KNR10    AMP      622 25.28     4.6e+06 0.20                                   
 KNR17BZ  P   2    622 19.28                                   -0.12            
 KNR17    AMP      622 22.28     3.6e+05 0.12                                   
 KNR17BH  S   3    622 23.42                                   -0.78            
 KNR29HZ  P   3    622 21.60                                     1.8            
 KNR29    AMP      622 24.54     8.9e+05 0.12                                   
 KNR29    AMP      622 26.92     1.7e+06 0.12                                   
 KNR03BZ  P   1    622 20.76                                   -0.14            
 KNR03    AMP      622 21.76     3.2e+05 0.12                                   
 KNR03BZ  S   3    622 26.24                                   -0.66            
 KNR03    AMP      622 26.34     2.1e+06 0.12                                   
 KNR04    AMP      622 19.38     4.5e+05 0.24                                   
 KNR04B2  S   3    622 25.26                                   -2.34            
 KNR04    AMP      622 30.22     1.3e+06 0.28                                   
 KNR11BZ  P   3    622 23.16                                    1.56            
 KNR11    AMP      622 31.22     2.2e+06 0.24                                   
 KNR12BH  P   3    622 22.20                                     0.3            
 KNR12    AMP      622 33.04     3.3e+06 0.20                                   
 KNR01BZ  P   3    622 25.36                                    1.86            
 KNR01    AMP      622 25.96     1.2e+05 0.12                                   
 KNR01    AMP      622 32.52     2.0e+06 0.20                                   
 KNR02BH  P   3    622 25.50                                     1.8            
 KNR02BH  S   3    622 35.18                                    3.38            
 KNR13    AMP      622 20.60     5.3e+04 0.20                                   
 KNR14    AMP      622 38.24     1.5e+05 0.24                                   
 KNR16    AMP      622 39.60     1.5e+06 0.20                                   
                                                                                
