 2017  3 4 1246  4.6 L  76.724   7.677  5.1  AWI 26 1.2 6.2LAWI                1
                                                         ID:20170304124605     I
                           4.8    34.9  8.5                                    E
 2017-03-04_12-46-05.mseed                                                     6
 STAT SP IPHASW D HRMM SECON CODA AMPLIT PERI AZIMU VELO AIN AR TRES W  DIS CAZ7
 KNR06BZ  P   0   1246  6.14                                    0.24            
 KNR06    AMP     1246  6.20     1.8e+06 0.12                                   
 KNR06    AMP     1246  7.92     3.9e+07 0.16                                   
 KNR22HH  P   0   1246  5.56                                   -0.94            
 KNR22    AMP     1246  7.08     1.5e+06 0.12                                   
 KNR22    AMP     1246  7.20     2.6e+06 0.20                                   
 KNR29HZ  P   1   1246  7.04                                    0.14            
 KNR29    AMP     1246  8.24     4.3e+05 0.12                                   
 KNR29    AMP     1246 11.38     1.8e+06 0.12                                   
 KNR17BZ  P   0   1246  6.74                                   -0.46            
 KNR17    AMP     1246  7.74     6.5e+05 0.24                                   
 KNR17B1  S   2   1246  9.30                                     0.1            
 KNR17    AMP     1246  9.64     2.5e+07 0.20                                   
 KNR30HZ  P   0   1246  7.14                                   -0.16            
 KNR30    AMP     1246  8.96     1.2e+07 0.12                                   
 KNR30    AMP     1246  9.10     1.7e+07 0.08                                   
 KNR05BZ  P   0   1246  9.14                                    1.44            
 KNR05    AMP     1246  9.18     4.6e+05 0.12                                   
 KNR05    AMP     1246  9.84     3.8e+06 0.20                                   
 KNR21HZ  P   0   1246  6.18                                   -1.82            
 KNR21    AMP     1246  9.28     8.7e+07 0.16                                   
 KNR21HZ  S   3   1246 10.44                                   -0.26            
 KNR21    AMP     1246  9.60     1.9e+08 0.20                                   
 KNR20HZ  P   0   1246  9.60                                     1.5            
 KNR20    AMP     1246  9.86     3.5e+05 0.08                                   
 KNR20H1  S   3   1246 11.52                                    0.72            
 KNR20    AMP     1246 10.86     4.6e+06 0.12                                   
 KNR28HZ  P   3   1246  8.02                                   -0.78            
 KNR28    AMP     1246 11.24     6.8e+05 0.12                                   
 KNR28    AMP     1246 16.72     2.0e+06 0.32                                   
 KNR23HZ  P   1   1246  8.52                                   -0.68            
 KNR23    AMP     1246  9.62     5.5e+05 0.12                                   
 KNR23H1  S   3   1246 12.20                                    -0.6            
 KNR23    AMP     1246 10.48     6.8e+05 0.16                                   
 KNR18    P   0   1246 10.47                                    0.87            
 KNR18    S   2   1246 14.25                                    0.75            
 KNR03BZ  P   2   1246  9.26                                   -0.64            
 KNR03BH  S   3   1246 14.60                                     0.7            
 KNR03    AMP     1246 13.50     9.1e+05 0.20                                   
 KNR08BZ  P   2   1246  9.56                                   -0.44            
 KNR08    AMP     1246 12.98     2.6e+05 0.16                                   
 KNR08    AMP     1246 14.60     9.7e+05 0.20                                   
 KNR07BZ  P   3   1246 13.32                                    2.22            
 KNR07    AMP     1246 15.86     2.5e+05 0.12                                   
 KNR07BH  S   3   1246 17.54                                    1.44            
 KNR02B1  S   3   1246 16.52                                    0.32            
 KNR02    AMP     1246 16.66     2.2e+05 0.24                                   
 KNR01BZ  P   3   1246 11.52                                   -0.18            
 KNR01    AMP     1246 15.12     1.6e+05 0.08                                   
 KNR01B1  S   3   1246 14.16                                   -3.04            
 KNR01    AMP     1246 21.82     9.0e+05 0.24                                   
 KNR19BZ  P   3   1246 14.64                                    2.94            
 KNR19    AMP     1246 16.22     2.9e+05 0.12                                   
 KNR19    AMP     1246 20.10     6.8e+05 0.32                                   
 KNR10BH  P   3   1246 15.86                                    2.96            
 KNR10    AMP     1246 13.66     1.8e+05 0.12                                   
 KNR10B2  S   3   1246 19.54                                    0.24            
 KNR10    AMP     1246 19.44     9.7e+05 0.20                                   
 KNR09    AMP     1246 24.20     9.8e+05 0.24                                   
 KNR12BZ  P   3   1246 14.82                                   -0.88            
 KNR11    AMP     1246 28.64     4.1e+05 0.20                                   
 KNR13BH  S   3   1246 27.18                                   -2.22            
 KNR16    AMP     1246 30.36     3.2e+06 0.20                                   
                                                                                
