 2017  3 4 18 3 56.6 L  76.400   6.981  7.2  AWI 26 0.9 7.2LAWI                1
                                                         ID:20170304180356     I
                           2.4    18.1 15.5                                    E
 2017-03-04_18-03-56.mseed                                                     6
 STAT SP IPHASW D HRMM SECON CODA AMPLIT PERI AZIMU VELO AIN AR TRES W  DIS CAZ7
 KNR07BH  P   0   18 3 59.12                                    0.52            
 KNR07    AMP     18 3 59.34     5.7e+06 0.12                                   
 KNR07B1  S   0   18 4  0.16                                   -0.04            
 KNR07    AMP     18 4  2.12     5.6e+07 0.16                                   
 KNR19    P   0   18 3 58.61                                   0.009            
 KNR19    AMP     18 3 59.54     1.9e+07 0.12                                   
 KNR19    S   2   18 3 59.98                                   -0.12            
 KNR19    AMP     18 4  3.84     1.3e+08 0.20                                   
 KNR23HZ  P   0   18 3 56.86                                   -2.14            
 KNR23    AMP     18 4  0.06     2.2e+07 0.12                                   
 KNR23HH  S   3   18 4  0.80                                       0            
 KNR23    AMP     18 3 59.80     5.2e+07 0.16                                   
 KNR08BZ  P   0   18 3 59.94                                    0.54            
 KNR08    AMP     18 4  1.02     2.7e+06 0.12                                   
 KNR08B2  S   0   18 4  2.72                                    1.22            
 KNR08    AMP     18 4  3.44     1.5e+08 0.24                                   
 KNR09BH  P   0   18 3 59.72                                   -0.18            
 KNR09B2  S   1   18 4  2.50                                       0            
 KNR09    AMP     18 4  4.80     6.3e+07 0.20                                   
 KNR28    P   0   18 4  0.96                                    0.56            
 KNR28    AMP     18 4  1.68     1.1e+07 0.08                                   
 KNR28    S   2   18 4  4.13                                    0.83            
 KNR28    AMP     18 4  4.52     1.2e+08 0.16                                   
 KNR21HZ  P   0   18 3 59.20                                    -1.2            
 KNR21    AMP     18 4  2.62     1.4e+09 0.12                                   
 KNR21HZ  S   0   18 4  2.46                                   -0.84            
 KNR21    AMP     18 4  2.62     1.4e+09 0.12                                   
 KNR10BH  P   0   18 4  0.56                                   -0.04            
 KNR10    AMP     18 4  2.74     2.6e+07 0.12                                   
 KNR10B2  S   0   18 4  3.98                                    0.28            
 KNR10    AMP     18 4  4.46     1.4e+08 0.20                                   
 KNR18    P   0   18 4  1.66                                    0.56            
 KNR18    S   2   18 4  5.37                                    0.77            
 KNR18    AMP     18 4  6.42     2.1e+07 0.16                                   
 KNR30HZ  P   0   18 4  0.72                                   -0.48            
 KNR30    AMP     18 4  3.84     6.8e+06 0.16                                   
 KNR30HZ  S   0   18 4  4.40                                    -0.3            
 KNR30    AMP     18 4  4.66     6.6e+07 0.08                                   
 KNR20HZ  P   0   18 4  1.16                                   -0.14            
 KNR20    AMP     18 4  4.18     7.1e+05 0.08                                   
 KNR20H1  S   2   18 4  5.12                                    0.22            
 KNR20    AMP     18 4  7.56     2.3e+07 0.12                                   
 KNR22HH  P   0   18 4  1.80                                     0.1            
 KNR22H2  S   0   18 4  5.36                                   -0.24            
 KNR22    AMP     18 4  9.08     1.3e+07 0.24                                   
 KNR11BH  P   3   18 4  1.92                                   -0.58            
 KNR11BH  S   3   18 4  4.46                                   -2.64            
 KNR05BZ  P   0   18 4  3.34                                    0.64            
 KNR05    AMP     18 4  4.70     1.3e+06 0.12                                   
 KNR05B2  S   2   18 4  8.60                                     1.2            
 KNR05    AMP     18 4  9.20     2.0e+07 0.20                                   
 KNR12BH  P   1   18 4  2.88                                   -0.22            
 KNR12BH  S   3   18 4  6.74                                   -1.36            
 KNR12    AMP     18 4 12.36     2.4e+07 0.20                                   
 KNR06BZ  P   0   18 4  3.72                                    0.52            
 KNR06    AMP     18 4  5.86     3.2e+06 0.12                                   
 KNR06B1  S   2   18 4  8.92                                    0.52            
 KNR06    AMP     18 4  9.22     3.5e+07 0.12                                   
 KNR17BZ  P   0   18 4  4.50                                     0.2            
 KNR17B2  S   2   18 4 10.76                                    0.56            
 KNR17    AMP     18 4 12.70     1.9e+07 0.28                                   
 KNR29HZ  P   0   18 4  5.22                                    0.62            
 KNR29    AMP     18 4  9.60     1.1e+06 0.16                                   
 KNR29HZ  S   3   18 4 10.84                                    0.04            
 KNR29    AMP     18 4 11.78     1.1e+07 0.12                                   
 KNR13BH  S   3   18 4  9.66                                   -2.14            
 KNR03BZ  P   0   18 4  5.88                                    0.18            
 KNR03BZ  S   3   18 4 12.82                                    0.12            
 KNR03    AMP     18 4 14.28     6.1e+06 0.20                                   
 KNR14BH  P   0   18 4  4.94                                   -0.66            
 KNR14B1  S   2   18 4 11.32                                   -1.28            
 KNR14    AMP     18 4 12.42     6.4e+06 0.20                                   
 KNR04BZ  P   3   18 4  7.16                                    0.96            
 KNR04    AMP     18 4  4.72     4.0e+05 0.24                                   
 KNR04BZ  S   2   18 4 14.26                                    0.76            
 KNR04    AMP     18 4 15.70     4.8e+06 0.12                                   
 KNR15BH  P   0   18 4  5.78                                   -1.82            
 KNR15BH  S   0   18 4 18.76                                    2.66            
 KNR16BH  P   3   18 4  7.16                                   -0.84            
 KNR01BZ  P   2   18 4  8.84                                    0.54            
 KNR01    AMP     18 4 11.26     2.5e+05 0.12                                   
 KNR01B2  S   3   18 4 18.10                                     0.8            
 KNR01    AMP     18 4 19.24     4.0e+06 0.20                                   
 KNR02BH  P   3   18 4  9.00                                     0.5            
 KNR02BH  S   3   18 4 17.32                                   -0.48            
                                                                                
