 2017  3 4 1449 44.5 L  76.794   7.400  3.1  AWI 26 0.8 6.2LAWI                1
                                                         ID:20170304144944     I
                           3.0    14.0 14.5                                    E
 2017-03-04_14-49-44.mseed                                                     6
 STAT SP IPHASW D HRMM SECON CODA AMPLIT PERI AZIMU VELO AIN AR TRES W  DIS CAZ7
 KNR17BZ  P   0   1449 45.84                                    0.04            
 KNR17    AMP     1449 46.02     7.1e+05 0.12                                   
 KNR17BZ  S   3   1449 47.90                                       1            
 KNR17    AMP     1449 48.00     6.8e+06 0.32                                   
 KNR05BZ  P   0   1449 46.34                                   -0.46            
 KNR05    AMP     1449 47.66     1.1e+06 0.12                                   
 KNR05B1  S   2   1449 48.44                                   -0.16            
 KNR05    AMP     1449 48.84     1.3e+07 0.16                                   
 KNR06BZ  P   0   1449 46.86                                   0.060            
 KNR06    AMP     1449 47.78     2.5e+06 0.12                                   
 KNR06BZ  S   3   1449 48.78                                    0.08            
 KNR06    AMP     1449 49.38     8.5e+06 0.12                                   
 KNR29HZ  P   0   1449 46.38                                   -0.52            
 KNR29    AMP     1449 48.04     1.3e+06 0.12                                   
 KNR29HZ  S   3   1449 48.94                                    0.14            
 KNR29    AMP     1449 51.66     3.8e+06 0.12                                   
 KNR22HZ  P   0   1449 47.88                                    0.68            
 KNR22    AMP     1449 48.86     2.4e+06 0.24                                   
 KNR22H2  S   3   1449 49.28                                   -0.02            
 KNR22    AMP     1449 49.20     6.2e+06 0.24                                   
 KNR04    AMP     1449 54.68     2.6e+06 0.36                                   
 KNR03BZ  P   0   1449 48.14                                   -0.16            
 KNR03    AMP     1449 50.60     7.0e+05 0.12                                   
 KNR03B2  S   1   1449 51.36                                    0.16            
 KNR03    AMP     1449 51.62     4.8e+06 0.20                                   
 KNR30HZ  P   1   1449 47.96                                   -0.34            
 KNR30    AMP     1449 50.70     3.5e+06 0.12                                   
 KNR30    AMP     1449 52.62     3.2e+06 0.20                                   
 KNR21HZ  P   1   1449 49.28                                    0.68            
 KNR21    AMP     1449 49.40     7.5e+07 0.16                                   
 KNR21H2  S   3   1449 51.26                                   -0.54            
 KNR21    AMP     1449 51.40     1.9e+08 0.24                                   
 KNR28HZ  P   2   1449 47.72                                   -1.18            
 KNR28    AMP     1449 51.12     1.2e+06 0.12                                   
 KNR28HZ  S   3   1449 52.86                                    0.46            
 KNR28    AMP     1449 52.90     3.2e+06 0.12                                   
 KNR18    P   0   1449 49.27                                    0.07            
 KNR18    S   2   1449 52.85                                   -0.05            
 KNR20HZ  P   3   1449 48.54                                   -0.76            
 KNR20    AMP     1449 51.70     1.2e+05 0.24                                   
 KNR23HZ  P   3   1449 49.96                                    0.26            
 KNR23    AMP     1449 50.40     3.6e+05 0.12                                   
 KNR23HH  S   3   1449 54.26                                    0.46            
 KNR02BZ  S   3   1449 55.70                                     1.2            
 KNR02    AMP     1449 52.94     4.9e+05 0.40                                   
 KNR01BZ  P   2   1449 50.52                                    0.32            
 KNR01    AMP     1449 53.22     1.4e+05 0.12                                   
 KNR01B1  S   3   1449 55.52                                    0.82            
 KNR01    AMP     1449 57.80     1.5e+06 0.20                                   
 KNR08BZ  P   3   1449 52.34                                    1.44            
 KNR08    AMP     1449 53.68     9.9e+04 0.16                                   
 KNR08    AMP     1449 56.56     6.7e+05 0.24                                   
 KNR07BZ  P   2   1449 53.80                                     2.4            
 KNR07    AMP     1449 56.40     3.4e+05 0.12                                   
 KNR19    AMP     1449 57.18     8.8e+04 0.24                                   
 KNR19    AMP     1450  0.30     2.1e+05 0.28                                   
 KNR10BZ  P   3   1449 54.34                                    0.44            
 KNR10    AMP     1449 56.18     1.1e+05 0.20                                   
 KNR11BH  S   3   1450  3.18                                   -2.92            
 KNR12BZ  P   3   1449 54.98                                   -1.72            
 KNR12    AMP     1450  4.16     2.6e+06 0.20                                   
 KNR15BH  P   3   1450  1.94                                    0.24            
 KNR15BH  S   0   1450 15.16                                    0.16            
                                                                                
