 2017  3 5  725  3.5 L  76.896   8.008 10.9  AWI 26 1.1 6.9LAWI                1
                                                         ID:20170305072504     I
                           3.7    39.8  9.2                                    E
 2017-03-05_07-25-04.mseed                                                     6
 STAT SP IPHASW D HRMM SECON CODA AMPLIT PERI AZIMU VELO AIN AR TRES W  DIS CAZ7
 KNR04BZ  P   0    725  5.34                                   -0.36            
 KNR04    AMP      725  7.06     7.5e+07 0.08                                   
 KNR04B1  S   0    725  7.08                                   -0.32            
 KNR04    AMP      725  7.42     2.6e+08 0.24                                   
 KNR29HZ  P   0    725  5.92                                   -0.18            
 KNR29    AMP      725  7.66     9.4e+06 0.16                                   
 KNR29HZ  S   2    725  8.32                                    0.22            
 KNR29    AMP      725  9.14     3.5e+07 0.08                                   
 KNR17BZ  P   0    725  6.10                                    -0.5            
 KNR17    AMP      725  8.48     9.7e+06 0.20                                   
 KNR17B1  S   0    725  8.34                                   -0.66            
 KNR17    AMP      725  8.66     6.4e+07 0.16                                   
 KNR06BH  P   0    725  7.86                                    0.66            
 KNR06    AMP      725  8.12     3.6e+06 0.08                                   
 KNR06B1  S   0    725 11.04                                    0.94            
 KNR06    AMP      725 11.64     1.4e+08 0.12                                   
 KNR02BH  P   0    725  7.36                                   -0.14            
 KNR02    AMP      725  8.94     4.7e+06 0.08                                   
 KNR02B1  S   0    725 10.68                                    0.08            
 KNR02    AMP      725 10.96     8.6e+07 0.24                                   
 KNR22HZ  P   0    725  8.28                                   -0.12            
 KNR22    AMP      725  9.18     9.6e+05 0.12                                   
 KNR22H2  S   0    725 11.92                                   -0.28            
 KNR22    AMP      725 13.04     7.1e+06 0.20                                   
 KNR03BZ  P   0    725 11.10                                     2.4            
 KNR03    AMP      725 11.34     6.6e+06 0.12                                   
 KNR03B1  S   2    725 12.84                                    0.04            
 KNR03    AMP      725 11.82     1.0e+07 0.12                                   
 KNR05BZ  P   2    725  8.56                                   -0.04            
 KNR05    AMP      725 10.62     4.3e+05 0.12                                   
 KNR05    AMP      725 12.82     7.5e+06 0.16                                   
 KNR01BZ  P   0    725  8.82                                   -0.28            
 KNR01    AMP      725 12.50     1.2e+06 0.16                                   
 KNR01BZ  S   3    725 12.98                                   -0.52            
 KNR01    AMP      725 13.30     1.1e+07 0.20                                   
 KNR30    AMP      725 12.06     2.2e+06 0.12                                   
 KNR30HZ  S   3    725 13.70                                     0.1            
 KNR30    AMP      725 15.06     1.3e+07 0.08                                   
 KNR20HZ  P   3    725 10.02                                    0.32            
 KNR20    AMP      725 10.86     3.9e+05 0.08                                   
 KNR20H1  S   3    725 15.26                                    0.66            
 KNR20    AMP      725 15.44     1.1e+07 0.12                                   
 KNR21HZ  P   0    725  8.24                                   -1.66            
 KNR21    AMP      725 13.58     1.6e+08 0.12                                   
 KNR21H1  S   2    725 13.20                                    -1.6            
 KNR21    AMP      725 13.50     4.2e+08 0.16                                   
 KNR28HZ  P   3    725 10.26                                   -0.24            
 KNR28    AMP      725 14.88     2.9e+06 0.16                                   
 KNR28H2  S   3    725 14.70                                    -1.2            
 KNR28    AMP      725 17.72     5.6e+06 0.12                                   
 KNR18    P   0    725 11.17                                    0.17            
 KNR18    S   2    725 16.40                                    -0.3            
 KNR18    AMP      725 16.40     1.8e+07 0.12                                   
 KNR23HZ  P   1    725 13.96                                    2.86            
 KNR23    AMP      725 14.66     3.6e+06 0.16                                   
 KNR23    AMP      725 15.52     6.3e+06 0.16                                   
 KNR08BZ  P   1    725 12.16                                    0.46            
 KNR08    AMP      725 14.02     2.6e+05 0.12                                   
 KNR08    AMP      725 19.44     6.7e+06 0.12                                   
 KNR07BH  P   3    725 12.36                                   -0.44            
 KNR07BZ  S   2    725 19.78                                   -0.22            
 KNR07    AMP      725 20.12     4.9e+06 0.12                                   
 KNR19BH  P   3    725 11.02                                   -2.48            
 KNR19    AMP      725  8.86     1.6e+05 0.48                                   
 KNR10BH  P   3    725 14.96                                    0.46            
 KNR10    AMP      725 16.38     5.0e+05 0.16                                   
 KNR10BZ  S   3    725 23.74                                    0.74            
 KNR10    AMP      725 24.18     2.4e+06 0.12                                   
 KNR09    AMP      725 19.88     8.4e+06 0.28                                   
 KNR12BH  P   3    725 18.02                                    0.72            
 KNR12B1  S   3    725 25.44                                   -2.56            
 KNR12    AMP      725 29.56     7.9e+05 0.12                                   
 KNR11    AMP      725 27.72     1.3e+06 0.28                                   
 KNR14    AMP      725 29.28     1.2e+06 0.28                                   
 KNR13BH  S   3    725 30.10                                    -3.1            
 KNR13    AMP      725 32.04     3.0e+06 0.24                                   
                                                                                
