 2017  3 5  4 5 51.1 L  76.875   7.391 11.4  AWI 26 0.8 7.0LAWI                1
                                                         ID:20170305040551     I
                           2.1    16.7  7.7                                    E
 2017-03-05_04-05-51.mseed                                                     6
 STAT SP IPHASW D HRMM SECON CODA AMPLIT PERI AZIMU VELO AIN AR TRES W  DIS CAZ7
 KNR17    P   0    4 5 52.73                                   -0.47            
 KNR17    S   2    4 5 53.74                                   -1.06            
 KNR17    AMP      4 5 54.90     7.2e+08 0.20                                   
 KNR04BZ  P   0    4 5 53.76                                   -0.34            
 KNR04    AMP      4 5 55.74     1.5e+07 0.12                                   
 KNR04B1  S   0    4 5 56.28                                   -0.12            
 KNR04    AMP      4 5 56.40     1.9e+08 0.20                                   
 KNR29    P   0    4 5 54.27                                    0.17            
 KNR29    AMP      4 5 55.30     4.2e+07 0.12                                   
 KNR29    S   2    4 5 56.51                                   0.009            
 KNR29    AMP      4 5 55.30     4.2e+07 0.12                                   
 KNR03    P   0    4 5 54.60                                     0.1            
 KNR03    AMP      4 5 56.56     1.4e+07 0.12                                   
 KNR03    S   2    4 5 57.06                                   -0.04            
 KNR03    AMP      4 5 57.14     2.9e+07 0.20                                   
 KNR05BZ  P   0    4 5 54.96                                    0.36            
 KNR05    AMP      4 5 56.82     4.8e+05 0.12                                   
 KNR05B2  S   2    4 5 56.66                                   -0.74            
 KNR05    AMP      4 6  1.92     2.5e+07 0.24                                   
 KNR06BH  P   0    4 5 55.22                                    0.52            
 KNR06    AMP      4 5 56.24     3.7e+06 0.08                                   
 KNR06BZ  S   0    4 5 58.50                                       1            
 KNR06    AMP      4 5 58.56     4.4e+07 0.12                                   
 KNR22HH  P   0    4 5 55.28                                    0.08            
 KNR22    AMP      4 5 56.80     1.6e+06 0.08                                   
 KNR22H1  S   0    4 5 58.82                                    0.32            
 KNR22    AMP      4 5 58.98     1.5e+07 0.24                                   
 KNR02BZ  P   0    4 5 55.50                                    -0.2            
 KNR02    AMP      4 5 58.56     2.4e+06 0.08                                   
 KNR02B2  S   0    4 5 59.34                                    0.04            
 KNR02    AMP      4 6  0.14     3.1e+07 0.24                                   
 KNR01BZ  P   0    4 5 55.84                                    0.04            
 KNR01    AMP      4 5 57.44     7.2e+06 0.12                                   
 KNR01B1  S   0    4 5 59.86                                    0.46            
 KNR01    AMP      4 6  0.12     2.0e+08 0.20                                   
 KNR30HZ  P   1    4 5 55.96                                   -0.34            
 KNR30    AMP      4 5 59.32     2.7e+06 0.12                                   
 KNR30H2  S   2    4 6  0.62                                    0.22            
 KNR30    AMP      4 6  1.14     1.9e+07 0.20                                   
 KNR21HZ  P   0    4 5 55.06                                   -1.54            
 KNR21    AMP      4 5 59.90     3.0e+08 0.16                                   
 KNR21HZ  S   1    4 5 59.66                                   -1.14            
 KNR21    AMP      4 5 59.90     5.1e+08 0.16                                   
 KNR28HZ  P   2    4 5 55.58                                   -1.22            
 KNR28    AMP      4 5 59.70     1.5e+06 0.16                                   
 KNR28HZ  S   2    4 6  2.36                                    1.16            
 KNR28    AMP      4 6  2.62     2.2e+07 0.12                                   
 KNR18    P   0    4 5 57.35                                    0.45            
 KNR18    S   2    4 6  1.92                                    0.62            
 KNR18    AMP      4 6  3.30     1.5e+07 0.20                                   
 KNR20HZ  P   2    4 5 57.22                                    0.02            
 KNR20    AMP      4 5 59.16     3.5e+05 0.16                                   
 KNR20H1  S   3    4 6  2.54                                    0.54            
 KNR20    AMP      4 6  2.56     1.1e+06 0.08                                   
 KNR23HZ  P   2    4 5 59.90                                     2.3            
 KNR23    AMP      4 6  0.98     3.7e+06 0.12                                   
 KNR23H2  S   2    4 6  2.56                                   -0.14            
 KNR23    AMP      4 6  0.72     9.7e+06 0.16                                   
 KNR08BZ  P   1    4 5 59.32                                    0.52            
 KNR08B2  S   3    4 6  5.50                                     0.7            
 KNR08    AMP      4 6  6.28     3.5e+06 0.12                                   
 KNR07BZ  P   3    4 5 59.26                                    0.06            
 KNR07    AMP      4 6  2.96     2.8e+05 0.12                                   
 KNR07BZ  S   3    4 6  5.82                                    0.42            
 KNR07    AMP      4 6  6.78     2.4e+06 0.12                                   
 KNR19BH  S   4    4 6  3.04                                   -4.36            
 KNR19    AMP      4 6  9.28     1.6e+06 0.28                                   
 KNR10BZ  P   2    4 6  2.08                                    0.38            
 KNR10B2  S   3    4 6 10.50                                     0.6            
 KNR10    AMP      4 6 10.90     5.9e+06 0.24                                   
 KNR09B1  S   3    4 6  7.30                                      -3            
 KNR11BZ  P   3    4 6  4.12                                   -0.38            
 KNR11    AMP      4 6  9.40     2.5e+06 0.24                                   
 KNR12BH  P   3    4 6  4.50                                       0            
 KNR13BH  S   3    4 6 16.88                                   -2.52            
 KNR15BH  S   3    4 6 22.04                                   -1.46            
                                                                                
