 2017  3 5 1617 21.2 L  76.715   7.320  8.6  AWI 26 1.1 6.3LAWI                1
                                                         ID:20170305161721     I
                           3.6    26.0  9.5                                    E
 2017-03-05_16-17-21.mseed                                                     6
 STAT SP IPHASW D HRMM SECON CODA AMPLIT PERI AZIMU VELO AIN AR TRES W  DIS CAZ7
 KNR22HH  P   0   1617 22.86                                   -0.24            
 KNR22    AMP     1617 24.20     1.9e+06 0.16                                   
 KNR22H1  S   0   1617 24.48                                   -0.12            
 KNR22    AMP     1617 24.96     2.5e+07 0.20                                   
 KNR05BH  P   0   1617 23.38                                    0.08            
 KNR05    AMP     1617 24.44     2.7e+06 0.12                                   
 KNR05B1  S   2   1617 24.84                                   -0.16            
 KNR05    AMP     1617 27.88     2.0e+07 0.20                                   
 KNR06BH  P   0   1617 23.86                                    0.16            
 KNR06B2  S   3   1617 25.68                                   -0.02            
 KNR06    AMP     1617 29.16     1.4e+07 0.16                                   
 KNR17BZ  P   0   1617 23.56                                   -0.34            
 KNR17    AMP     1617 25.66     1.5e+06 0.08                                   
 KNR17B2  S   2   1617 25.98                                   -0.12            
 KNR17    AMP     1617 26.24     2.1e+07 0.20                                   
 KNR30HZ  P   1   1617 26.34                                    2.24            
 KNR30    AMP     1617 25.88     2.2e+06 0.16                                   
 KNR30HZ  S   3   1617 27.68                                    1.28            
 KNR30    AMP     1617 26.82     9.0e+06 0.16                                   
 KNR21HZ  P   0   1617 22.66                                   -1.54            
 KNR21    AMP     1617 25.52     3.5e+08 0.16                                   
 KNR21H2  S   0   1617 27.10                                     0.6            
 KNR21    AMP     1617 25.60     6.8e+08 0.20                                   
 KNR28HZ  P   1   1617 26.54                                    2.04            
 KNR28    AMP     1617 26.58     8.8e+05 0.16                                   
 KNR28H2  S   3   1617 28.42                                    1.32            
 KNR28    AMP     1617 30.34     6.8e+06 0.20                                   
 KNR29HZ  P   2   1617 26.64                                    2.14            
 KNR29    AMP     1617 24.88     1.6e+06 0.32                                   
 KNR29    AMP     1617 27.04     5.8e+06 0.12                                   
 KNR18    P   0   1617 25.41                                    0.31            
 KNR18    S   2   1617 28.67                                    0.67            
 KNR23HZ  P   1   1617 23.02                                   -2.18            
 KNR23    AMP     1617 26.70     1.8e+06 0.16                                   
 KNR23    AMP     1617 26.70     1.8e+06 0.16                                   
 KNR03BZ  P   1   1617 25.72                                   -0.18            
 KNR03    AMP     1617 27.30     3.1e+05 0.24                                   
 KNR03B2  S   0   1617 29.22                                   -0.28            
 KNR03    AMP     1617 29.60     7.9e+06 0.24                                   
 KNR04BZ  P   3   1617 25.66                                   -0.14            
 KNR04    AMP     1617 28.46     1.0e+05 0.12                                   
 KNR04B1  S   3   1617 29.40                                       0            
 KNR04    AMP     1617 32.30     2.2e+06 0.20                                   
 KNR08BZ  P   3   1617 27.10                                     0.6            
 KNR08    AMP     1617 23.04     2.1e+05 0.08                                   
 KNR08    AMP     1617 31.70     1.2e+06 0.28                                   
 KNR07BH  P   3   1617 26.78                                   -0.12            
 KNR07    AMP     1617 29.74     3.0e+05 0.12                                   
 KNR07B1  S   3   1617 31.62                                    0.32            
 KNR07    AMP     1617 32.08     2.5e+06 0.12                                   
 KNR19BH  P   3   1617 28.32                                    0.42            
 KNR19    AMP     1617 32.24     1.5e+05 0.16                                   
 KNR19    AMP     1617 36.48     3.2e+05 0.20                                   
 KNR01BH  P   2   1617 29.96                                    1.86            
 KNR01BH  S   3   1617 36.22                                    2.82            
 KNR02BH  P   3   1617 25.72                                   -2.38            
 KNR02    AMP     1617 37.96     1.3e+06 0.32                                   
 KNR10BH  P   2   1617 29.64                                    0.34            
 KNR10    AMP     1617 30.92     2.2e+05 0.12                                   
 KNR10B2  S   3   1617 33.06                                   -2.64            
 KNR10    AMP     1617 36.78     9.4e+05 0.12                                   
 KNR11    AMP     1617 36.10     1.4e+05 0.56                                   
 KNR12BH  P   3   1617 32.12                                   -0.08            
 KNR12    AMP     1617 41.68     7.7e+05 0.24                                   
 KNR16    P   0   1617 36.88                                   -0.22            
 KNR16    S   2   1617 48.84                                   -0.56            
 KNR15BH  P   3   1617 37.78                                    0.68            
 KNR15BH  S   3   1617 52.66                                    3.26            
                                                                                
