 2017  3 5 2237 38.5 L  75.706   5.421 75.5  AWI 26 1.3 6.4LAWI                1
                                                         ID:20170305223735     I
                          23.9    21.2 54.1                                    E
 2017-03-05_22-37-35.mseed                                                     6
 STAT SP IPHASW D HRMM SECON CODA AMPLIT PERI AZIMU VELO AIN AR TRES W  DIS CAZ7
 KNR11    AMP     2237 56.10     4.2e+04 0.12                                   
 KNR11    AMP     2237 58.56     1.9e+05 0.16                                   
 KNR16B2  S   3   2238  2.24                                    0.14            
 KNR16    AMP     2238  5.92     2.9e+07 0.24                                   
 KNR09BH  S   3   2238  0.58                                   -2.52            
 KNR09    AMP     2237 59.76     2.8e+07 0.24                                   
 KNR10BH  P   2   2237 54.56                                    0.96            
 KNR10    AMP     2237 54.86     2.9e+05 0.08                                   
 KNR10    AMP     2238  1.32     2.0e+05 0.24                                   
 KNR19BH  S   3   2238  5.76                                    0.86            
 KNR07BZ  P   3   2237 55.50                                     1.5            
 KNR07BH  S   3   2238  3.22                                   -2.78            
 KNR08    AMP     2238  3.88     7.5e+04 0.28                                   
 KNR23    AMP     2237 55.04     4.5e+04 0.16                                   
 KNR23    AMP     2238 12.06     5.0e+04 0.08                                   
 KNR28    AMP     2238 13.28     1.7e+06 0.24                                   
 KNR18    P   0   2237 55.63                                   -0.27            
 KNR18    S   2   2238 11.12                                    1.82            
 KNR21H1  S   4   2238 17.54                                    7.74            
 KNR21    AMP     2238 12.40     6.1e+06 0.28                                   
 KNR20HZ  P   3   2237 56.46                                   -0.24            
 KNR20    AMP     2237 56.56     3.2e+06 0.28                                   
 KNR20    AMP     2238  6.90     2.4e+06 0.28                                   
 KNR30H1  S   3   2238 10.90                                    -0.1            
 KNR30    AMP     2238 10.40     4.1e+05 0.56                                   
 KNR22H1  S   3   2238 10.30                                    -1.3            
 KNR22    AMP     2238 16.04     4.5e+04 0.12                                   
 KNR05    AMP     2238 11.58     2.9e+05 0.40                                   
 KNR06    AMP     2238  2.02     1.2e+05 0.56                                   
 KNR17    AMP     2237 57.98     8.5e+04 0.80                                   
 KNR17    AMP     2238 10.90     3.0e+05 0.36                                   
 KNR03    AMP     2237 57.80     5.0e+04 0.56                                   
 KNR03    AMP     2238 17.70     1.6e+05 0.60                                   
 KNR04    AMP     2238  5.34     7.0e+04 0.20                                   
 KNR04    AMP     2238 21.32     1.7e+05 0.08                                   
 KNR01    AMP     2238  4.96     9.9e+04 0.12                                   
 KNR01    AMP     2238 20.20     2.2e+05 0.32                                   
 KNR02    AMP     2238  2.82     7.4e+04 0.32                                   
 KNR02BZ  S   3   2238 20.46                                   -0.84            
 KNR02    AMP     2238 22.78     7.6e+04 0.24                                   
                                                                                
