 2017  3 6  912 58.1 L  76.949   7.242 16.8  AWI 26 1.1 7.0LAWI                1
                                                         ID:20170306091258     I
                           3.3    21.9  8.3                                    E
 2017-03-06_09-12-58.mseed                                                     6
 STAT SP IPHASW D HRMM SECON CODA AMPLIT PERI AZIMU VELO AIN AR TRES W  DIS CAZ7
 KNR03    P   0    913  1.25                                   -0.25            
 KNR03    AMP      913  1.60     3.4e+07 0.12                                   
 KNR03    S   2    913  3.54                                   -0.66            
 KNR03    AMP      913  3.92     1.8e+08 0.16                                   
 KNR17BZ  P   0    913  1.42                                   0.020            
 KNR17    AMP      913  3.50     2.7e+06 0.12                                   
 KNR17B1  S   0    913  3.96                                   -0.14            
 KNR17    AMP      913  4.46     1.1e+08 0.24                                   
 KNR04BZ  P   0    913  1.70                                    -0.1            
 KNR04    AMP      913  3.38     8.5e+06 0.12                                   
 KNR04B1  S   0    913  4.42                                   -0.28            
 KNR04    AMP      913  4.54     1.8e+08 0.20                                   
 KNR01BH  P   0    913  2.10                                     0.1            
 KNR01    AMP      913  4.28     1.0e+07 0.12                                   
 KNR01B1  S   0    913  5.38                                    0.28            
 KNR01    AMP      913  5.52     1.3e+08 0.16                                   
 KNR29HZ  P   2    913  5.14                                    2.74            
 KNR29    AMP      913  3.48     2.7e+06 0.12                                   
 KNR29HZ  S   3    913  7.02                                    1.22            
 KNR29    AMP      913  5.64     1.1e+07 0.16                                   
 KNR02BH  P   0    913  2.30                                    -0.1            
 KNR02    AMP      913  2.38     2.8e+06 0.16                                   
 KNR02B1  S   0    913  5.64                                   -0.16            
 KNR02    AMP      913  5.84     4.0e+07 0.20                                   
 KNR05BH  P   2    913  3.36                                    0.56            
 KNR05    AMP      913  5.20     3.1e+05 0.12                                   
 KNR05B2  S   3    913  7.40                                       1            
 KNR05    AMP      913  8.66     1.5e+07 0.16                                   
 KNR06BZ  P   0    913  3.76                                    0.66            
 KNR06B2  S   2    913  7.84                                    0.84            
 KNR06    AMP      913  7.90     2.2e+07 0.16                                   
 KNR22HZ  P   0    913  3.88                                    0.28            
 KNR22    AMP      913  4.78     6.9e+05 0.12                                   
 KNR22H2  S   0    913  8.12                                    0.22            
 KNR22    AMP      913  8.74     6.1e+06 0.24                                   
 KNR30HZ  P   2    913  5.22                                    0.52            
 KNR30    AMP      913  7.52     1.2e+06 0.12                                   
 KNR30H1  S   3    913 10.08                                    0.28            
 KNR30    AMP      913 10.26     7.3e+06 0.20                                   
 KNR18    P   0    913  5.38                                    0.68            
 KNR18    S   2    913 10.83                                    0.93            
 KNR18    AMP      913 14.50     1.8e+06 0.12                                   
 KNR28HZ  P   3    913  3.04                                   -1.86            
 KNR28    AMP      913  8.98     7.4e+05 0.08                                   
 KNR28HZ  S   3    913 11.30                                     1.2            
 KNR28    AMP      913 12.26     4.2e+06 0.12                                   
 KNR21HZ  P   1    913  3.66                                   -1.14            
 KNR21    AMP      913  9.50     7.7e+07 0.16                                   
 KNR21H2  S   3    913  8.72                                   -1.28            
 KNR21    AMP      913 12.30     1.3e+08 0.16                                   
 KNR20    AMP      913  6.14     1.3e+06 0.24                                   
 KNR23HH  P   2    913  3.18                                   -2.62            
 KNR23H1  S   3    913  9.36                                   -2.44            
 KNR23    AMP      913 10.12     6.4e+06 0.20                                   
 KNR08BH  P   3    913  7.82                                    0.72            
 KNR08B2  S   3    913 12.30                                    -1.7            
 KNR08    AMP      913 14.78     2.2e+06 0.24                                   
 KNR19B1  S   4    913 12.28                                   -4.12            
 KNR10BZ  P   2    913 10.58                                    0.68            
 KNR10B2  S   3    913 15.38                                   -3.62            
 KNR10    AMP      913 23.64     2.0e+06 0.16                                   
 KNR09    AMP      913 18.36     3.4e+07 0.24                                   
 KNR11    AMP      913 26.46     1.5e+05 0.28                                   
 KNR12BH  P   3    913 13.06                                    0.46            
 KNR12    AMP      913 25.52     1.1e+06 0.20                                   
 KNR13BZ  P   3    913 14.00                                    -1.1            
 KNR13BH  S   3    913 24.12                                   -4.08            
 KNR16    AMP      913 34.16     8.9e+07 0.08                                   
                                                                                
