 2017  3 6  2 2 31.2 L  76.588   7.175  1.9  AWI 26 0.9 6.5LAWI                1
                                                         ID:20170306020231     I
                           3.0    12.0  3.9                                    E
 2017-03-06_02-02-31.mseed                                                     6
 STAT SP IPHASW D HRMM SECON CODA AMPLIT PERI AZIMU VELO AIN AR TRES W  DIS CAZ7
 KNR21HZ  P   0    2 2 31.42                                   -0.68            
 KNR21    AMP      2 2 31.54     2.5e+08 0.12                                   
 KNR21HZ  S   0    2 2 33.42                                    0.72            
 KNR21    AMP      2 2 33.48     3.4e+09 0.24                                   
 KNR28HZ  P   0    2 2 32.70                                       0            
 KNR28    AMP      2 2 33.48     2.8e+06 0.16                                   
 KNR28HZ  S   0    2 2 35.06                                    1.16            
 KNR28    AMP      2 2 35.16     5.6e+07 0.12                                   
 KNR23HH  P   0    2 2 30.54                                   -2.66            
 KNR23    AMP      2 2 34.02     3.9e+06 0.12                                   
 KNR23H1  S   2    2 2 34.24                                   -0.46            
 KNR23    AMP      2 2 34.60     9.9e+06 0.16                                   
 KNR30HZ  P   0    2 2 33.18                                   -0.32            
 KNR30    AMP      2 2 34.54     8.5e+06 0.20                                   
 KNR30H1  S   0    2 2 35.40                                     0.1            
 KNR30    AMP      2 2 35.74     4.8e+07 0.24                                   
 KNR22HZ  P   0    2 2 33.42                                   -0.07            
 KNR22    AMP      2 2 34.14     3.7e+06 0.12                                   
 KNR22H1  S   0    2 2 35.24                                    0.04            
 KNR22    AMP      2 2 35.28     1.2e+07 0.20                                   
 KNR18    P   0    2 2 33.96                                   -0.34            
 KNR18    S   2    2 2 36.16                                   -0.64            
 KNR18    AMP      2 2 38.56     1.1e+07 0.12                                   
 KNR05BZ  P   0    2 2 34.78                                    0.28            
 KNR05    AMP      2 2 35.68     8.2e+05 0.12                                   
 KNR05B2  S   2    2 2 37.90                                     0.7            
 KNR05    AMP      2 2 40.10     8.5e+06 0.24                                   
 KNR20HZ  P   3    2 2 36.32                                    1.72            
 KNR20    AMP      2 2 36.52     2.3e+06 0.12                                   
 KNR20HH  S   3    2 2 38.30                                     1.1            
 KNR20    AMP      2 2 40.44     1.4e+07 0.12                                   
 KNR08BH  P   0    2 2 35.78                                    0.88            
 KNR08    AMP      2 2 35.92     2.3e+06 0.12                                   
 KNR08BZ  S   3    2 2 37.30                                    -0.4            
 KNR08    AMP      2 2 39.76     7.3e+06 0.12                                   
 KNR07BZ  P   2    2 2 35.72                                    0.62            
 KNR07B1  S   3    2 2 39.44                                    1.34            
 KNR07    AMP      2 2 39.66     6.8e+06 0.12                                   
 KNR06BH  P   0    2 2 35.36                                    0.16            
 KNR06B2  S   3    2 2 38.32                                    0.02            
 KNR17BZ  P   0    2 2 35.74                                   -0.36            
 KNR17    AMP      2 2 35.86     4.6e+05 0.12                                   
 KNR17BZ  S   2    2 2 39.52                                   -0.38            
 KNR17    AMP      2 2 39.76     6.2e+06 0.12                                   
 KNR19BH  P   2    2 2 37.24                                    1.14            
 KNR19BH  S   3    2 2 39.26                                   -0.54            
 KNR29    AMP      2 2 36.48     3.8e+06 0.32                                   
 KNR03BH  P   2    2 2 37.48                                   -0.22            
 KNR10BZ  P   0    2 2 38.44                                    0.74            
 KNR10    AMP      2 2 40.82     1.3e+06 0.12                                   
 KNR10BZ  S   0    2 2 43.90                                     1.1            
 KNR10    AMP      2 2 44.38     1.1e+07 0.12                                   
 KNR04BZ  P   3    2 2 37.72                                   -0.28            
 KNR04    AMP      2 2 42.96     1.7e+05 0.12                                   
 KNR04B1  S   3    2 2 42.32                                   -0.98            
 KNR04    AMP      2 2 45.16     9.9e+05 0.20                                   
 KNR01BZ  P   3    2 2 40.10                                    -0.1            
 KNR01    AMP      2 2 49.04     1.2e+06 0.20                                   
 KNR11BH  S   3    2 2 45.62                                   -1.78            
 KNR02    AMP      2 2 36.60     1.0e+05 0.36                                   
 KNR12BH  P   2    2 2 40.78                                    0.28            
 KNR12BZ  S   3    2 2 48.52                                    0.72            
 KNR12    AMP      2 2 49.12     1.5e+06 0.20                                   
 KNR13BH  S   3    2 2 48.26                                   -3.84            
 KNR13    AMP      2 2 47.86     1.4e+06 0.24                                   
                                                                                
