 2017  3 6 10 7  8.8 L  76.729   7.537  3.5  AWI 26 0.7 6.9LAWI                1
                                                         ID:20170306100708     I
                           1.5    11.2  3.8                                    E
 2017-03-06_10-07-08.mseed                                                     6
 STAT SP IPHASW D HRMM SECON CODA AMPLIT PERI AZIMU VELO AIN AR TRES W  DIS CAZ7
 KNR06    P   0   10 7 10.31                                   0.010            
 KNR06    AMP     10 7 11.00     2.5e+07 0.08                                   
 KNR06    S   2   10 7 11.63                                    0.23            
 KNR06    AMP     10 7 12.72     1.5e+09 0.12                                   
 KNR22HH  P   0   10 7 10.70                                     0.2            
 KNR22    AMP     10 7 11.10     8.7e+05 0.08                                   
 KNR22H2  S   0   10 7 12.16                                    0.26            
 KNR22    AMP     10 7 13.34     3.2e+07 0.24                                   
 KNR17    P   0   10 7 10.84                                   -0.36            
 KNR17    AMP     10 7 11.32     1.2e+07 0.08                                   
 KNR17    S   2   10 7 12.69                                   -0.41            
 KNR17    AMP     10 7 13.92     3.9e+08 0.20                                   
 KNR29HZ  P   0   10 7 10.90                                    -0.5            
 KNR29    AMP     10 7 12.56     2.8e+07 0.12                                   
 KNR29HZ  S   0   10 7 12.90                                    -0.5            
 KNR29    AMP     10 7 13.50     8.4e+07 0.12                                   
 KNR05BH  P   0   10 7 11.92                                    0.52            
 KNR05    AMP     10 7 13.00     2.9e+06 0.12                                   
 KNR05B1  S   2   10 7 14.60                                     1.2            
 KNR05    AMP     10 7 16.88     5.3e+07 0.24                                   
 KNR30HZ  P   0   10 7 11.28                                   -0.32            
 KNR30    AMP     10 7 12.34     7.3e+06 0.12                                   
 KNR30H2  S   0   10 7 14.24                                    0.44            
 KNR30    AMP     10 7 14.30     8.8e+07 0.12                                   
 KNR21HZ  P   0   10 7 10.72                                   -1.38            
 KNR21    AMP     10 7 13.64     4.9e+08 0.12                                   
 KNR21H1  S   0   10 7 13.52                                   -1.08            
 KNR21    AMP     10 7 14.42     1.2e+09 0.16                                   
 KNR20HZ  P   3   10 7 12.58                                   0.079            
 KNR20    AMP     10 7 12.66     1.2e+06 0.24                                   
 KNR20H1  S   0   10 7 16.06                                    0.56            
 KNR20    AMP     10 7 16.16     5.7e+07 0.12                                   
 KNR28HZ  P   1   10 7 12.66                                   -0.04            
 KNR28    AMP     10 7 13.22     1.5e+06 0.12                                   
 KNR28H2  S   2   10 7 15.58                                   -0.22            
 KNR28    AMP     10 7 19.10     3.0e+07 0.20                                   
 KNR04BZ  P   0   10 7 13.00                                     0.1            
 KNR04    AMP     10 7 14.74     5.8e+05 0.08                                   
 KNR04BZ  S   0   10 7 16.56                                    0.56            
 KNR04    AMP     10 7 17.52     6.9e+06 0.12                                   
 KNR18    P   0   10 7 13.24                                   -0.16            
 KNR18    S   2   10 7 16.80                                    -0.2            
 KNR18    AMP     10 7 18.04     7.5e+06 0.20                                   
 KNR23HZ  P   3   10 7 14.36                                    1.06            
 KNR23HH  S   3   10 7 18.04                                    1.24            
 KNR23    AMP     10 7 16.38     6.4e+06 0.16                                   
 KNR03BH  P   0   10 7 13.78                                    0.08            
 KNR03B2  S   0   10 7 17.56                                    0.06            
 KNR03    AMP     10 7 19.16     2.8e+07 0.20                                   
 KNR08BH  P   0   10 7 14.68                                    0.48            
 KNR08BZ  S   2   10 7 19.40                                     0.9            
 KNR08    AMP     10 7 19.94     1.1e+07 0.12                                   
 KNR07BH  P   3   10 7 14.68                                   -0.42            
 KNR07BZ  S   3   10 7 20.60                                     0.6            
 KNR07    AMP     10 7 20.92     3.0e+06 0.16                                   
 KNR02BH  P   3   10 7 15.40                                     0.1            
 KNR02    AMP     10 7 20.30     4.3e+05 0.28                                   
 KNR02B1  S   3   10 7 20.82                                    0.42            
 KNR02    AMP     10 7 21.34     6.9e+06 0.24                                   
 KNR01BZ  P   0   10 7 15.94                                    0.24            
 KNR01    AMP     10 7 17.84     1.0e+06 0.12                                   
 KNR01B2  S   2   10 7 21.54                                    0.44            
 KNR01    AMP     10 7 21.74     2.6e+07 0.20                                   
 KNR19BH  P   3   10 7 16.48                                    0.58            
 KNR19BH  S   3   10 7 19.26                                   -2.14            
 KNR10BH  P   0   10 7 17.46                                    0.26            
 KNR10    AMP     10 7 18.68     1.8e+06 0.12                                   
 KNR10B1  S   3   10 7 24.22                                    0.52            
 KNR10    AMP     10 7 24.92     8.1e+06 0.12                                   
 KNR12BH  P   0   10 7 19.90                                    -0.2            
 KNR12    AMP     10 7 21.86     3.9e+05 0.08                                   
 KNR12B1  S   2   10 7 28.44                                   -0.36            
 KNR12    AMP     10 7 29.90     5.1e+06 0.16                                   
 KNR11BZ  P   3   10 7 19.90                                    -0.3            
 KNR11    AMP     10 7 19.84     4.1e+04 1.04                                   
 KNR11    AMP     10 7 32.78     1.8e+05 0.12                                   
 KNR13    AMP     10 7 26.74     4.9e+04 0.28                                   
 KNR13BZ  S   3   10 7 37.58                                    3.98            
 KNR13    AMP     10 7 38.46     7.8e+05 0.12                                   
 KNR16    AMP     10 7 40.20     5.5e+06 0.16                                   
                                                                                
