 2017  3 7  953 11.3 L  76.584   7.237  1.8  AWI 26 0.9 6.5LAWI                1
                                                         ID:20170307095311     I
                           2.4    10.9  2.3                                    E
 2017-03-07_09-53-11.mseed                                                     6
 STAT SP IPHASW D HRMM SECON CODA AMPLIT PERI AZIMU VELO AIN AR TRES W  DIS CAZ7
 KNR21HZ  P   0    953 11.50                                    -0.5            
 KNR21    AMP      953 12.40     5.9e+08 0.08                                   
 KNR21H2  S   0    953 12.82                                    0.32            
 KNR21    AMP      953 14.78     6.3e+09 0.24                                   
 KNR28HZ  P   0    953 13.38                                    0.28            
 KNR28    AMP      953 13.46     1.2e+07 0.08                                   
 KNR28H1  S   0    953 14.96                                    0.46            
 KNR28    AMP      953 17.36     1.0e+08 0.20                                   
 KNR30HZ  P   0    953 13.30                                    -0.1            
 KNR30    AMP      953 14.48     1.1e+07 0.08                                   
 KNR30H2  S   2    953 14.22                                   -0.78            
 KNR30    AMP      953 16.52     5.1e+07 0.16                                   
 KNR23HH  P   1    953 10.76                                   -2.54            
 KNR23HH  S   3    953 15.08                                    0.18            
 KNR23    AMP      953 14.40     1.0e+07 0.20                                   
 KNR22HZ  P   0    953 13.54                                    0.04            
 KNR22    AMP      953 14.84     2.2e+06 0.20                                   
 KNR22H2  S   0    953 15.24                                    0.04            
 KNR22    AMP      953 15.80     1.9e+07 0.24                                   
 KNR20HZ  P   3    953 14.76                                    0.26            
 KNR20    AMP      953 14.82     1.5e+06 0.28                                   
 KNR20HH  S   3    953 18.18                                    1.28            
 KNR18    P   0    953 14.86                                    0.16            
 KNR18    S   2    953 17.52                                    0.22            
 KNR18    AMP      953 18.10     6.1e+06 0.16                                   
 KNR05BZ  P   0    953 14.84                                    0.04            
 KNR05    AMP      953 15.74     1.5e+06 0.16                                   
 KNR05B2  S   1    953 17.52                                   0.020            
 KNR05    AMP      953 20.06     2.3e+07 0.24                                   
 KNR08BH  P   2    953 15.92                                    1.12            
 KNR08    AMP      953 16.64     3.7e+07 0.24                                   
 KNR06BZ  P   0    953 15.52                                    0.32            
 KNR06B2  S   3    953 18.54                                    0.24            
 KNR06    AMP      953 21.40     1.0e+07 0.12                                   
 KNR07    P   0    953 15.14                                   -0.16            
 KNR07    S   2    953 18.01                                   -0.39            
 KNR19BH  P   2    953 17.20                                     1.1            
 KNR19    AMP      953 19.00     1.5e+05 0.16                                   
 KNR19B2  S   3    953 20.52                                    0.62            
 KNR19    AMP      953 23.22     1.4e+06 0.24                                   
 KNR17BZ  P   0    953 15.80                                    -0.4            
 KNR17    AMP      953 15.88     5.6e+05 0.16                                   
 KNR17B1  S   2    953 19.56                                   -0.44            
 KNR17    AMP      953 19.98     1.2e+07 0.20                                   
 KNR29HZ  P   3    953 17.26                                    0.76            
 KNR29    AMP      953 19.68     8.7e+05 0.24                                   
 KNR29HZ  S   3    953 19.54                                   -1.06            
 KNR10BH  P   0    953 18.52                                    0.82            
 KNR10BZ  S   0    953 23.90                                     1.2            
 KNR10    AMP      953 24.48     1.7e+07 0.16                                   
 KNR03BH  P   2    953 17.52                                   -0.38            
 KNR09    AMP      953 27.28     4.6e+07 0.24                                   
 KNR04BZ  P   3    953 19.22                                    1.12            
 KNR04    AMP      953 23.08     1.8e+05 0.12                                   
 KNR04B2  S   3    953 23.08                                   -0.22            
 KNR04    AMP      953 27.20     9.5e+05 0.20                                   
 KNR01BZ  P   3    953 20.28                                   -0.12            
 KNR01    AMP      953 28.30     1.1e+06 0.12                                   
 KNR02BZ  P   3    953 17.58                                   -2.92            
 KNR02    AMP      953 15.70     9.8e+04 0.12                                   
 KNR02BZ  S   4    953 22.96                                   -4.64            
 KNR02    AMP      953 28.76     9.1e+05 0.28                                   
 KNR12BH  P   2    953 20.96                                    0.36            
 KNR12    AMP      953 24.56     2.2e+05 0.12                                   
 KNR12BZ  S   3    953 28.68                                    0.98            
 KNR12    AMP      953 29.94     3.2e+06 0.16                                   
 KNR13BZ  P   3    953 23.56                                    0.46            
 KNR13    AMP      953 23.64     2.6e+05 0.12                                   
 KNR13    AMP      953 37.10     2.1e+05 0.24                                   
 KNR15    P   0    953 24.49                                   -1.01            
 KNR15    S   2    953 34.48                                   -1.92            
 KNR16BH  P   3    953 27.74                                    2.24            
 KNR16BH  S   3    953 33.08                                   -3.42            
                                                                                
