 2017  3 7  056 21.0 L  76.630   7.413  2.6  AWI 26 0.8 6.7LAWI                1
                                                         ID:20170307005621     I
                           1.5     8.0  2.9                                    E
 2017-03-07_00-56-21.mseed                                                     6
 STAT SP IPHASW D HRMM SECON CODA AMPLIT PERI AZIMU VELO AIN AR TRES W  DIS CAZ7
 KNR22HH  P   0    056 21.64                                   -0.36            
 KNR22    AMP      056 22.60     4.1e+07 0.12                                   
 KNR22HH  S   3    056 25.96                                    3.16            
 KNR22    AMP      056 22.78     6.3e+07 0.20                                   
 KNR30HZ  P   0    056 22.32                                   -0.08            
 KNR30    AMP      056 23.18     5.2e+06 0.12                                   
 KNR30H1  S   0    056 23.56                                   -0.04            
 KNR30    AMP      056 24.94     6.7e+07 0.24                                   
 KNR21HZ  P   0    056 21.54                                   -1.06            
 KNR21    AMP      056 23.48     1.5e+09 0.12                                   
 KNR21HZ  S   0    056 24.12                                    0.22            
 KNR21    AMP      056 24.32     2.8e+09 0.16                                   
 KNR28HZ  P   0    056 23.82                                    0.12            
 KNR28    AMP      056 24.22     3.3e+06 0.08                                   
 KNR28H2  S   0    056 26.06                                    0.16            
 KNR28    AMP      056 27.40     3.5e+07 0.24                                   
 KNR20HZ  P   1    056 23.90                                     0.1            
 KNR20    AMP      056 25.12     2.6e+05 0.08                                   
 KNR20H1  S   3    056 25.00                                      -1            
 KNR20    AMP      056 29.12     5.6e+06 0.12                                   
 KNR06BZ  P   0    056 24.02                                    0.22            
 KNR06    AMP      056 25.00     4.8e+06 0.16                                   
 KNR06BZ  S   0    056 26.60                                     0.5            
 KNR06    AMP      056 26.88     3.6e+07 0.16                                   
 KNR05BH  P   0    056 24.10                                     0.1            
 KNR05B2  S   3    056 26.22                                   -0.18            
 KNR05    AMP      056 29.24     1.2e+07 0.24                                   
 KNR23HH  P   3    056 21.20                                    -2.8            
 KNR23    AMP      056 25.86     8.5e+06 0.20                                   
 KNR18    P   0    056 25.28                                    0.38            
 KNR18    S   2    056 28.33                                    0.43            
 KNR18    AMP      056 30.44     4.9e+06 0.16                                   
 KNR08BH  P   0    056 25.64                                    0.64            
 KNR08B2  S   2    056 29.66                                    1.56            
 KNR08    AMP      056 30.38     9.4e+06 0.24                                   
 KNR17BZ  P   0    056 24.62                                   -0.38            
 KNR17    AMP      056 24.68     9.3e+05 0.16                                   
 KNR17B1  S   0    056 28.06                                   -0.04            
 KNR17    AMP      056 28.56     3.0e+07 0.20                                   
 KNR29HZ  P   2    056 24.38                                   -0.82            
 KNR29    AMP      056 27.30     1.1e+06 0.12                                   
 KNR29HZ  S   3    056 28.32                                   -0.07            
 KNR29    AMP      056 29.86     6.5e+06 0.12                                   
 KNR07BH  P   3    056 28.50                                     2.7            
 KNR19BH  P   2    056 27.54                                    1.04            
 KNR19    AMP      056 34.94     2.2e+06 0.24                                   
 KNR04BZ  P   2    056 26.60                                    -0.2            
 KNR04    AMP      056 30.22     1.7e+05 0.12                                   
 KNR04B1  S   3    056 33.56                                    2.26            
 KNR04    AMP      056 33.84     1.7e+06 0.12                                   
 KNR03BH  P   1    056 26.68                                   -0.42            
 KNR03B1  S   3    056 31.22                                   -0.58            
 KNR03    AMP      056 32.80     9.9e+06 0.16                                   
 KNR10BH  P   3    056 28.46                                    0.56            
 KNR10BH  S   3    056 31.88                                   -1.42            
 KNR09    AMP      056 37.12     1.1e+08 0.20                                   
 KNR02BH  P   3    056 28.98                                   -0.32            
 KNR02    AMP      056 32.72     9.9e+04 0.12                                   
 KNR02    AMP      056 36.52     1.0e+06 0.28                                   
 KNR01BH  P   3    056 29.30                                    -0.1            
 KNR01    AMP      056 34.58     2.8e+07 0.12                                   
 KNR12BH  P   2    056 30.90                                     0.1            
 KNR12BZ  S   3    056 38.84                                    0.44            
 KNR12    AMP      056 39.94     1.2e+06 0.16                                   
 KNR13    AMP      056 30.08     5.8e+04 0.28                                   
 KNR15    P   0    056 35.55                                   -0.35            
 KNR15    S   2    056 46.40                                    -0.9            
                                                                                
