 2017  3 7  252 35.8 L  77.205   7.538 20.6  AWI 26 0.8 7.7LAWI                1
                                                         ID:20170307025233     I
                           5.6    32.0  6.7                                    E
 2017-03-07_02-52-33.mseed                                                     6
 STAT SP IPHASW D HRMM SECON CODA AMPLIT PERI AZIMU VELO AIN AR TRES W  DIS CAZ7
 KNR02    P   0    252 39.40                                    -0.3            
 KNR02    AMP      252 41.16     1.1e+08 0.12                                   
 KNR02    S   2    252 43.89                                    1.09            
 KNR02    AMP      252 43.30     7.0e+08 0.16                                   
 KNR01    P   0    252 39.81                                   -0.29            
 KNR01    S   2    252 44.61                                    1.21            
 KNR01    AMP      252 43.82     1.3e+09 0.20                                   
 KNR04BZ  P   0    252 41.82                                    0.22            
 KNR04    AMP      252 44.92     1.8e+07 0.12                                   
 KNR04B2  S   0    252 46.70                                     0.6            
 KNR04    AMP      252 47.26     2.6e+08 0.24                                   
 KNR03BH  P   0    252 41.98                                   -0.22            
 KNR03B1  S   0    252 46.80                                    -0.4            
 KNR03    AMP      252 47.16     2.1e+08 0.16                                   
 KNR17BZ  P   0    252 42.50                                    -0.1            
 KNR17B2  S   0    252 48.22                                    0.42            
 KNR17    AMP      252 51.46     2.5e+08 0.28                                   
 KNR29HZ  P   0    252 42.74                                   -0.36            
 KNR29    AMP      252 48.02     2.2e+07 0.12                                   
 KNR29HZ  S   2    252 47.98                                   -0.82            
 KNR29    AMP      252 48.84     5.0e+07 0.12                                   
 KNR06BH  P   0    252 44.64                                    0.44            
 KNR06    AMP      252 48.72     1.1e+07 0.12                                   
 KNR06B1  S   2    252 51.26                                    0.46            
 KNR06    AMP      252 53.76     1.4e+08 0.16                                   
 KNR05BZ  P   0    252 44.98                                    0.68            
 KNR05    AMP      252 49.20     2.5e+06 0.16                                   
 KNR05B1  S   1    252 51.84                                    0.94            
 KNR05    AMP      252 53.08     9.7e+07 0.24                                   
 KNR22HZ  P   0    252 44.92                                   -0.18            
 KNR22    AMP      252 45.74     2.2e+06 0.12                                   
 KNR22H1  S   1    252 51.88                                   -0.32            
 KNR22    AMP      252 52.62     2.4e+07 0.20                                   
 KNR30HZ  P   0    252 45.50                                    -0.6            
 KNR30    AMP      252 47.46     1.4e+07 0.12                                   
 KNR30H1  S   2    252 53.58                                   -0.52            
 KNR30    AMP      252 55.74     8.1e+07 0.24                                   
 KNR18    P   0    252 46.78                                    0.38            
 KNR18    S   2    252 56.86                                    2.36            
 KNR18    AMP      252 55.32     5.1e+07 0.20                                   
 KNR21HZ  P   3    252 44.68                                   -1.72            
 KNR21    AMP      252 47.94     1.4e+08 0.16                                   
 KNR21H1  S   1    252 53.26                                   -1.34            
 KNR21    AMP      252 54.06     2.1e+09 0.20                                   
 KNR28HZ  P   2    252 46.64                                    0.04            
 KNR28    AMP      252 50.48     2.8e+06 0.16                                   
 KNR28H1  S   3    252 54.42                                   -0.48            
 KNR28    AMP      252 58.42     6.1e+07 0.20                                   
 KNR20HZ  P   1    252 46.76                                   -0.14            
 KNR20    AMP      252 50.66     7.8e+05 0.16                                   
 KNR20H1  S   2    252 55.40                                       0            
 KNR20    AMP      252 56.46     3.3e+07 0.12                                   
 KNR23HH  P   3    252 49.56                                    2.16            
 KNR23H1  S   1    252 55.00                                    -1.5            
 KNR23    AMP      252 54.62     5.6e+07 0.20                                   
 KNR08BH  P   0    252 48.90                                     0.3            
 KNR08BZ  S   2    252 58.82                                    0.42            
 KNR08    AMP      252 59.54     1.2e+07 0.16                                   
 KNR07B2  S   4    253  4.54                                    5.54            
 KNR07    AMP      252 59.54     6.2e+07 0.24                                   
 KNR19BH  P   2    252 50.80                                     0.8            
 KNR19B1  S   3    253  3.02                                    2.02            
 KNR19    AMP      253  3.72     9.5e+06 0.24                                   
 KNR10BH  P   0    252 51.66                                    0.26            
 KNR10    AMP      252 54.60     2.3e+06 0.16                                   
 KNR10B2  S   3    253  3.54                                    0.14            
 KNR10    AMP      253  5.86     2.2e+07 0.28                                   
 KNR09    AMP      253  7.86     2.0e+07 0.28                                   
 KNR12BH  P   0    252 54.02                                   -0.07            
 KNR12B1  S   2    253  8.58                                    0.38            
 KNR12    AMP      253  8.94     1.2e+07 0.16                                   
 KNR11BZ  P   3    252 54.50                                     0.4            
 KNR11    AMP      252 57.40     1.6e+05 0.08                                   
 KNR11B2  S   3    253  6.06                                   -2.14            
 KNR14BH  P   3    252 56.30                                    -0.2            
 KNR13BH  P   2    252 59.52                                    2.92            
 KNR13    AMP      252 51.72     5.8e+04 0.36                                   
 KNR13BZ  S   4    253 17.28                                    4.58            
 KNR13    AMP      253 13.20     3.4e+05 0.12                                   
 KNR15    P   0    252 58.76                                   -0.14            
 KNR15    S   2    253 17.89                                    1.19            
                                                                                
