 2017  3 7 1038 22.7 L  76.627   7.383  0.7  AWI 26 0.9 6.9LAWI                1
                                                         ID:20170307103823     I
                           2.2    10.8  2.8                                    E
 2017-03-07_10-38-23.mseed                                                     6
 STAT SP IPHASW D HRMM SECON CODA AMPLIT PERI AZIMU VELO AIN AR TRES W  DIS CAZ7
 KNR22    P   0   1038 23.95                                    0.25            
 KNR22    AMP     1038 23.98     2.2e+07 0.12                                   
 KNR22    S   2   1038 24.42                                   -0.08            
 KNR22    AMP     1038 24.96     2.1e+08 0.16                                   
 KNR21HZ  P   0   1038 23.54                                   -0.56            
 KNR21    AMP     1038 24.50     4.4e+08 0.12                                   
 KNR21H1  S   0   1038 25.86                                    0.56            
 KNR21    AMP     1038 26.64     7.6e+09 0.20                                   
 KNR30HZ  P   0   1038 24.52                                    0.32            
 KNR30    AMP     1038 24.62     7.2e+06 0.12                                   
 KNR30H1  S   0   1038 25.50                                     0.2            
 KNR30    AMP     1038 27.14     1.8e+08 0.28                                   
 KNR28HZ  P   0   1038 25.88                                    0.48            
 KNR28    AMP     1038 26.36     4.8e+06 0.08                                   
 KNR28H2  S   0   1038 28.18                                    0.58            
 KNR28    AMP     1038 28.96     7.5e+07 0.24                                   
 KNR20HZ  P   3   1038 27.86                                    2.06            
 KNR20H1  S   3   1038 29.72                                    1.52            
 KNR20    AMP     1038 31.32     1.8e+07 0.12                                   
 KNR06BZ  P   0   1038 26.26                                    0.36            
 KNR06    AMP     1038 27.20     9.9e+06 0.16                                   
 KNR06B2  S   0   1038 28.70                                     0.3            
 KNR06    AMP     1038 28.94     1.3e+08 0.12                                   
 KNR05BZ  P   0   1038 26.32                                    0.42            
 KNR05B2  S   2   1038 28.40                                    -0.1            
 KNR05    AMP     1038 31.72     2.3e+07 0.20                                   
 KNR23HH  P   0   1038 23.22                                   -2.68            
 KNR23HH  S   3   1038 29.88                                    1.58            
 KNR23    AMP     1038 28.24     2.3e+07 0.16                                   
 KNR18    P   0   1038 27.28                                    0.58            
 KNR18    S   2   1038 30.33                                    0.53            
 KNR18    AMP     1038 33.20     3.3e+06 0.16                                   
 KNR08BH  P   3   1038 27.88                                    0.98            
 KNR17BH  P   0   1038 26.80                                    -0.2            
 KNR17    AMP     1038 29.70     2.8e+06 0.12                                   
 KNR17B1  S   0   1038 30.26                                   -0.14            
 KNR17    AMP     1038 30.76     7.5e+07 0.20                                   
 KNR29HZ  P   0   1038 26.68                                   -0.52            
 KNR29    AMP     1038 30.08     2.8e+06 0.16                                   
 KNR29HZ  S   2   1038 30.12                                   -0.68            
 KNR29    AMP     1038 32.06     1.8e+07 0.12                                   
 KNR19BZ  P   2   1038 29.76                                    1.36            
 KNR19B2  S   2   1038 34.30                                     1.4            
 KNR19    AMP     1038 37.16     4.5e+06 0.24                                   
 KNR04BZ  P   1   1038 28.86                                   0.060            
 KNR04    AMP     1038 32.42     4.3e+05 0.12                                   
 KNR04B1  S   2   1038 35.76                                    2.16            
 KNR04    AMP     1038 36.04     5.3e+06 0.12                                   
 KNR03BH  P   0   1038 28.94                                   -0.06            
 KNR03B1  S   2   1038 33.36                                   -0.64            
 KNR03    AMP     1038 35.08     2.3e+07 0.16                                   
 KNR10BH  P   1   1038 30.68                                    0.78            
 KNR10    AMP     1038 32.58     1.3e+06 0.16                                   
 KNR10B1  S   3   1038 36.60                                     1.2            
 KNR10    AMP     1038 36.96     1.0e+07 0.12                                   
 KNR09BH  P   2   1038 30.52                                    0.32            
 KNR09    AMP     1038 39.18     1.3e+07 0.20                                   
 KNR02BZ  P   3   1038 30.78                                   -0.52            
 KNR02B1  S   3   1038 37.88                                   -0.02            
 KNR02    AMP     1038 40.04     2.3e+06 0.24                                   
 KNR01BH  P   2   1038 31.36                                   -0.04            
 KNR01B2  S   3   1038 37.84                                   -0.26            
 KNR01    AMP     1038 38.32     7.3e+06 0.20                                   
 KNR12BH  P   1   1038 33.08                                    0.38            
 KNR12    AMP     1038 35.00     2.7e+05 0.12                                   
 KNR12BZ  S   3   1038 41.06                                    0.56            
 KNR12    AMP     1038 41.96     9.1e+06 0.20                                   
 KNR11BH  P   3   1038 33.92                                    1.22            
 KNR11    AMP     1038 44.44     4.8e+05 0.24                                   
 KNR14B2  S   3   1038 42.34                                   -2.76            
 KNR14    AMP     1038 43.78     2.1e+07 0.24                                   
 KNR13BH  S   4   1038 40.46                                   -4.74            
 KNR13    AMP     1038 47.74     2.0e+05 0.44                                   
 KNR15    P   0   1038 37.55                                   -0.25            
 KNR15    S   2   1038 48.40                                      -1            
                                                                                
