 2017  3 7 1740 58.4 L  77.206   7.656 22.1  AWI 26 0.7 7.4LAWI                1
                                                         ID:20170307174056     I
                           4.6    23.5  4.7                                    E
 2017-03-07_17-40-56.mseed                                                     6
 STAT SP IPHASW D HRMM SECON CODA AMPLIT PERI AZIMU VELO AIN AR TRES W  DIS CAZ7
 KNR02BH  P   0   1741  2.32                                   -0.08            
 KNR02    AMP     1741  3.80     3.1e+07 0.12                                   
 KNR02B2  S   0   1741  5.64                                    0.14            
 KNR02    AMP     1741  6.10     2.8e+08 0.24                                   
 KNR01BH  P   0   1741  2.80                                    -0.2            
 KNR01    AMP     1741  5.76     2.7e+07 0.08                                   
 KNR01B2  S   0   1741  6.36                                   -0.24            
 KNR01    AMP     1741  6.52     7.3e+08 0.20                                   
 KNR04BZ  P   0   1741  4.44                                    0.14            
 KNR04    AMP     1741  7.50     4.7e+06 0.12                                   
 KNR04B2  S   0   1741  9.06                                    0.26            
 KNR04    AMP     1741  9.60     5.6e+07 0.28                                   
 KNR03    P   0   1741  5.06                                   -0.04            
 KNR03    S   2   1741 11.74                                    1.44            
 KNR03    AMP     1741  9.68     2.2e+08 0.16                                   
 KNR17BZ  P   0   1741  5.16                                   -0.14            
 KNR17    AMP     1741 10.22     5.3e+06 0.16                                   
 KNR17B2  S   0   1741 10.36                                   -0.24            
 KNR17    AMP     1741 14.72     6.7e+07 0.28                                   
 KNR29HZ  P   0   1741  5.28                                   -0.42            
 KNR29    AMP     1741 10.48     4.2e+06 0.12                                   
 KNR29HZ  S   3   1741 10.92                                   -0.48            
 KNR29    AMP     1741 15.32     3.5e+07 0.16                                   
 KNR06BZ  P   0   1741  7.28                                    0.38            
 KNR06    AMP     1741 10.54     3.6e+06 0.20                                   
 KNR06BZ  S   0   1741 13.64                                    0.14            
 KNR06    AMP     1741 14.34     5.5e+07 0.12                                   
 KNR05BZ  P   0   1741  7.24                                    0.14            
 KNR05B1  S   1   1741 14.30                                     0.5            
 KNR05    AMP     1741 18.30     2.5e+07 0.20                                   
 KNR22HZ  P   0   1741  7.56                                   -0.14            
 KNR22    AMP     1741 10.20     1.1e+06 0.12                                   
 KNR22H2  S   0   1741 14.40                                    -0.6            
 KNR22    AMP     1741 14.96     9.4e+06 0.20                                   
 KNR30HZ  P   2   1741  9.60                                     0.9            
 KNR30    AMP     1741 13.48     4.7e+06 0.12                                   
 KNR30HZ  S   3   1741 15.90                                    -0.8            
 KNR30    AMP     1741 17.92     2.6e+07 0.20                                   
 KNR21H1  S   3   1741 15.54                                   -1.86            
 KNR21    AMP     1741 15.92     7.9e+08 0.20                                   
 KNR18    P   0   1741  9.43                                    0.23            
 KNR18    S   2   1741 19.40                                     1.9            
 KNR18    AMP     1741 18.66     5.2e+06 0.20                                   
 KNR28HZ  P   3   1741  7.50                                    -1.8            
 KNR28    AMP     1741 11.68     1.4e+06 0.12                                   
 KNR28H2  S   3   1741 16.48                                   -1.22            
 KNR28    AMP     1741 18.06     6.0e+06 0.12                                   
 KNR20H1  S   3   1741 17.68                                   -0.32            
 KNR20    AMP     1741 18.58     1.5e+07 0.12                                   
 KNR23H1  S   3   1741 17.88                                   -1.32            
 KNR23    AMP     1741 18.18     1.1e+07 0.16                                   
 KNR08BH  P   3   1741 11.54                                    0.34            
 KNR08    AMP     1741 21.92     6.5e+06 0.16                                   
 KNR19BZ  P   3   1741 10.10                                    -2.6            
 KNR19B1  S   3   1741 24.50                                     0.8            
 KNR19    AMP     1741 28.44     8.7e+05 0.24                                   
 KNR10BH  P   0   1741 14.34                                    0.34            
 KNR10B1  S   3   1741 25.98                                   -0.02            
 KNR11BH  S   3   1741 27.76                                   -3.14            
 KNR12BH  P   3   1741 16.72                                   0.020            
 KNR12B1  S   3   1741 30.56                                   -0.24            
 KNR12    AMP     1741 31.38     5.8e+06 0.16                                   
 KNR14BH  S   3   1741 33.56                                   -1.54            
 KNR13    AMP     1741 19.50     2.7e+05 0.32                                   
 KNR16    AMP     1741 39.80     1.3e+06 0.20                                   
                                                                                
