 2017  3 7 1951  3.8 L  76.854   7.499 11.4  AWI 26 0.8 7.6LAWI                1
                                                         ID:20170307195103     I
                           2.5    19.6  6.7                                    E
 2017-03-07_19-51-03.mseed                                                     6
 STAT SP IPHASW D HRMM SECON CODA AMPLIT PERI AZIMU VELO AIN AR TRES W  DIS CAZ7
 KNR17    P   0   1951  5.19                                   -0.61            
 KNR17    S   2   1951  6.31                                   -0.99            
 KNR17    AMP     1951  7.46     1.5e+09 0.28                                   
 KNR29    P   0   1951  5.82                                   -0.68            
 KNR29    AMP     1951  8.06     2.1e+08 0.12                                   
 KNR29    S   2   1951  7.52                                   -0.98            
 KNR29    AMP     1951  8.36     7.8e+08 0.12                                   
 KNR04BZ  P   0   1951  6.68                                    0.08            
 KNR04    AMP     1951  7.82     2.5e+07 0.20                                   
 KNR04B1  S   0   1951  9.12                                    0.22            
 KNR04    AMP     1951  9.38     5.6e+08 0.24                                   
 KNR06BH  P   0   1951  7.50                                     0.5            
 KNR06    AMP     1951  8.90     5.7e+07 0.08                                   
 KNR06B2  S   0   1951 10.38                                    0.88            
 KNR06    AMP     1951 10.46     3.1e+08 0.08                                   
 KNR05BH  P   0   1951  7.66                                    0.36            
 KNR05    AMP     1951  8.86     1.4e+06 0.12                                   
 KNR05B1  S   0   1951 10.88                                    0.88            
 KNR05    AMP     1951 11.04     9.3e+07 0.16                                   
 KNR03    P   0   1951  7.57                                   -0.03            
 KNR03    S   2   1951 10.53                                    0.03            
 KNR03    AMP     1951 10.90     7.5e+07 0.12                                   
 KNR22HZ  P   0   1951  7.66                                    0.06            
 KNR22    AMP     1951  8.82     1.0e+07 0.12                                   
 KNR22H2  S   0   1951 10.74                                    0.14            
 KNR22    AMP     1951 11.62     7.9e+07 0.24                                   
 KNR02BH  P   0   1951  8.76                                    0.16            
 KNR02    AMP     1951 11.04     3.4e+06 0.12                                   
 KNR02B2  S   0   1951 12.78                                    0.48            
 KNR02    AMP     1951 13.16     5.2e+07 0.24                                   
 KNR30HZ  P   0   1951  8.24                                   -0.46            
 KNR30    AMP     1951 10.88     1.9e+07 0.12                                   
 KNR30H2  S   0   1951 12.38                                   -0.02            
 KNR30    AMP     1951 12.86     3.0e+08 0.08                                   
 KNR01    P   0   1951  8.73                                   -0.17            
 KNR01    S   2   1951 12.57                                   -0.33            
 KNR01    AMP     1951 13.94     1.6e+08 0.20                                   
 KNR21HZ  P   2   1951 11.58                                    2.58            
 KNR21    AMP     1951 11.96     2.3e+09 0.12                                   
 KNR21H1  S   3   1951 13.88                                    0.88            
 KNR21    AMP     1951 11.88     3.0e+09 0.12                                   
 KNR28HZ  P   2   1951  8.94                                   -0.36            
 KNR28    AMP     1951 12.56     6.5e+06 0.20                                   
 KNR28H2  S   1   1951 13.10                                    -0.5            
 KNR28    AMP     1951 14.72     7.1e+07 0.12                                   
 KNR20HZ  P   2   1951  9.60                                     0.1            
 KNR20    AMP     1951  9.66     2.5e+06 0.12                                   
 KNR20H1  S   2   1951 14.36                                    0.46            
 KNR20    AMP     1951 14.96     6.7e+07 0.12                                   
 KNR18    P   0   1951  9.95                                    0.45            
 KNR18    S   2   1951 14.73                                    0.73            
 KNR18    AMP     1951 14.96     3.1e+07 0.16                                   
 KNR23HH  P   1   1951  7.20                                    -2.9            
 KNR23    AMP     1951 13.10     2.3e+07 0.12                                   
 KNR23H1  S   2   1951 12.60                                    -2.4            
 KNR23    AMP     1951 13.10     2.3e+07 0.12                                   
 KNR08BH  P   0   1951 11.68                                    0.48            
 KNR08B2  S   3   1951 17.64                                    0.74            
 KNR08    AMP     1951 18.22     2.1e+07 0.12                                   
 KNR07BH  P   3   1951 11.68                                   -0.02            
 KNR19BH  P   1   1951 13.32                                    0.62            
 KNR19BZ  S   2   1951 20.34                                    0.74            
 KNR19    AMP     1951 21.62     3.9e+06 0.16                                   
 KNR10BH  P   0   1951 14.42                                    0.32            
 KNR10    AMP     1951 16.66     5.4e+06 0.16                                   
 KNR10B1  S   2   1951 21.96                                   -0.03            
 KNR10    AMP     1951 23.06     3.2e+07 0.20                                   
 KNR12BH  P   0   1951 16.86                                   -0.04            
 KNR12B1  S   0   1951 26.72                                   -0.28            
 KNR12    AMP     1951 27.92     3.6e+07 0.20                                   
 KNR13BH  P   3   1951 21.96                                    2.46            
 KNR13    AMP     1951 20.86     8.1e+04 0.16                                   
 KNR13BZ  S   4   1951 36.20                                     4.5            
 KNR16    AMP     1951 36.24     1.0e+07 0.20                                   
                                                                                
